University,City,State,Religion,Market_Saturation_Percentile,Academic_Efficiency_Percentile,aCFI_Percentile,Survivability,full_address,location,Latitude,Longitude
Fresno Pacific University,Fresno,CA,Anabaptist,33.36,54.74,48.76,43.796,"Fresno Pacific University, Fresno, CA","Fresno Pacific University, South Garden Avenue, Fresno, Fresno County, California, 93727, United States",36.72601005,-119.73419010411482
Goshen College,Goshen,IN,Anabaptist,33.8,40.05,40.67,37.799,"Goshen College, Goshen, IN","Goshen College, 1700, South Main Street, Parkside, Goshen, Elkhart County, Indiana, 46526, United States",41.56248295,-85.82522495563299
Huntington University,Huntington,IN,Anabaptist,42.7,42.0,49.4,45.242,"Huntington University, Huntington, IN","Huntington University, Ray Street, Huntington, Huntington County, Indiana, 46750, United States",40.89905155,-85.5022118549875
Manchester University,North Manchester,IN,Anabaptist,37.03,41.18,50.56,43.275,"Manchester University, North Manchester, IN","Manchester University, 604, East College Avenue, North Manchester, Wabash County, Indiana, 46962, United States",41.01177555,-85.76000953742776
Emmaus Bible College,Dubuque,IA,Anabaptist,25.59,39.2,66.28,44.597,"Emmaus Bible College, Dubuque, IA","Emmaus Bible College, 2570, Asbury Road, College Grandview District, Dubuque, Dubuque County, Iowa, 52001, United States",42.5087374,-90.7060749086276
Hesston College,Hesston,KS,Anabaptist,27.23,38.97,96.4,57.264,"Hesston College, Hesston, KS","Hesston College, South Hess Avenue, Hesston, Harvey County, Kansas, 67062, United States",38.13468465,-97.43391833739682
McPherson College,McPherson,KS,Anabaptist,34.49,40.21,90.49,58.05,"McPherson College, McPherson, KS","McPherson College, Simpson Street, McPherson, McPherson County, Kansas, 67460, United States",38.37222595,-97.64194995634703
Tabor College,Hillsboro,KS,Anabaptist,29.29,39.01,52.11,40.367,"Tabor College, Hillsboro, KS","Tabor College, East B Street, Hillsboro, Marion County, Kansas, 67063, United States",38.34564655,-97.19974490220972
Ashland University,Ashland,OH,Anabaptist,42.07,54.22,49.96,47.656,"Ashland University, Ashland, OH","Ashland University, 401, College Avenue, Center Street Historic District, Ashland, Ashland County, Ohio, 44805, United States",40.86206715,-82.32557737380854
Bluffton University,Bluffton,OH,Anabaptist,30.68,38.74,51.08,40.457,"Bluffton University, Bluffton, OH","Bluffton University, Adams Bridge, Downtown Bluffton, Bluffton, Allen County, Ohio, 45817, United States",40.8965715,-83.89964803548409
Bucknell University,Lewisburg,PA,Anabaptist,69.01,49.56,52.15,58.375,"Bucknell University, Lewisburg, PA","Bucknell President's House, University Avenue, Lewisburg, Union County, Pennsylvania, 17837, United States",40.9588852,-76.88191282447514
Juniata College,Huntingdon,PA,Anabaptist,37.22,41.57,50.04,43.221,"Juniata College, Huntingdon, PA","Juniata College, 19th Street, Taylor Highlands, Huntingdon, Huntingdon County, Pennsylvania, 16652, United States",40.5012255,-78.01516280060704
Bridgewater College,Bridgewater,VA,Anabaptist,46.02,42.23,50.04,46.872,"Bridgewater College, Bridgewater, VA","Bridgewater College, Dogwood Drive, Bridgewater, Rockingham County, Virginia, 22812, United States",38.3772626,-78.96809814655431
Eastern Mennonite University,Harrisonburg,VA,Anabaptist,32.42,42.03,52.11,42.222,"Eastern Mennonite University, Harrisonburg, VA","Eastern Mennonite University, Chicago Avenue, Park View, Harrisonburg, Virginia, 22802, United States",38.47216285,-78.87794515329837
University of Mobile,Mobile,AL,Baptist,45.98,41.92,49.32,46.506,"University of Mobile, Mobile, AL","University of Mobile, Pollock Altmayer Drive, College Woods, Prichard, Mobile County, Alabama, 36613, United States",30.7919746,-88.13124153816352
Arkansas Baptist College,Little Rock,AR,Baptist,23.92,36.77,48.52,36.335,"Arkansas Baptist College, Little Rock, AR","Arkansas Baptist College, 1600, Dr Martin Luther King Drive, Little Rock, Big Rock Township, Pulaski County, Arkansas, 72202, United States",34.734972299999995,-92.2898356068249
Ouachita Baptist University,Arkadelphia,AR,Baptist,43.01,42.9,50.36,45.93,"Ouachita Baptist University, Arkadelphia, AR","Ouachita Baptist University, 410, Ouachita Street, Arkadelphia, Clark County, Arkansas, 71923, United States",34.1307617,-93.05250677656252
California Baptist University,Riverside,CA,Baptist,84.21,88.06,48.68,70.757,"California Baptist University, Riverside, CA","California Baptist University, 8432, Magnolia Avenue, Ramona, Riverside, Riverside County, California, 92504, United States",33.928323899999995,-117.42592062058483
Florida Memorial University,Miami Gardens,FL,Baptist,59.48,39.43,48.09,50.915,"Florida Memorial University, Miami Gardens, FL","Florida Memorial University, 15800, Northwest 44th Court, Miami Gardens, Miami-Dade County, Florida, 33054, United States",25.9175201,-80.27068544105553
Brewton-Parker College,Mount Vernon,GA,Baptist,43.09,38.29,47.85,44.036,"Brewton-Parker College, Mount Vernon, GA","Brewton Parker College, Mount Vernon, Montgomery County, Georgia, 30445, United States",32.185388957968684,-82.58347271164341
Mercer University,Macon,GA,Baptist,95.79,74.67,49.6,73.08,"Mercer University, Macon, GA","Mercer University, Shamrock Street, Macon, Bibb County, Georgia, 31201, United States",32.8289341,-83.65067020582131
Morehouse College,Atlanta,GA,Baptist,85.68,43.96,30.78,55.368,"Morehouse College, Atlanta, GA","Morehouse College, Westview Drive Southwest, Joel Chandler Harris Homes, Atlanta, Fulton County, Georgia, 30310, United States",33.74737405,-84.41609506200462
Shorter University,Rome,GA,Baptist,43.6,41.18,50.04,45.694,"Shorter University, Rome, GA","Shorter University, 315, Shorter Avenue, DeSoto Homes, Westwood, Rome, Floyd County, Georgia, 30165, United States",34.25942875,-85.19527510695326
Judson University,Elgin,IL,Baptist,33.14,41.53,48.52,40.973,"Judson University, Elgin, IL","Judson University, North State Street, Elgin, Elgin Township, Kane County, Illinois, 60118, United States",42.0609055,-88.29150749046332
Franklin College,Franklin,IN,Baptist,39.97,40.52,50.2,44.175,"Franklin College, Franklin, IN","Franklin College, 101, South Forsythe Street, Franklin, Johnson County, Indiana, 46131, United States",39.47660655,-86.03725773127834
Ottawa University-Ottawa,Ottawa,KS,Baptist,35.68,39.17,48.21,41.393,"Ottawa University-Ottawa, Ottawa, KS","Ottawa University, 1001, South Cedar Street, Ottawa, Franklin County, Kansas, 66067, United States",38.60293695,-95.2638028645363
University of the Cumberlands,Williamsburg,KY,Baptist,59.21,99.06,45.94,61.86,"University of the Cumberlands, Williamsburg, KY","University of the Cumberlands, South 8th Street, Williamsburg, Whitley County, Kentucky, 40769, United States",36.73674315,-84.16286166961402
Georgetown College,Georgetown,KY,Baptist,39.43,41.68,48.52,43.518,"Georgetown College, Georgetown, KY","Georgetown College, East Main Street, Georgetown, Scott County, Kentucky, 40324, United States",38.20692075,-84.55403434882237
Louisiana Christian University,Pineville,LA,Baptist,31.07,40.9,50.64,40.868,"Louisiana Christian University, Pineville, LA","Louisiana Christian University, Pineville Expressway, Pineville Junction, Pineville, Rapides Parish, Louisiana, 71361, United States",31.3235321,-92.4258488256772
Bates College,Lewiston,ME,Baptist,42.0,44.2,51.04,46.058,"Bates College, Lewiston, ME","Bates College, 2, Robinson Gardens, Lewiston, Androscoggin County, Maine, 04240, United States",44.10656935,-70.20282870728443
Mississippi College,Clinton,MS,Baptist,54.38,56.32,50.56,53.238,"Mississippi College, Clinton, MS","Mississippi College, I 20, The Subs, Trailwood, Clinton, Hinds County, Mississippi, 39058, United States",32.3354174,-90.33188238452227
William Carey University,Hattiesburg,MS,Baptist,35.76,57.06,50.32,45.844,"William Carey University, Hattiesburg, MS","William Carey University, 710, William Carey Parkway, Hattiesburg, Forrest County, Mississippi, 39401, United States",31.3037101,-89.29276386549502
Hannibal-LaGrange University,Hannibal,MO,Baptist,23.0,38.86,56.28,39.491,"Hannibal-LaGrange University, Hannibal, MO","Hannibal-LaGrange University, 2800, Palmyra Road, Hannibal, Marion County, Missouri, 63401, United States",39.732717750000006,-91.39100114558696
Missouri Baptist University,Saint Louis,MO,Baptist,34.9,44.51,49.48,42.656,"Missouri Baptist University, Saint Louis, MO","Missouri Baptist University, 1, College Park Drive, Creve Coeur, Saint Louis County, Missouri, 63141, United States",38.6419861,-90.46229806385276
Southwest Baptist University,Bolivar,MO,Baptist,27.86,45.46,50.04,40.255,"Southwest Baptist University, Bolivar, MO","Southwest Baptist University, 1600, University Avenue, Bolivar, Polk County, Missouri, 65613, United States",37.600760050000005,-93.40873074472032
Alfred University,Alfred,NY,Baptist,39.55,45.5,52.15,45.783,"Alfred University, Alfred, NY","Alfred University, Yellow Trail, Village of Alfred, Town of Alfred, Allegany County, New York, 14802, United States",42.255862,-77.7857087052491
Keuka College,Keuka Park,NY,Baptist,29.87,41.61,49.16,39.937,"Keuka College, Keuka Park, NY","Keuka College, Birch Street, Keuka Park, Town of Jerusalem, Yates County, New York, 14478, United States",42.6147014,-77.08995736319191
Union College,Schenectady,NY,Baptist,46.65,43.6,49.96,47.366,"Union College, Schenectady, NY","Union College, Lenox Road, Northside, City of Schenectady, Schenectady County, New York, 12308, United States",42.8175752,-73.92839165453219
Campbell University,Buies Creek,NC,Baptist,49.28,57.97,49.52,51.112,"Campbell University, Buies Creek, NC","Campbell University, 143, Main Street, Buies Creek, Harnett County, North Carolina, 27506, United States",35.408071,-78.73924679769573
Chowan University,Murfreesboro,NC,Baptist,28.16,40.13,52.15,40.155,"Chowan University, Murfreesboro, NC","Chowan University, College Street, Murfreesboro, Hertford County, North Carolina, 27855, United States",36.4340869,-77.09650067197137
Gardner-Webb University,Boiling Springs,NC,Baptist,54.97,47.65,50.16,51.582,"Gardner-Webb University, Boiling Springs, NC","Gardner-Webb University, 110, South Main Street, Boiling Springs, Cleveland County, North Carolina, 28017, United States",35.24782945,-81.67023803083481
Mars Hill University,Mars Hill,NC,Baptist,41.76,40.44,49.8,44.715,"Mars Hill University, Mars Hill, NC","Mars Hill University, 100, Athletic Street, Mars Hill, Madison County, North Carolina, 28754, United States",35.827147,-82.5529516616329
Meredith College,Raleigh,NC,Baptist,41.1,44.75,50.04,45.408,"Meredith College, Raleigh, NC","Meredith College, 3800, Hillsborough Street, Method, Raleigh, Wake County, North Carolina, 27607, United States",35.798213950000005,-78.68893690156162
University of Mount Olive,Mount Olive,NC,Baptist,40.87,44.16,23.64,34.63,"University of Mount Olive, Mount Olive, NC","University of Mount Olive, 586, Henderson Street, Mount Olive, Wayne County, North Carolina, 28365, United States",35.20585095,-78.06997857195825
Shaw University,Raleigh,NC,Baptist,27.83,40.75,49.4,39.046,"Shaw University, Raleigh, NC","Shaw University, South Wilmington Street, Warehouse District, Raleigh, Wake County, North Carolina, 27603, United States",35.77076885,-78.63697923267378
Wingate University,Wingate,NC,Baptist,70.44,49.28,49.36,57.774,"Wingate University, Wingate, NC","Wingate University, 220, North Camden Street, Wingate, Union County, North Carolina, 28174, United States",34.987101100000004,-80.43731492196923
Cedarville University,Cedarville,OH,Baptist,73.34,51.6,50.36,59.797,"Cedarville University, Cedarville, OH","Cedarville University, 251, North Main Street, Cedarville, Cedarville Township, Greene County, Ohio, 45314, United States",39.7540491,-83.81705182918216
Oklahoma Baptist University,Shawnee,OK,Baptist,37.52,42.43,51.36,44.041,"Oklahoma Baptist University, Shawnee, OK","Oklahoma Baptist University, North Aydelotte Street, Shawnee, Pottawatomie County, Oklahoma, 74804, United States",35.364462950000004,-96.93385103279996
Linfield University,McMinnville,OR,Baptist,40.36,44.31,51.08,45.44,"Linfield University, McMinnville, OR","Linfield University, Southeast Davis Street, McMinnville, Yamhill County, Oregon, 97128, United States",45.1984734,-123.19813835871923
Anderson University,Anderson,SC,Baptist,85.31,52.43,99.68,84.493,"Anderson University, Anderson, SC","Anderson University, Springdale Road, Allen Hills, Anderson, Anderson County, South Carolina, 29621, United States",34.51478935,-82.63874687710373
Charleston Southern University,Charleston,SC,Baptist,71.23,47.61,49.44,57.788,"Charleston Southern University, Charleston, SC","Charleston Southern University, 9200, University Boulevard, North Charleston, Charleston County, South Carolina, 29406, United States",32.9826445,-80.07109661611514
Benedict College,Columbia,SC,Baptist,29.98,40.28,51.04,40.468,"Benedict College, Columbia, SC","Benedict College, 1600, Harden Street, Waverly, Columbia, Richland County, South Carolina, 29204, United States",34.01396275,-81.02097288919151
Morris College,Sumter,SC,Baptist,27.09,38.09,55.88,40.812,"Morris College, Sumter, SC","Morris College, West College Street, Sumter, Sumter County, South Carolina, 29153, United States",33.9383314,-80.34700051878013
North Greenville University,Tigerville,SC,Baptist,49.8,44.35,52.35,49.732,"North Greenville University, Tigerville, SC","North Greenville University, Foster Circle, Tigerville, Greenville County, South Carolina, 29687, United States",35.070227,-82.37443307070124
University of Sioux Falls,Sioux Falls,SD,Baptist,37.68,43.76,50.44,44.003,"University of Sioux Falls, Sioux Falls, SD","University of Sioux Falls - Main Campus, 1101, West 22nd Street, Sioux Falls, Sioux Falls Township, Minnehaha County, South Dakota, 57105, United States",43.5309201,-96.73813259452696
American Baptist College,Nashville,TN,Baptist,23.67,37.49,48.72,36.459,"American Baptist College, Nashville, TN","American Baptist College, Baptist World Center Drive, Brooklyn Heights, Nashville, Davidson County, Middle Tennessee, Tennessee, 37207, United States",36.2022777,-86.7902765
Baptist Health Sciences University,Memphis,TN,Baptist,23.39,40.13,51.64,38.043,"Baptist Health Sciences University, Memphis, TN","Baptist Health Sciences University, 1003, Monroe Avenue, Medical District, Memphis, Shelby County, West Tennessee, Tennessee, 38104, United States",35.13653725,-90.02616776188766
Carson-Newman University,Jefferson City,TN,Baptist,35.27,49.8,50.44,44.246,"Carson-Newman University, Jefferson City, TN","Carson-Newman University, Andrew Johnson Highway, Jefferson City, Jefferson County, East Tennessee, Tennessee, 37760, United States",36.12206325,-83.4893262980502
Union University,Jackson,TN,Baptist,38.29,46.69,58.94,48.235,"Union University, Jackson, TN","Union University, Hope Road, Jackson, Madison County, West Tennessee, Tennessee, 38302, United States",35.67712415,-88.86094997728624
Baylor University,Waco,TX,Baptist,99.87,95.25,51.24,79.48,"Baylor University, Waco, TX","Baylor University, 1301, South University Parks Drive, Waco, McLennan County, Texas, 76706, United States",31.55043405,-97.1102905567766
Dallas Baptist University,Dallas,TX,Baptist,84.3,47.49,53.98,64.808,"Dallas Baptist University, Dallas, TX","Dallas Baptist University, 3000, Mountain Creek Parkway, Dallas, Dallas County, Texas, 75211, United States",32.7108312,-96.946767972549
East Texas Baptist University,Marshall,TX,Baptist,58.0,42.5,49.68,51.573,"East Texas Baptist University, Marshall, TX","East Texas Baptist University, 1, Tiger Drive, Marshall, Harrison County, Texas, 75670, United States",32.557952650000004,-94.37511342798528
Hardin-Simmons University,Abilene,TX,Baptist,57.3,44.55,51.12,52.279,"Hardin-Simmons University, Abilene, TX","Hardin-Simmons University, 2200, Hickory Street, Abilene, Taylor County, Texas, 79601, United States",32.4777117,-99.73415759382408
Howard Payne University,Brownwood,TX,Baptist,37.75,38.94,55.49,45.089,"Howard Payne University, Brownwood, TX","Howard Payne University, 1000, Fisk Street, Brownwood, Brown County, Texas, 76801, United States",31.71642025,-98.98631404578038
University of Mary Hardin-Baylor,Belton,TX,Baptist,89.76,49.24,41.18,62.218,"University of Mary Hardin-Baylor, Belton, TX","University of Mary-Hardin Baylor, 900, College Street, Belton, Bell County, Texas, 76513, United States",31.06868225,-97.46482937242428
Averett University,Danville,VA,Baptist,38.32,43.05,48.29,43.256,"Averett University, Danville, VA","Averett University, 420, West Main Street, Springfield, Danville, Virginia, 24541, United States",36.5789301,-79.41452051628477
Bluefield University,Bluefield,VA,Baptist,30.68,42.66,52.59,41.844,"Bluefield University, Bluefield, VA","Bluefield College, 3000, College Avenue, Bluefield, Tazewell County, Virginia, 24605, United States",37.24510425,-81.24800239953215
Virginia Union University,Richmond,VA,Baptist,48.48,39.97,49.48,47.18,"Virginia Union University, Richmond, VA","Virginia Union University, Bath Street, Richmond, Virginia, 23232, United States",37.5617598,-77.45105977399695
Appalachian Bible College,Mount Hope,WV,Baptist,26.27,38.44,50.52,38.409,"Appalachian Bible College, Mount Hope, WV","Appalachian Bible College, 161, College Drive, Mount Hope, Raleigh County, West Virginia, 25880, United States",37.8549214,-81.20494954511202
Maranatha Baptist University,Watertown,WI,Baptist,29.56,40.63,49.68,39.826,"Maranatha Baptist University, Watertown, WI","Maranatha Baptist University, 745, West Main Street, Watertown, Jefferson County, Wisconsin, 53094, United States",43.19591645,-88.74001639641634
Criswell College,Dallas,TX,Baptist,25.05,38.48,50.12,37.769,"Criswell College, Dallas, TX","Criswell College, North Hill Avenue, Old East Dallas, Dallas, Dallas County, Texas, 75246, United States",32.79311725,-96.777051129858
Anderson University,Anderson,IN,Church of God,42.35,40.13,49.0,44.568,"Anderson University, Anderson, IN","Anderson University, 1100, Ravens Lake Drive, Anderson, Madison County, Indiana, 46012, United States",40.11455395,-85.6607189805517
Dordt University,Sioux Center,IA,Church of God,47.41,43.41,51.0,48.048,"Dordt University, Sioux Center, IA","Dordt University, 3rd Street Northeast, Sioux Center, Sioux County, Iowa, 51250, United States",43.08066095,-96.16404679319116
The University of Findlay,Findlay,OH,Church of God,54.18,46.81,49.36,50.778,"The University of Findlay, Findlay, OH","The Center for Equine and Pre-Veterinary Sciences, 14700, County Road 37, Findlay, Hancock County, Ohio, 45840, United States",40.9520749,-83.65536133422265
Warner Pacific University,Portland,OR,Church of God,23.24,39.13,48.17,36.394,"Warner Pacific University, Portland, OR","Warner Pacific University, 2219, Southeast 68th Avenue, Mount Tabor, Portland, Multnomah County, Oregon, 97215, United States",45.5062805,-122.59338494421556
Lee University,Cleveland,TN,Church of God,37.71,51.68,52.35,46.362,"Lee University, Cleveland, TN","Lee University, Trunk Street Northeast, Cleveland, Bradley County, East Tennessee, Tennessee, 37311, United States",35.1660778,-84.86925196171154
Mid-America Christian University,Oklahoma City,OK,Church of God,30.96,43.84,49.4,40.915,"Mid-America Christian University, Oklahoma City, OK","Mid-America Christian University;Mid-America Bible College, Southwest 119th Street, Oklahoma City, Cleveland County, Oklahoma, 73173, United States",35.3467159,-97.57847646028875
Faulkner University,Montgomery,AL,Churches of Christ,36.5,48.52,48.84,43.841,"Faulkner University, Montgomery, AL","Faulkner University, 5345, Atlanta Highway, Montgomery, Montgomery County, Alabama, 36109, United States",32.3854781,-86.21710609904724
Pepperdine University,Malibu,CA,Churches of Christ,63.76,83.52,50.12,62.248,"Pepperdine University, Malibu, CA","Pepperdine University - Malibu Campus, Winter Canyon Road, Malibu, Los Angeles County, California, 90263, United States",34.043010300000006,-118.70934589328934
Florida College,Temple Terrace,FL,Churches of Christ,36.24,40.67,52.47,43.622,"Florida College, Temple Terrace, FL","Florida College, North Glen Arven Avenue, Temple Terrace, Hillsborough County, Florida, 33617, United States",28.03446495,-82.38338213326841
Rochester University,Rochester Hills,MI,Churches of Christ,34.24,40.25,48.21,41.033,"Rochester University, Rochester Hills, MI","Rochester Christian University, 800, West Avon Road, Rochester Hills, Oakland County, Michigan, 48307, United States",42.66870805,-83.1435408514073
Summit Christian College,Gering,NE,Churches of Christ,23.64,37.68,50.24,37.093,"Summit Christian College, Gering, NE","Summit Christian College, 2025, 21st Street, Gering, Scotts Bluff County, Nebraska, 69341, United States",41.8293566,-103.6757197
York University,York,NE,Churches of Christ,29.25,39.97,50.16,39.762,"York University, York, NE","York University, 1125, East 8th Street, York, York County, Nebraska, 68467, United States",40.86967775,-97.58034078874503
Carolina Christian College,Winston Salem,NC,Churches of Christ,25.49,38.97,48.92,37.562,"Carolina Christian College, Winston Salem, NC","Carolina Christian College, Indiana Avenue, Alspaugh, Winston-Salem, Forsyth County, North Carolina, 27106, United States",36.1461516,-80.2562112
Lipscomb University,Nashville,TN,Churches of Christ,64.21,59.44,48.6,57.008,"Lipscomb University, Nashville, TN","Lipscomb University, Morrow Avenue, Nashville, Davidson County, Middle Tennessee, Tennessee, 37204, United States",36.10507165,-86.79864091820343
Freed-Hardeman University,Henderson,TN,Churches of Christ,26.63,45.03,51.4,40.222,"Freed-Hardeman University, Henderson, TN","Freed-Hardeman University, 158, East Main Street, Henderson, Chester County, West Tennessee, Tennessee, 38340, United States",35.43981645,-88.63662784873422
Abilene Christian University,Abilene,TX,Churches of Christ,90.99,53.19,51.04,67.446,"Abilene Christian University, Abilene, TX","Abilene Christian University, 1600, Acu Drive, Abilene, Taylor County, Texas, 79699, United States",32.4699728,-99.70735954838815
Trinity College,Hartford,CT,Episcopal,62.59,44.51,51.83,54.67,"Trinity College, Hartford, CT","Trinity College, 300, Summit Street, Allen Placeâ€“Lincoln Street Historic District, Frog Hollow, Hartford, Connecticut, 06106, United States",41.74715485,-72.69011994734595
Clarkson College,Omaha,NE,Episcopal,24.98,42.54,50.32,38.632,"Clarkson College, Omaha, NE","Clarkson College, 101, South 42nd Street, Blackstone, Omaha, Douglas County, Nebraska, 68131, United States",41.25937365,-95.97542659744732
Bard College,Annandale-On-Hudson,NY,Episcopal,39.78,45.94,47.69,44.177,"Bard College, Annandale-On-Hudson, NY","Bard College, 30, Campus Road, Town of Red Hook, Dutchess County, New York, 12504, United States",42.0225482,-73.91072422119606
Hobart William Smith Colleges,Geneva,NY,Episcopal,40.59,43.21,50.44,45.056,"Hobart William Smith Colleges, Geneva, NY","Hobart and William Smith Colleges, Reed Street, Town of Geneva, Ontario County, New York, 14456, United States",42.8570498,-76.98719739224848
The University of the South,Sewanee,TN,Episcopal,46.14,43.88,53.03,48.447,"The University of the South, Sewanee, TN","The University of the South, Mitchell Avenue, Sewanee, Franklin County, Middle Tennessee, Tennessee, 37375, United States",35.20440405,-85.91895058826586
Toccoa Falls College,Toccoa Falls,GA,Evangelical Christian,40.94,40.09,45.07,42.423,"Toccoa Falls College, Toccoa Falls, GA","Toccoa Falls College, 107, Kincaid Drive, Stephens County, Georgia, 30598, United States",34.5937089,-83.35634657362554
Crown College,Saint Bonifacius,MN,Evangelical Christian,38.55,42.39,49.0,43.5,"Crown College, Saint Bonifacius, MN","Crown College, 8700, College View Drive, Saint Bonifacius, Laketown Township, Carver County, Minnesota, 55375, United States",44.88413435,-93.74256433121
Earlham College,Richmond,IN,Friends,35.27,40.48,51.4,42.768,"Earlham College, Richmond, IN","Earlham College, Southwest 9th Street, Richmond, Wayne County, Indiana, 47374, United States",39.8204275,-84.91323124235393
William Penn University,Oskaloosa,IA,Friends,38.51,39.97,48.72,42.889,"William Penn University, Oskaloosa, IA","William Penn University, Barclay Street, Oskaloosa, Mahaska County, Iowa, 52577, United States",41.3117756,-92.64894045918444
Friends University,Wichita,KS,Friends,36.66,42.9,54.5,45.048,"Friends University, Wichita, KS","Friends University, West Kellogg Drive North, Wichita, Sedgwick County, Kansas, 67213, United States",37.6784007,-97.36542141621248
Malone University,Canton,OH,Friends,29.81,41.02,49.8,40.052,"Malone University, Canton, OH","Malone University, Sunlight Court Northwest, Canton, Stark County, Ohio, 44709, United States",40.8265967,-81.37980061905188
Wilmington College,Wilmington,OH,Friends,31.45,40.98,50.36,40.924,"Wilmington College, Wilmington, OH","Wilmington College, Graham Drive, Wilmington Commercial Historic District, Wilmington, Clinton County, Ohio, 45177, United States",39.441677,-83.81731600752089
George Fox University,Newberg,OR,Friends,56.12,54.82,49.64,53.266,"George Fox University, Newberg, OR","George Fox University, 414, North Meridian Street, Newberg, Yamhill County, Oregon, 97132, United States",45.3038562,-122.9665911824416
Arizona Christian University,Glendale,AZ,Interdenominational,63.34,40.09,48.32,52.682,"Arizona Christian University, Glendale, AZ","Arizona Christian University, North 57th Avenue, College Park, Glendale, Maricopa County, Arizona, 85306, United States",33.622613349999995,-112.18260582017332
John Brown University,Siloam Springs,AR,Interdenominational,39.17,43.37,55.76,46.65,"John Brown University, Siloam Springs, AR","John Brown University, East Valley Drive, Twin Springs, Siloam Springs, Benton County, Arkansas, 72761, United States",36.190836950000005,-94.55957189163512
Biola University,La Mirada,CA,Interdenominational,61.71,53.35,49.36,55.096,"Biola University, La Mirada, CA","Biola University, 13800, Biola Avenue, La Mirada, Los Angeles County, California, 90639, United States",33.90686,-118.01521719065124
Scripps College,Claremont,CA,Interdenominational,37.98,41.53,52.51,44.506,"Scripps College, Claremont, CA","Scripps College, East 9th Street, Claremont, Los Angeles County, California, 91711, United States",34.10391835,-117.70934422008582
Colorado Christian University,Lakewood,CO,Interdenominational,52.31,58.63,48.44,52.024,"Colorado Christian University, Lakewood, CO","Colorado Christian University - Lakewood Center, 180, South Garrison Street, Lakewood, Jefferson County, Colorado, 80226, United States",39.7129396,-105.0952693636912
University of Hartford,West Hartford,CT,Interdenominational,95.14,61.22,48.8,69.813,"University of Hartford, West Hartford, CT","University of Hartford, 200, Bloomfield Avenue, Watkinson School Historic District, West Hartford, Capitol Planning Region, Connecticut, 06117, United States",41.8002648,-72.71412054842195
Yale University,New Haven,CT,Interdenominational,98.84,90.72,55.21,79.753,"Yale University, New Haven, CT","Yale University, Trumbull Street, Downtown, East Rock, New Haven, South Central Connecticut Planning Region, Connecticut, 06511, United States",41.3135727,-72.9231731
Lynn University,Boca Raton,FL,Interdenominational,82.15,49.76,49.04,62.425,"Lynn University, Boca Raton, FL","Lynn University, North Military Trail, Boca Raton, Palm Beach County, Florida, 33431, United States",26.3837711,-80.12540276819502
Jacksonville University,Jacksonville,FL,Interdenominational,80.84,52.19,48.44,62.146,"Jacksonville University, Jacksonville, FL","Jacksonville University, Holly Bell Drive, Eagle Pointe Apartments, Jacksonville, Duval County, Florida, 32277, United States",30.3537227,-81.60730605405212
Palm Beach Atlantic University,West Palm Beach,FL,Interdenominational,77.19,46.37,50.28,60.26,"Palm Beach Atlantic University, West Palm Beach, FL","Palm Beach Atlantic University, 900, South Olive Avenue, West Palm Beach, Palm Beach County, Florida, 33401, United States",26.7048899,-80.05085158341606
Trinity College of Florida,Trinity,FL,Interdenominational,25.78,37.52,48.76,37.325,"Trinity College of Florida, Trinity, FL","Trinity College of Florida, Welbilt Boulevard, Trinity Oaks Commerce Park, Pasco County, Florida, 34655, United States",28.19391805,-82.67835960740362
Berry College,Mount Berry,GA,Interdenominational,82.3,44.35,58.28,65.102,"Berry College, Mount Berry, GA","Berry College, 2277, Martha Berry Highway, Rome, Floyd County, Georgia, 30149, United States",34.293036,-85.19174086702785
Aurora University,Aurora,IL,Interdenominational,64.77,71.23,49.28,59.86,"Aurora University, Aurora, IL","Aurora University, 347, South Gladstone Avenue, Aurora, Aurora Township, Kane County, Illinois, 60506, United States",41.754829,-88.34950358637296
University of Chicago,Chicago,IL,Interdenominational,93.7,97.36,49.6,76.778,"University of Chicago, Chicago, IL","The University of Chicago, 5801, South Ellis Avenue, Hyde Park, Chicago, Hyde Park Township, Cook County, Illinois, 60637, United States",41.79139685,-87.60084387193544
East-West University,Chicago,IL,Interdenominational,37.41,37.26,59.91,46.387,"East-West University, Chicago, IL","East West University, South Michigan Avenue, Printer's Row, Loop, Chicago, Cook County, Illinois, 60605, United States",41.8712713,-87.62506935993366
Moody Bible Institute,Chicago,IL,Interdenominational,28.84,45.58,52.39,41.612,"Moody Bible Institute, Chicago, IL","Moody Bible Institute, 820, North LaSalle Drive, River North, Near North Side, Chicago, Cook County, Illinois, 60610, United States",41.9002764,-87.6354882298403
Trinity Christian College,Palos Heights,IL,Interdenominational,30.75,40.56,50.64,40.672,"Trinity Christian College, Palos Heights, IL","Trinity Christian College, 6601, West College Drive, Palos Heights, Worth Township, Cook County, Illinois, 60463, United States",41.6689319,-87.78340322217727
Wheaton College,Wheaton,IL,Interdenominational,50.28,47.49,52.51,50.615,"Wheaton College, Wheaton, IL","Wheaton College, 501, College Avenue, Wheaton, DuPage County, Illinois, 60187, United States",41.86963745,-88.09755524953694
Asbury University,Wilmore,KY,Interdenominational,50.2,43.01,53.39,50.04,"Asbury University, Wilmore, KY","Asbury University, West Main Street, Wilmore, Jessamine County, Kentucky, 40390, United States",37.8633341,-84.66528114627815
Berea College,Berea,KY,Interdenominational,40.13,41.64,63.04,49.603,"Berea College, Berea, KY","Berea College, 1, Chestnut Street, Berea, Madison County, Kentucky, 40403, United States",37.57153635,-84.28979604472684
Amherst College,Amherst,MA,Interdenominational,46.77,44.08,57.77,50.636,"Amherst College, Amherst, MA","Amherst College, Amherst College Service Road A, Amherst, Hampshire County, Massachusetts, 01002, United States",42.3703768,-72.5160691823344
Emerson College,Boston,MA,Interdenominational,74.73,56.59,49.56,61.03,"Emerson College, Boston, MA","Emerson College, Boylston Street, Beacon Hill, Boston, Suffolk County, Massachusetts, 02108, United States",42.3521996,-71.0656808
Gordon College,Wenham,MA,Interdenominational,35.68,43.72,49.92,42.987,"Gordon College, Wenham, MA","Gordon College, 255, Grapevine Road, Wenham Neck, Wenham, Essex County, Massachusetts, 01984, United States",42.5888528,-70.8203006
Smith College,Northampton,MA,Interdenominational,54.82,47.53,52.35,52.375,"Smith College, Northampton, MA","Smith College, Hebert Avenue, Fort Hill Historic District, Northampton, Hampshire County, Massachusetts, 01063, United States",42.31622385,-72.64039315198599
Cornerstone University,Grand Rapids,MI,Interdenominational,41.45,42.58,52.71,46.183,"Cornerstone University, Grand Rapids, MI","Cornerstone University, 1001, East Beltline Avenue Northeast, Grand Rapids, Grand Rapids Charter Township, Kent County, Michigan, 49525, United States",42.98088915,-85.59574235212932
College of the Ozarks,Point Lookout,MO,Interdenominational,35.42,41.96,58.51,45.97,"College of the Ozarks, Point Lookout, MO","College of the Ozarks, 100, Opportunity Avenue, Point Lookout, Taney County, Missouri, 65726, United States",36.617958,-93.23650382366762
Princeton University,Princeton,NJ,Interdenominational,94.79,67.51,62.82,76.542,"Princeton University, Princeton, NJ","Princeton University, Baker Lane, Princeton, Mercer County, New Jersey, 08540, United States",40.33867515,-74.65836549131683
Hamilton College,Clinton,NY,Interdenominational,43.88,44.51,55.96,48.841,"Hamilton College, Clinton, NY","Hamilton College, 198, College Hill Road, Town of Kirkland, Vernon Center, Town of Vernon, Oneida County, New York, 13323, United States",43.0537974,-75.40693894376341
Manhattanville College,Purchase,NY,Interdenominational,33.54,47.37,48.29,42.208,"Manhattanville College, Purchase, NY","Manhattanville College, 2900, Purchase Street, Purchase, Town/Village of Harrison, Westchester County, New York, 10577, United States",41.0313935,-73.7155858
Nazareth University,Rochester,NY,Interdenominational,41.33,48.96,51.52,46.934,"Nazareth University, Rochester, NY","Nazareth University, 4245, East Avenue, City of Rochester, Monroe County, New York, 14618, United States",43.1025786,-77.52006821627872
Montreat College,Montreat,NC,Interdenominational,34.68,39.74,52.03,42.636,"Montreat College, Montreat, NC","Montreat College, Gaither Circle, Montreat, Buncombe County, North Carolina, 28757, United States",35.6459434,-82.2970364
Hiram College,Hiram,OH,Interdenominational,31.74,39.17,48.88,40.086,"Hiram College, Hiram, OH","Hiram College, Hayden Street, Hiram, Portage County, Ohio, 44234, United States",41.3136471,-81.14306812554344
Kenyon College,Gambier,OH,Interdenominational,44.24,43.57,51.68,47.084,"Kenyon College, Gambier, OH","Kenyon College, New Castle Road, Gambier, College Township, Knox County, Ohio, 43022, United States",40.3725696,-82.39427459529426
Lancaster Bible College,Lancaster,PA,Interdenominational,29.98,44.71,49.08,40.569,"Lancaster Bible College, Lancaster, PA","Lancaster Bible College, 901, Eden Road, Roseville, Manheim Township, Lancaster County, Pennsylvania, 17601, United States",40.0752884,-76.28808851521957
Messiah University,Mechanicsburg,PA,Interdenominational,46.3,49.4,49.32,48.128,"Messiah University, Mechanicsburg, PA","Messiah University Graduate School, 401, East Winding Hill Road, Park Hills West, Winding Hill, Mechanicsburg, Cumberland County, Pennsylvania, 17055, United States",40.19369145,-76.97605268396879
Johnson & Wales University-Providence,Providence,RI,Interdenominational,60.33,37.79,52.35,52.632,"Johnson & Wales University-Providence, Providence, RI","Johnson and Wales University Providence Harborside Campus, Massachusetts Avenue, Providence, Providence County, Rhode Island, 02905, United States",41.78823615,-71.39038710016683
Furman University,Greenville,SC,Interdenominational,62.63,46.45,56.04,56.759,"Furman University, Greenville, SC","Furman University, 3300, Poinsett Highway, North Village, Travelers Rest, Greenville County, South Carolina, 29613, United States",34.92577435,-82.4385258125221
Limestone University,Gaffney,SC,Interdenominational,42.19,42.11,47.21,44.184,"Limestone University, Gaffney, SC","Limestone College, Indian Hill Street, Dogwood Park, Gaffney, Cherokee County, South Carolina, 29340, United States",35.05532985,-81.64839226367576
Belmont University,Nashville,TN,Interdenominational,97.74,66.93,51.36,73.018,"Belmont University, Nashville, TN","Belmont University, 15th Avenue South, Nashville, Davidson County, Middle Tennessee, Tennessee, 37212, United States",36.13278325,-86.79265777214094
Bryan College-Dayton,Dayton,TN,Interdenominational,29.91,40.32,49.48,39.824,"Bryan College-Dayton, Dayton, TN","Bryan College, Old Washington Highway, Bryan Hill, Dayton, Rhea County, East Tennessee, Tennessee, 37321, United States",35.49789125,-84.99855097356965
LeTourneau University,Longview,TX,Interdenominational,55.65,43.64,45.03,48.999,"LeTourneau University, Longview, TX","LeTourneau University, 2100, South Mobberly Avenue, Longview, Gregg County, Texas, 75602, United States",32.46575895,-94.726444524352
Bennington College,Bennington,VT,Interdenominational,30.92,40.59,48.96,40.073,"Bennington College, Bennington, VT","Bennington College, Devil's Way, Paper Mill Village, Bennington, Bennington County, Vermont, 05257, United States",42.92044325,-73.23852531543986
Regent University,Virginia Beach,VA,Interdenominational,66.09,72.94,49.72,60.906,"Regent University, Virginia Beach, VA","Regent University, 1000, Regent University Drive, Homestead, Virginia Beach, Virginia, 23464, United States",36.79932065,-76.19440046772189
Randolph College,Lynchburg,VA,Interdenominational,44.71,39.24,47.09,44.57,"Randolph College, Lynchburg, VA","Randolph College, View Street, Riverside, Lynchburg, Virginia, 24503, United States",37.43933375,-79.17093485132823
Stanford University,Stanford,CA,Interdenominational,98.79,88.78,52.87,78.408,"Stanford University, Stanford, CA","Stanford University, 408, Panama Mall, Stanford, Santa Clara County, California, 94305, United States",37.43131385,-122.16936535498309
Beacon College,Leesburg,FL,Interdenominational,32.74,39.7,48.76,40.543,"Beacon College, Leesburg, FL","Beacon College Athletic Field, Leesburg, Lake County, Florida, United States",28.81243925,-81.87392600460183
Visible Music College,Memphis,TN,Interdenominational,25.66,38.9,47.45,37.028,"Visible Music College, Memphis, TN","Visible Music College, 200, Madison Avenue, Cotton Row Historic District, Lauderdale Courts, Memphis, Shelby County, West Tennessee, Tennessee, 38103, United States",35.144546,-90.04930292827464
Babson College,Wellesley,MA,Jewish,56.36,54.86,51.16,53.979,"Babson College, Wellesley, MA","Forest St. Post Office, Forest Street, Wellesley, Norfolk County, Massachusetts, 02457, United States",42.29914,-71.2622114
Bay Path University,Longmeadow,MA,Jewish,29.15,51.0,50.64,42.118,"Bay Path University, Longmeadow, MA","Bay Path University, 588, Longmeadow Street, Longmeadow, Hampden County, Massachusetts, 01106, United States",42.055796,-72.58419180850242
Yeshiva University,New York,NY,Jewish,49.56,56.63,48.96,50.732,"Yeshiva University, New York, NY","Yeshiva University, 2475, Amsterdam Avenue, Fort George, Manhattan, New York County, City of New York, New York, 10033, United States",40.84898065,-73.92984026052692
California Lutheran University,Thousand Oaks,CA,Lutheran,55.72,53.86,47.89,52.214,"California Lutheran University, Thousand Oaks, CA","California Lutheran University, Regals Way, Thousand Oaks, Ventura County, California, 91360, United States",34.22655655,-118.87852167930592
Concordia University-Irvine,Irvine,CA,Lutheran,41.37,57.89,49.52,47.933,"Concordia University-Irvine, Irvine, CA","Concordia University, Irvine, 1530, Concordia, Concordia East, Turtle Rock, Irvine, Orange County, California, 92612, United States",33.653932999999995,-117.81089996543902
Augustana College,Rock Island,IL,Lutheran,56.59,45.22,51.4,52.241,"Augustana College, Rock Island, IL","Augustana College, 32nd Street, Rock Island, Rock Island County, Illinois, 61201, United States",41.5015277,-90.550369870788
Concordia University-Chicago,River Forest,IL,Lutheran,36.84,61.64,48.8,46.583,"Concordia University-Chicago, River Forest, IL","Concordia University Chicago, 7400, Augusta Street, River Forest, Cook County, Illinois, 60305, United States",41.8993058,-87.80945756076432
Grand View University,Des Moines,IA,Lutheran,37.71,43.25,49.2,43.416,"Grand View University, Des Moines, IA","Grand View University, East 14th Street, Union Park, Des Moines, Polk County, Iowa, 50316, United States",41.61980315,-93.5988096106748
Luther College,Decorah,IA,Lutheran,33.47,41.57,55.72,43.995,"Luther College, Decorah, IA","Luther College, Highland Drive, Decorah, Winneshiek County, Iowa, 52101, United States",43.3169528,-91.79850254143064
Wartburg College,Waverly,IA,Lutheran,40.25,41.68,49.36,44.182,"Wartburg College, Waverly, IA","Wartburg College, 100, Wartburg Boulevard, Waverly, Bremer County, Iowa, 50677, United States",42.73114305,-92.48568382574044
Bethany College,Lindsborg,KS,Lutheran,29.22,38.71,48.29,38.75,"Bethany College, Lindsborg, KS","Bethany College, 335, East Swensson Street, Lindsborg, McPherson County, Kansas, 67456, United States",38.5810524,-97.67209728576788
Augsburg University,Minneapolis,MN,Lutheran,71.46,48.13,49.16,57.872,"Augsburg University, Minneapolis, MN","Augsburg University, South 21st Avenue, Phillips, Minneapolis, Hennepin County, Minnesota, 55455, United States",44.9662364,-93.24110466136236
Bethany Lutheran College,Mankato,MN,Lutheran,36.05,39.47,50.8,42.638,"Bethany Lutheran College, Mankato, MN","Bethany Lutheran College, 700, Luther Drive, Mankato, Blue Earth County, Minnesota, 56001, United States",44.16674125,-93.99104281930204
Concordia University-Saint Paul,Saint Paul,MN,Lutheran,48.25,67.22,51.95,53.521,"Concordia University-Saint Paul, Saint Paul, MN","Concordia University St. Paul, Carroll Avenue, Lexington - Hamline, Union Park, Saint Paul, Ramsey County, Minnesota, 55104, United States",44.9497767,-93.15731626748348
Gustavus Adolphus College,Saint Peter,MN,Lutheran,47.41,44.0,51.48,48.358,"Gustavus Adolphus College, Saint Peter, MN","Gustavus Adolphus College, West Locust Street, Saint Peter, Nicollet County, Minnesota, 56082, United States",44.3241873,-93.97146812490595
St Olaf College,Northfield,MN,Lutheran,78.73,46.89,51.71,61.552,"St Olaf College, Northfield, MN","St. Olaf College, 1520, Founders Drive, Northfield, Rice County, Minnesota, 55057, United States",44.4640025,-93.18717908824593
Concordia University-Nebraska,Seward,NE,Lutheran,43.49,46.57,51.2,47.192,"Concordia University-Nebraska, Seward, NE","Concordia University, Karol Kay Boulevard, Seward, Seward County, Nebraska, 68434, United States",40.9136406,-97.08751020355166
Midland University,Fremont,NE,Lutheran,39.7,43.57,48.8,44.116,"Midland University, Fremont, NE","Midland University, 900, North Clarkson Street, Fremont, Dodge County, Nebraska, 68025, United States",41.43827405,-96.48772006532069
Wagner College,Staten Island,NY,Lutheran,38.94,44.39,48.92,44.024,"Wagner College, Staten Island, NY","Wagner College, Grand Avenue, Sunnyside, Staten Island, Richmond County, City of New York, New York, 10301, United States",40.6147187,-74.09355867259515
Lenoir-Rhyne University,Hickory,NC,Lutheran,45.07,45.98,50.28,47.337,"Lenoir-Rhyne University, Hickory, NC","Lenoir-Rhyne University, 675, 7th Avenue Northeast, Claremont, Hickory, Catawba County, North Carolina, 28601, United States",35.74174755,-81.32675812958784
Capital University,Columbus,OH,Lutheran,34.09,46.65,50.2,43.048,"Capital University, Columbus, OH","Capital University, 1, Sheridan Park Court, Columbus, Franklin County, Ohio, 43209, United States",39.95543425,-82.9376326885703
Wittenberg University,Springfield,OH,Lutheran,36.35,41.02,48.32,42.075,"Wittenberg University, Springfield, OH","Wittenberg University, Sunnyside Place, Springfield, Clark County, Ohio, 45501, United States",39.9351075,-83.81305544869264
Gettysburg College,Gettysburg,PA,Lutheran,46.3,45.9,51.16,48.166,"Gettysburg College, Gettysburg, PA","Gettysburg College, South Reynolds Street, Gettysburg, Adams County, Pennsylvania, 17325, United States",39.8374688,-77.23964053600594
Muhlenberg College,Allentown,PA,Lutheran,36.13,44.24,50.52,43.511,"Muhlenberg College, Allentown, PA","Muhlenberg College, North Ruhr Street, West End, Allentown, Lehigh County, Pennsylvania, 18104, United States",40.59758265,-75.5104839064264
Susquehanna University,Selinsgrove,PA,Lutheran,46.14,45.66,50.48,47.781,"Susquehanna University, Selinsgrove, PA","Susquehanna University, 514, University Avenue, Dogtown, Selinsgrove, Snyder County, Pennsylvania, 17870, United States",40.79688725,-76.8750374280338
Thiel College,Greenville,PA,Lutheran,31.14,38.97,49.68,40.126,"Thiel College, Greenville, PA","Thiel College, Packard Avenue, Greenville, Mercer County, Pennsylvania, 16125, United States",41.41321855,-80.3857097541329
Newberry College,Newberry,SC,Lutheran,61.41,41.02,48.76,52.272,"Newberry College, Newberry, SC","Newberry College, Luther Street, Newberry, Newberry County, South Carolina, 29108, United States",34.2852622,-81.6216373558786
Augustana University,Sioux Falls,SD,Lutheran,45.9,47.41,50.12,47.891,"Augustana University, Sioux Falls, SD","Augustana University, 2001, South Summit Avenue, Sioux Falls, Sioux Falls Township, Minnehaha County, South Dakota, 57197, United States",43.5253341,-96.73875740832086
Concordia University Texas,Austin,TX,Lutheran,39.47,45.78,49.48,44.738,"Concordia University Texas, Austin, TX","Concordia University Texas, 11400, Concordia University Drive, Austin, Travis County, Texas, 78726, United States",30.4187934,-97.83847636586177
Roanoke College,Salem,VA,Lutheran,56.67,43.13,52.51,52.299,"Roanoke College, Salem, VA","Roanoke College - Elizabeth Campus, South Colorado Street, Burwell, Salem, Virginia, 24153, United States",37.29778755,-80.05499962542144
Pacific Lutheran University,Tacoma,WA,Lutheran,63.61,46.22,49.2,54.367,"Pacific Lutheran University, Tacoma, WA","Pacific Lutheran University, 12180, Park Avenue South, Tacoma, Pierce County, Washington, 98447, United States",47.14375725,-122.44438886592796
Wisconsin Lutheran College,Milwaukee,WI,Lutheran,42.58,40.48,49.6,44.971,"Wisconsin Lutheran College, Milwaukee, WI","Wisconsin Lutheran College, 8800, West Bluemound Road, Cannon Park, Milwaukee, Milwaukee County, Wisconsin, 53226, United States",43.03726535,-88.02194662020278
Birmingham-Southern College,Birmingham,AL,Methodist,25.72,41.14,46.77,37.227,"Birmingham-Southern College, Birmingham, AL","Birmingham Southern College, 11th Street West, Owenton, Birmingham, Jefferson County, Alabama, 35204, United States",33.51618545,-86.85584696849322
Huntingdon College,Montgomery,AL,Methodist,51.2,40.01,51.04,48.9,"Huntingdon College, Montgomery, AL","Huntingdon College, Huntingdon College Drive, Montgomery, Montgomery County, Alabama, 36111, United States",32.3493496,-86.28521194328175
Miles College,Fairfield,AL,Methodist,23.03,39.28,50.4,37.233,"Miles College, Fairfield, AL","Miles College, 5500, Myron Massey Boulevard, Fairfield Village, Fairfield, Jefferson County, Alabama, 35064, United States",33.48109865,-86.90911015439585
Hendrix College,Conway,AR,Methodist,36.47,40.13,50.68,42.89,"Hendrix College, Conway, AR","Hendrix College, 1600, Washington Avenue, Conway, Faulkner County, Arkansas, 72032, United States",35.1008234,-92.4420508402078
University of the Pacific,Stockton,CA,Methodist,67.54,60.45,50.4,59.262,"University of the Pacific, Stockton, CA","University of the Pacific, 3601, Pacific Avenue, Stockton, San Joaquin County, California, 95211, United States",37.98042375,-121.31284719832666
University of Denver,Denver,CO,Methodist,96.61,92.7,50.72,77.459,"University of Denver, Denver, CO","University of Denver, 2199, South University Boulevard, Denver, Colorado, 80208, United States",39.6783106,-104.96247276308812
Bethune-Cookman University,Daytona Beach,FL,Methodist,55.01,42.5,49.12,50.153,"Bethune-Cookman University, Daytona Beach, FL","Bethune-Cookman University, 640, Doctor Mary McLeod Bethune Boulevard, Daytona Beach, Volusia County, Florida, 32114, United States",29.21185355,-81.03198250103571
Edward Waters University,Jacksonville,FL,Methodist,48.52,38.97,47.57,46.232,"Edward Waters University, Jacksonville, FL","Edward Waters University, Daniel Street, Jacksonville, Duval County, Florida, 32204, United States",30.34419595,-81.68356941956846
Florida Southern College,Lakeland,FL,Methodist,72.64,49.72,50.28,59.11,"Florida Southern College, Lakeland, FL","Florida Southern College, Lexington Street, Lakeland, Polk County, Florida, 33801, United States",28.0304561,-81.94554251154706
Andrew College,Cuthbert,GA,Methodist,30.99,38.29,49.52,39.866,"Andrew College, Cuthbert, GA","Andrew College - (Main Campus), 501, College Street, Cuthbert, Randolph County, Georgia, 39840, United States",31.77219555,-84.79570870718634
Clark Atlanta University,Atlanta,GA,Methodist,99.17,47.45,75.14,79.217,"Clark Atlanta University, Atlanta, GA","Clark Atlanta University, Parsons Street Southwest, Atlanta University Center, Atlanta, Fulton County, Georgia, 30314, United States",33.75012475,-84.41158897451389
Emory University,Atlanta,GA,Methodist,99.8,90.41,50.56,78.213,"Emory University, Atlanta, GA","Emory University, 201, Dowman Drive, Druid Hills, Atlanta, DeKalb County, Georgia, 30322, United States",33.7969409,-84.32371468406527
LaGrange College,Lagrange,GA,Methodist,36.32,40.28,50.16,42.651,"LaGrange College, Lagrange, GA","LaGrange College, 601, Broad Street, LaGrange, Troup County, Georgia, 30240, United States",33.03381105,-85.04675027949351
Paine College,Augusta,GA,Methodist,28.91,36.99,48.48,38.358,"Paine College, Augusta, GA","Paine College, Chafee Avenue, Oglethorpe Homes, Augusta, Richmond County, Georgia, 30904, United States",33.46943155,-81.99560322689779
Reinhardt University,Waleska,GA,Methodist,50.04,42.11,49.6,48.279,"Reinhardt University, Waleska, GA","Reinhardt University, 7300, Reinhardt Circle, Waleska, Cherokee County, Georgia, 30183, United States",34.321860650000005,-84.55274396651248
Wesleyan College,Macon,GA,Methodist,34.24,39.63,53.43,42.999,"Wesleyan College, Macon, GA","Wesleyan College, 4760, Forsyth Road, Idle Hour Estates, Macon, Bibb County, Georgia, 31210, United States",32.873428450000006,-83.71773399748099
Young Harris College,Young Harris,GA,Methodist,45.22,40.09,51.79,46.825,"Young Harris College, Young Harris, GA","Young Harris College, 1, College Street, Young Harris, Towns County, Georgia, 30582, United States",34.9357023,-83.84596813095078
Greenville University,Greenville,IL,Methodist,33.58,40.79,48.09,40.829,"Greenville University, Greenville, IL","Greenville University, 315, East College Avenue, Greenville, Bond County, Illinois, 62246, United States",38.89648605,-89.41250813892516
McKendree University,Lebanon,IL,Methodist,48.17,43.76,48.4,47.381,"McKendree University, Lebanon, IL","McKendree University, 701, College Road, Lebanon, Saint Clair County, Illinois, 62254, United States",38.60868085,-89.81521661455423
Methodist College,Peoria,IL,Methodist,23.73,40.94,48.05,36.904,"Methodist College, Peoria, IL","Methodist College, 7600, North Academic Drive, Peoria, Peoria County, Illinois, 61615, United States",40.78028965,-89.6829654980177
North Central College,Naperville,IL,Methodist,48.52,46.06,50.32,48.749,"North Central College, Naperville, IL","North Central College, East School Street, Naperville, DuPage County, Illinois, 60566, United States",41.774365450000005,-88.14274924248255
DePauw University,Greencastle,IN,Methodist,57.3,42.23,52.51,52.372,"DePauw University, Greencastle, IN","DePauw University, 313, South Locust Street, Greencastle, Putnam County, Indiana, 46135, United States",39.63804945,-86.86687365754466
University of Evansville,Evansville,IN,Methodist,73.4,43.88,93.14,75.404,"University of Evansville, Evansville, IN","University of Evansville, East Olive Street, Evansville, Vanderburgh County, Indiana, 47714, United States",37.9735131,-87.53229765717168
University of Indianapolis,Indianapolis,IN,Methodist,60.72,57.14,49.12,55.361,"University of Indianapolis, Indianapolis, IN","University of Indianapolis, National Avenue, Indianapolis, Marion County, Indiana, 46225, United States",39.70939645,-86.13445225207252
Cornell College,Mount Vernon,IA,Methodist,38.97,40.17,50.24,43.721,"Cornell College, Mount Vernon, IA","Cornell College, 600, 1st Street Southwest, Mount Vernon, Linn County, Iowa, 52314, United States",41.9253978,-91.42398552745183
Simpson College,Indianola,IA,Methodist,37.56,40.48,49.32,42.851,"Simpson College, Indianola, IA","Simpson College, North C Street, Indianola, Warren County, Iowa, 50125, United States",41.3662127,-93.5660540991244
Baker University,Baldwin City,KS,Methodist,32.02,43.09,49.64,41.285,"Baker University, Baldwin City, KS","Baker University, 6th Street, Baldwin City, Douglas County, Kansas, 66006, United States",38.77624315,-95.17939500727704
Kansas Wesleyan University,Salina,KS,Methodist,37.79,39.32,50.64,43.24,"Kansas Wesleyan University, Salina, KS","Kansas Wesleyan University, Highland Avenue, Kraft Manor, Salina, Saline County, Kansas, 67401, United States",38.8135329,-97.61005437482667
Southwestern College,Winfield,KS,Methodist,31.7,40.75,48.32,40.161,"Southwestern College, Winfield, KS","Southwestern College, North Viking Boulevard, Winfield, Cowley County, Kansas, 67156, United States",37.24924525,-96.97401911330236
Kentucky Wesleyan College,Owensboro,KY,Methodist,34.9,40.05,49.24,41.669,"Kentucky Wesleyan College, Owensboro, KY","Kentucky Wesleyan College, Stadium Drive, Owensboro, Daviess County, Kentucky, 42304, United States",37.7433245,-87.12062019141567
Lindsey Wilson College,Columbia,KY,Methodist,45.9,47.01,50.32,47.891,"Lindsey Wilson College, Columbia, KY","Lindsey Wilson College, 200, Lindsey Wilson Street, Columbia, Adair County, Kentucky, 42728, United States",37.1020748,-85.29968609783923
Union College,Barbourville,KY,Methodist,31.77,41.57,49.96,41.009,"Union College, Barbourville, KY","Union College, 3rd Street, Barbourville, Knox County, Kentucky, 40906, United States",36.8720992,-83.88792369909103
Centenary College of Louisiana,Shreveport,LA,Methodist,53.03,39.28,51.56,49.694,"Centenary College of Louisiana, Shreveport, LA","Centenary College of Louisiana, Centenary Boulevard, Shreveport, Caddo Parish, Louisiana, 71104, United States",32.4842248,-93.73171274297071
Dillard University,New Orleans,LA,Methodist,32.56,40.52,51.16,41.596,"Dillard University, New Orleans, LA","Dillard University, Gentilly Boulevard, New Orleans, Orleans Parish, Louisiana, 70122, United States",29.9962374,-90.0653677710487
Adrian College,Adrian,MI,Methodist,50.24,43.17,49.24,48.427,"Adrian College, Adrian, MI","Adrian College, 110, South Madison Street, Adrian, Madison Township, Lenawee County, Michigan, 49221, United States",41.89849465,-84.06083239910039
Albion College,Albion,MI,Methodist,43.01,41.57,49.6,45.36,"Albion College, Albion, MI","Albion College, 611, East Porter Street, Albion, Calhoun County, Michigan, 49224, United States",42.2437255,-84.74290095493066
Spring Arbor University,Spring Arbor,MI,Methodist,35.16,49.6,49.8,43.906,"Spring Arbor University, Spring Arbor, MI","Spring Arbor University, 169, East Main Street, Greve, Spring Arbor, Jackson County, Michigan, 49283, United States",42.20800175,-84.55633879411187
Hamline University,Saint Paul,MN,Methodist,43.88,47.33,49.84,46.955,"Hamline University, Saint Paul, MN","Hamline University, Taylor Avenue, Hamline - Midway, Saint Paul, Ramsey County, Minnesota, 55104, United States",44.966511350000005,-93.16458641389622
Millsaps College,Jackson,MS,Methodist,30.71,39.17,52.51,41.127,"Millsaps College, Jackson, MS","Millsaps College, 1701, North State Street, Greater Belhaven, Jackson, Hinds County, Mississippi, 39210, United States",32.32196355,-90.1798225329653
Rust College,Holly Springs,MS,Methodist,27.19,38.17,51.16,38.979,"Rust College, Holly Springs, MS","Rust College, 150, Rust Avenue, Holly Springs, Marshall County, Mississippi, 38635, United States",34.776232500000006,-89.44731846573404
Nebraska Methodist College of Nursing & Allied Health,Omaha,NE,Methodist,26.4,44.55,51.0,39.874,"Nebraska Methodist College of Nursing & Allied Health, Omaha, NE","Nebraska Methodist College of Nursing & Allied Health, 720, North 87th Street, Omaha, Douglas County, Nebraska, 68114, United States",41.2657787,-96.04838707482637
Nebraska Wesleyan University,Lincoln,NE,Methodist,43.8,43.13,52.91,47.313,"Nebraska Wesleyan University, Lincoln, NE","Nebraska Wesleyan University, 5000, Saint Paul Avenue, University Place, Lincoln, Lancaster County, Nebraska, 68504, United States",40.8383056,-96.64792960546532
Centenary University,Hackettstown,NJ,Methodist,33.29,41.45,47.93,40.781,"Centenary University, Hackettstown, NJ","Centenary University, Jefferson Street, Hackettstown, Warren County, New Jersey, 07840, United States",40.8470669,-74.8351007155218
Drew University,Madison,NJ,Methodist,44.04,44.63,48.96,46.127,"Drew University, Madison, NJ","Drew University, Hillside Avenue, Madison Heights, Madison, Morris County, New Jersey, 07940, United States",40.76053795,-74.42816053099715
Roberts Wesleyan University,Rochester,NY,Methodist,31.28,45.5,49.88,41.567,"Roberts Wesleyan University, Rochester, NY","Roberts Wesleyan University, 2301, Westside Drive, City of Rochester, Town of Chili, Monroe County, New York, 14624, United States",43.12430275,-77.79839481733976
Syracuse University,Syracuse,NY,Methodist,99.87,97.19,50.16,79.436,"Syracuse University, Syracuse, NY","Syracuse University, Salt Springs Road, Salt Springs, City of Syracuse, Onondaga County, New York, 13210, United States",43.01711285,-76.11855360009726
Bennett College,Greensboro,NC,Methodist,21.98,37.22,49.36,35.985,"Bennett College, Greensboro, NC","Bennett College, Gorrell Street, Nocho Park, Greensboro, Guilford County, North Carolina, 27401, United States",36.0675102,-79.77963822343997
Brevard College,Brevard,NC,Methodist,36.24,39.4,50.44,42.556,"Brevard College, Brevard, NC","Brevard College, College Station Drive, Brevard, Transylvania County, North Carolina, 28712, United States",35.237431,-82.72641122025428
Duke University,Durham,NC,Methodist,99.42,98.08,51.99,80.166,"Duke University, Durham, NC","Duke University, Cameron Boulevard, Durham, Durham County, North Carolina, 27708, United States",36.00015569999999,-78.94422972195878
Greensboro College,Greensboro,NC,Methodist,42.03,40.21,49.92,44.825,"Greensboro College, Greensboro, NC","Greensboro College, 815, West Market Street, Westerwood, Greensboro, Guilford County, North Carolina, 27401, United States",36.0713888,-79.8008558023214
High Point University,High Point,NC,Methodist,99.13,61.98,50.56,72.265,"High Point University, High Point, NC","High Point University, Blessing Way, High Point, Guilford County, North Carolina, 27268, United States",35.9720859,-79.9936582
Livingstone College,Salisbury,NC,Methodist,39.97,38.78,49.32,43.475,"Livingstone College, Salisbury, NC","Livingstone College, 701, West Monroe Street, Eaman Park, Salisbury, Rowan County, North Carolina, 28144, United States",35.671286949999995,-80.48567951259292
Methodist University,Fayetteville,NC,Methodist,44.28,42.47,51.08,46.64,"Methodist University, Fayetteville, NC","Methodist University, College Center Drive, Fayetteville, Cumberland County, North Carolina, 28311, United States",35.13408025,-78.87242991721607
North Carolina Wesleyan University,Rocky Mount,NC,Methodist,35.72,43.09,50.52,43.117,"North Carolina Wesleyan University, Rocky Mount, NC","North Carolina Wesleyan University, Belmont Farms Parkway, Rocky Mount, Nash County, North Carolina, 27809, United States",36.01543505,-77.77490978880125
Pfeiffer University,Misenheimer,NC,Methodist,32.6,40.44,48.64,40.587,"Pfeiffer University, Misenheimer, NC","Pfeiffer University, 48380, Ward Drive, Misenheimer, Stanly County, North Carolina, 28109, United States",35.486454300000005,-80.2821503180376
Baldwin Wallace University,Berea,OH,Methodist,54.5,49.44,49.84,51.624,"Baldwin Wallace University, Berea, OH","Baldwin-Wallace University, Beech Street, Berea, Cuyahoga County, Ohio, 44017, United States",41.37161015,-81.84848946631152
University of Mount Union,Alliance,OH,Methodist,44.24,44.67,52.19,47.508,"University of Mount Union, Alliance, OH","University of Mount Union, 1972, Clark Avenue, Mount Union, Alliance, Stark County, Ohio, 44601, United States",40.90423869999999,-81.1106865488107
Ohio Northern University,Ada,OH,Methodist,50.24,45.86,49.88,49.221,"Ohio Northern University, Ada, OH","Ohio Northern University, The Green Monster, Ada, Liberty Township, Hardin County, Ohio, 45810, United States",40.76557505,-83.83356241022632
Ohio Wesleyan University,Delaware,OH,Methodist,40.05,40.87,53.15,45.458,"Ohio Wesleyan University, Delaware, OH","Ohio Wesleyan University, Stilson Street, Delaware, Delaware County, Ohio, 43015, United States",40.292858,-83.06427625448865
Otterbein University,Westerville,OH,Methodist,44.04,46.33,50.24,46.979,"Otterbein University, Westerville, OH","Otterbein University, Schenck Alley, Uptown, Westerville, Sharon, Franklin County, Ohio, 43081, United States",40.127744,-82.93627779442062
Willamette University,Salem,OR,Methodist,50.24,43.37,50.28,48.883,"Willamette University, Salem, OR","Willamette University, 900, State Street, Salem, Marion County, Oregon, 97301, United States",44.9355889,-123.03081292503312
Albright College,Reading,PA,Methodist,35.46,40.4,48.4,41.627,"Albright College, Reading, PA","Albright College, 1621, North 13th Street, Reading, Berks County, Pennsylvania, 19604, United States",40.3627666,-75.91176286761947
Allegheny College,Meadville,PA,Methodist,27.93,42.07,50.56,39.814,"Allegheny College, Meadville, PA","Allegheny College, 520, North Main Street, Meadville, Crawford County, Pennsylvania, 16335, United States",41.6480894,-80.14529767068235
Dickinson College,Carlisle,PA,Methodist,45.86,43.09,51.6,47.604,"Dickinson College, Carlisle, PA","Dickinson College, West Church Avenue, Carlisle, Cumberland County, Pennsylvania, 17030, United States",40.20281155,-77.19957403793873
Lebanon Valley College,Annville,PA,Methodist,41.68,45.42,49.92,45.726,"Lebanon Valley College, Annville, PA","Lebanon Valley College, Bellegrove Road, Annville, Lebanon County, Pennsylvania, 17003, United States",40.3345578,-76.51374559549934
Lycoming College,Williamsport,PA,Methodist,34.79,40.01,51.83,42.654,"Lycoming College, Williamsport, PA","Lycoming College, 700, College Place, East End, Williamsport, Lycoming County, Pennsylvania, 17701, United States",41.2454429,-76.99988254888089
Allen University,Columbia,SC,Methodist,34.24,38.94,50.8,41.808,"Allen University, Columbia, SC","Allen University, 1530, Harden Street, Waverly, Columbia, Richland County, South Carolina, 29204, United States",34.010462950000004,-81.0199355569104
Clinton College,Rock Hill,SC,Methodist,24.79,36.35,34.94,31.163,"Clinton College, Rock Hill, SC","Clinton College, Lige Street, Flint Hill, Stoneybrook Estates, Rock Hill, York County, South Carolina, 29731, United States",34.9134907,-81.0431600314637
Columbia College,Columbia,SC,Methodist,36.58,43.96,49.56,43.25,"Columbia College, Columbia, SC","Columbia College, North Main Street, Eau Claire, Columbia, Richland County, South Carolina, 29203, United States",34.046131849999995,-81.03038940347594
Spartanburg Methodist College,Spartanburg,SC,Methodist,48.88,40.87,51.2,48.208,"Spartanburg Methodist College, Spartanburg, SC","Spartanburg Methodist College, Ethel Road, Saxon, Spartanburg County, South Carolina, 29301, United States",34.952931050000004,-81.96916849432738
Wofford College,Spartanburg,SC,Methodist,60.37,43.45,51.32,53.367,"Wofford College, Spartanburg, SC","Wofford College, Edgewood Avenue, Spartanburg, Spartanburg County, South Carolina, 29303, United States",34.96115815,-81.93532160934096
Dakota Wesleyan University,Mitchell,SD,Methodist,30.61,40.32,50.08,40.344,"Dakota Wesleyan University, Mitchell, SD","Dakota Wesleyan University, Hurst Street, Mitchell, Mitchell Township, Davison County, South Dakota, 57301, United States",43.69723515,-98.03046792635384
Lane College,Jackson,TN,Methodist,27.59,38.71,52.51,39.787,"Lane College, Jackson, TN","Lane College, 545, Lane Avenue, Allenton Heights, Jackson, Madison County, West Tennessee, Tennessee, 38301, United States",35.6282633,-88.80669166676904
Tennessee Wesleyan University,Athens,TN,Methodist,31.28,42.27,49.04,40.585,"Tennessee Wesleyan University, Athens, TN","Tennessee Wesleyan University, North Jackson Street, Morningside, Athens, McMinn County, East Tennessee, Tennessee, 37303, United States",35.44761055,-84.5944217053022
McMurry University,Abilene,TX,Methodist,57.53,40.09,51.99,51.828,"McMurry University, Abilene, TX","McMurry University, 1, Sentinel Drive, Abilene, Taylor County, Texas, 79697, United States",32.429358,-99.74872217744309
Paul Quinn College,Dallas,TX,Methodist,30.61,39.2,49.2,39.768,"Paul Quinn College, Dallas, TX","Paul Quinn College, Happy Canyon Circle, Dallas, Dallas County, Texas, 75241, United States",32.678816600000005,-96.75367781374204
Southern Methodist University,Dallas,TX,Methodist,99.87,85.68,51.79,77.788,"Southern Methodist University, Dallas, TX","Southern Methodist University, 6425, Dyer Court, University Park, Dallas County, Texas, 75205, United States",32.841801149999995,-96.78152810147064
Southwestern University,Georgetown,TX,Methodist,61.14,42.86,51.32,53.557,"Southwestern University, Georgetown, TX","Southwestern University, Hutto Road, University Park, Georgetown, Williamson County, Texas, 78626, United States",30.6371513,-97.66274097607484
Texas College,Tyler,TX,Methodist,36.28,38.21,31.77,34.86,"Texas College, Tyler, TX","Texas College, 2404, North Grand Avenue, Tyler, Smith County, Texas, 75702, United States",32.3746078,-95.31245324946968
Texas Wesleyan University,Fort Worth,TX,Methodist,78.81,45.03,62.7,65.612,"Texas Wesleyan University, Fort Worth, TX","Texas Wesleyan University, Wesleyan Street, Fort Worth, Tarrant County, Texas, 76105, United States",32.73306755,-97.28013399216506
Ferrum College,Ferrum,VA,Methodist,28.67,38.82,50.2,39.316,"Ferrum College, Ferrum, VA","Ferrum College, Fieldview Drive, Ferrum, Franklin County, Virginia, 24088, United States",36.93142245,-80.02813058907365
Randolph-Macon College,Ashland,VA,Methodist,49.8,42.62,50.76,48.75,"Randolph-Macon College, Ashland, VA","Randolph Macon College, 114, Henry Clay Road, Ashland, Hanover County, Virginia, 23005, United States",37.762510500000005,-77.47954212782594
Shenandoah University,Winchester,VA,Methodist,55.13,54.54,49.2,52.638,"Shenandoah University, Winchester, VA","Shenandoah University, Lowry Drive, Winchester, Virginia, 22601, United States",39.16630535,-78.15876380974831
Virginia Wesleyan University,Virginia Beach,VA,Methodist,41.61,41.29,51.91,45.669,"Virginia Wesleyan University, Virginia Beach, VA","Virginia Wesleyan University, Charles Court, Hollywood, Virginia Beach, Virginia, 23462, United States",36.86802,-76.1877440355182
University of Puget Sound,Tacoma,WA,Methodist,48.8,45.07,52.75,49.636,"University of Puget Sound, Tacoma, WA","University of Puget Sound, 1500, North Warner Street, 6th Avenue, Central Tacoma, Tacoma, Pierce County, Washington, 98416, United States",47.261437,-122.48095732177066
Seattle Pacific University,Seattle,WA,Methodist,17.85,52.15,49.96,37.557,"Seattle Pacific University, Seattle, WA","Seattle Pacific University, 5th Avenue West, Queen Anne, Seattle, King County, Washington, 98119, United States",47.64886755,-122.36196642187448
West Virginia Wesleyan College,Buckhannon,WV,Methodist,29.63,40.36,52.67,40.997,"West Virginia Wesleyan College, Buckhannon, WV","West Virginia Wesleyan College, Florence Street, Buckhannon, Upshur County, West Virginia, 26201, United States",38.99047564999999,-80.21826091194856
Tuskegee University,Tuskegee,AL,Not applicable,96.95,45.78,51.12,68.38,"Tuskegee University, Tuskegee, AL","Tuskegee University, 1200, West Montgomery Road, Tuskegee, Macon County, Alabama, 36088, United States",32.4301095,-85.70673351537872
Art Center College of Design,Pasadena,CA,Not applicable,45.22,47.33,49.32,47.283,"Art Center College of Design, Pasadena, CA","Art Center College of Design, Lida Street, Pasadena, Los Angeles County, California, 91109, United States",34.16874025,-118.1851007250844
California College of the Arts,San Francisco,CA,Not applicable,30.01,44.0,48.84,40.343,"California College of the Arts, San Francisco, CA","California College of the Arts, 8th Street, San Francisco, California, 90103, United States",37.767859,-122.4006018694869
Charles R Drew University of Medicine and Science,Los Angeles,CA,Not applicable,23.82,39.9,50.0,37.513,"Charles R Drew University of Medicine and Science, Los Angeles, CA","Charles R Drew University of Medicine and Science, East 118th Street, Willowbrook, Los Angeles County, California, 90059, United States",33.92682765,-118.24234989627216
Claremont McKenna College,Claremont,CA,Not applicable,42.19,42.31,55.84,47.678,"Claremont McKenna College, Claremont, CA","Claremont McKenna College, Brooks Avenue, Claremont, Los Angeles County, California, 91711, United States",34.099957700000004,-117.70617915411113
Harvey Mudd College,Claremont,CA,Not applicable,36.32,41.22,53.11,44.02,"Harvey Mudd College, Claremont, CA","Harvey Mudd College, North Mills Avenue, Claremont, Los Angeles County, California, 91711, United States",34.10614005,-117.70872814971484
University of La Verne,La Verne,CA,Not applicable,71.36,58.32,49.52,60.012,"University of La Verne, La Verne, CA","University of La Verne, East Arrow Highway, La Verne, Los Angeles County, California, 91773, United States",34.099863600000006,-117.77262247058354
Otis College of Art and Design,Los Angeles,CA,Not applicable,39.78,40.48,48.92,43.579,"Otis College of Art and Design, Los Angeles, CA","Otis College of Art and Design, La Tijera Boulevard, Los Angeles, Los Angeles County, California, 90094, United States",33.95673905,-118.4171692394095
Pitzer College,Claremont,CA,Not applicable,41.92,41.33,50.12,45.085,"Pitzer College, Claremont, CA","Pitzer College, East 9th Street, Claremont, Los Angeles County, California, 91711, United States",34.10471765,-117.70504282844789
University of Redlands,Redlands,CA,Not applicable,34.2,56.32,50.28,45.056,"University of Redlands, Redlands, CA","University of Redlands, University Street, Redlands, San Bernardino County, California, 92374, United States",34.0635903,-117.16385420758373
Colorado College,Colorado Springs,CO,Not applicable,60.33,44.79,52.43,54.063,"Colorado College, Colorado Springs, CO","Colorado College, 14, East Cache la Poudre Street, Downtown, Colorado Springs, El Paso County, Colorado, 80903, United States",38.8480439,-104.8239509314005
Naropa University,Boulder,CO,Not applicable,25.02,39.94,48.13,37.252,"Naropa University, Boulder, CO","Naropa University, Marine Street, Goss-Grove, Boulder, Boulder County, Colorado, 80309, United States",40.01407945,-105.26695943762093
Connecticut College,New London,CT,Not applicable,70.44,43.17,50.8,57.13,"Connecticut College, New London, CT","Connecticut College, 270, Mohegan Avenue, New London, Southeastern Connecticut Planning Region, Connecticut, 06320, United States",41.37913335,-72.10653061495535
Goodwin University,East Hartford,CT,Not applicable,29.63,50.32,51.24,42.414,"Goodwin University, East Hartford, CT","Goodwin University, 1, Riverside Drive, East Hartford, Capitol Planning Region, Connecticut, 06118, United States",41.74144325,-72.63784988620363
Mitchell College,New London,CT,Not applicable,26.63,39.32,48.88,38.072,"Mitchell College, New London, CT","Mitchell College, 437, Pequot Avenue, Osprey Beach, New London, Southeastern Connecticut Planning Region, Connecticut, 06320, United States",41.32765375,-72.09621002993681
University of New Haven,West Haven,CT,Not applicable,94.01,70.19,48.76,71.137,"University of New Haven, West Haven, CT","University of New Haven, Andrews Street, Allingtown, West Haven, South Central Connecticut Planning Region, Connecticut, 06516, United States",41.29091365,-72.96263883692575
Quinnipiac University,Hamden,CT,Not applicable,95.8,80.18,50.4,74.506,"Quinnipiac University, Hamden, CT","Quinnipiac University, 275, Mount Carmel Avenue, Hamden, South Central Connecticut Planning Region, Connecticut, 06518, United States",41.418194850000006,-72.8931049147314
Wesleyan University,Middletown,CT,Not applicable,78.32,49.08,52.07,61.97,"Wesleyan University, Middletown, CT","Wesleyan University, Butternut Knoll, Middletown, Lower Connecticut River Valley Planning Region, Connecticut, 06457, United States",41.5559033,-72.65598837890627
Wilmington University,New Castle,DE,Not applicable,37.18,79.81,51.04,51.246,"Wilmington University, New Castle, DE","Wilmington University, 320, North Dupont Highway, Penn Acres, Penn Acres South, New Castle County, Delaware, 19720, United States",39.68213315,-75.58699781308974
Embry-Riddle Aeronautical University-Daytona Beach,Daytona Beach,FL,Not applicable,99.87,62.85,50.76,72.815,"Embry-Riddle Aeronautical University-Daytona Beach, Daytona Beach, FL","Embry-Riddle Aeronautical University, Ponce de Leon Boulevard, Daytona Beach, Volusia County, Florida, 32114, United States",29.19175315,-81.04958387456502
Flagler College,Saint Augustine,FL,Not applicable,73.07,46.41,49.28,58.22,"Flagler College, Saint Augustine, FL","Flagler College, King Street, Model Land Historic District, West Augustine, Saint Augustine, Saint Johns County, Florida, 32084, United States",29.89194365,-81.32156855386452
Florida Institute of Technology,Melbourne,FL,Not applicable,83.84,70.23,49.84,67.511,"Florida Institute of Technology, Melbourne, FL","Florida Institute of Technology, South Babcock Street, Melbourne, Brevard County, Florida, 32901, United States",28.064271,-80.6230040282868
University of Miami,Coral Gables,FL,Not applicable,99.87,95.17,48.84,78.504,"University of Miami, Coral Gables, FL","University of Miami, Carillo Street, Coral Gables, Miami-Dade County, Florida, 33124, United States",25.71727245,-80.2787068732586
Nova Southeastern University,Fort Lauderdale,FL,Not applicable,99.87,92.21,48.96,77.96,"Nova Southeastern University, Fort Lauderdale, FL","Nova Southeastern University East Campus, Southwest 30th Street, Fort Lauderdale, Broward County, Florida, 33315, United States",26.08757885,-80.14968855039686
Ringling College of Art and Design,Sarasota,FL,Not applicable,61.29,43.29,49.68,53.046,"Ringling College of Art and Design, Sarasota, FL","Ringling College of Art and Design, 2700, Bay Point Drive, Hudson Bayou, Sarasota, Sarasota County, Florida, 34234, United States",27.360006650000003,-82.5464064763355
Rollins College,Winter Park,FL,Not applicable,72.57,48.92,50.28,58.922,"Rollins College, Winter Park, FL","Rollins College, 1000, Holt Avenue, College Quarter Historic District, Winter Park, Orange County, Florida, 32789, United States",28.5925001,-81.3489577
Stetson University,DeLand,FL,Not applicable,50.44,53.19,49.92,50.781,"Stetson University, DeLand, FL","Stetson University, 421, North Woodland Boulevard, DeLand, Volusia County, Florida, 32723, United States",29.03653465,-81.30054111521412
Brenau University,Gainesville,GA,Not applicable,38.74,47.53,49.8,44.924,"Brenau University, Gainesville, GA","Brenau University, 500, Washington Street Southeast, Green Street-Brenau Historic District, Gainesville, Hall County, Georgia, 30501, United States",34.30369005,-83.82235377891529
Life University,Marietta,GA,Not applicable,41.37,47.53,48.21,45.339,"Life University, Marietta, GA","Life University, 1269, Barclay Circle Southeast, Marietta, Cobb County, Georgia, 30060, United States",33.9311113,-84.51740878177948
Spelman College,Atlanta,GA,Not applicable,91.07,47.01,58.24,69.125,"Spelman College, Atlanta, GA","Spelman College, Westview Drive Southwest, Joel Chandler Harris Homes, Atlanta, Fulton County, Georgia, 30310, United States",33.74508885,-84.41138326759426
Thomas University,Thomasville,GA,Not applicable,48.64,46.1,49.68,48.549,"Thomas University, Thomasville, GA","Thomas University, 1501, Millpond Road, Thomasville, Thomas County, Georgia, 31792, United States",30.8151379,-83.96435262333654
Hawaii Pacific University,Honolulu,HI,Not applicable,58.12,41.72,48.13,50.844,"Hawaii Pacific University, Honolulu, HI","Hawaii Pacific University, Honolulu County, Hawaii, 96744, United States",21.37952275,-157.78308194567484
School of the Art Institute of Chicago,Chicago,IL,Not applicable,58.71,49.4,53.94,54.94,"School of the Art Institute of Chicago, Chicago, IL","School of The Art Institute of Chicago, South Wabash Avenue, Printer's Row, Loop, Chicago, Cook County, Illinois, 60603, United States",41.8812522,-87.62697448192992
Bradley University,Peoria,IL,Not applicable,66.75,58.2,49.44,58.113,"Bradley University, Peoria, IL","Bradley University, 1501, West Bradley Avenue, St. James Apartments, Peoria, Peoria County, Illinois, 61625, United States",40.6981131,-89.61551386208208
Columbia College Chicago,Chicago,IL,Not applicable,96.08,49.04,48.29,67.551,"Columbia College Chicago, Chicago, IL","Columbia College Chicago, East Harrison Street, Printer's Row, Loop, Chicago, Cook County, Illinois, 60605, United States",41.8742404,-87.6247913
Illinois Wesleyan University,Bloomington,IL,Not applicable,45.7,42.35,50.8,47.072,"Illinois Wesleyan University, Bloomington, IL","Illinois Wesleyan University, 1312, North Evans Street, Old East Side, Bloomington, McLean County, Illinois, 61701, United States",40.49242715,-88.99042108232373
Illinois Institute of Technology,Chicago,IL,Not applicable,53.51,55.84,48.56,51.994,"Illinois Institute of Technology, Chicago, IL","Illinois Institute of Technology, East 31st Street, Douglas, Chicago, Cook County, Illinois, 60616, United States",41.83616405,-87.62647227745128
National Louis University,Chicago,IL,Not applicable,66.79,67.76,49.64,60.119,"National Louis University, Chicago, IL","National Louis University, East Adams Street, Printer's Row, Loop, Chicago, Cook County, Illinois, 60603, United States",41.87990865,-87.62490237384526
Northwestern University,Evanston,IL,Not applicable,99.39,99.87,51.68,80.388,"Northwestern University, Evanston, IL","Northwestern University, 633, Clark Street, Downtown, Evanston, Evanston Township, Cook County, Illinois, 60208, United States",42.0557157,-87.67529454739416
Rockford University,Rockford,IL,Not applicable,33.83,41.45,49.96,41.809,"Rockford University, Rockford, IL","Rockford University, 5050, East State Street, Rockford, Rockford Township, Winnebago County, Illinois, 61108, United States",42.2683388,-89.01867338002917
Roosevelt University,Chicago,IL,Not applicable,62.7,52.75,48.13,54.88,"Roosevelt University, Chicago, IL","Roosevelt University, 430, South Michigan Avenue, Printer's Row, Loop, Chicago, Cook County, Illinois, 60605, United States",41.87613485,-87.6251816505098
VanderCook College of Music,Chicago,IL,Not applicable,24.6,38.21,49.08,37.119,"VanderCook College of Music, Chicago, IL","Vandercook College Of Music, 3140, South Federal Street, Bronzeville, Douglas, Chicago, Cook County, Illinois, 60616, United States",41.83676195,-87.6291654
Butler University,Indianapolis,IN,Not applicable,93.85,59.37,49.76,69.312,"Butler University, Indianapolis, IN","Butler University, Lester Street, Indianapolis, Marion County, Indiana, 46208, United States",39.8407191,-86.17374943464814
Indiana Institute of Technology,Fort Wayne,IN,Not applicable,49.92,41.57,50.68,48.556,"Indiana Institute of Technology, Fort Wayne, IN","Indiana Tech, 1600, East Washington Boulevard, Fort Wayne, Allen County, Indiana, 46803, United States",41.07754835,-85.11768473673075
Wabash College,Crawfordsville,IN,Not applicable,39.32,40.48,55.01,45.832,"Wabash College, Crawfordsville, IN","Wabash College, 301, Porter Street, Crawfordsville, Montgomery County, Indiana, 47933, United States",40.0367517,-86.90726990345898
Drake University,Des Moines,IA,Not applicable,53.7,54.62,51.91,53.167,"Drake University, Des Moines, IA","Drake University, Mondamin Avenue, Kirkwood Glen, Des Moines, Polk County, Iowa, 50310, United States",41.60307425,-93.6552753180374
Grinnell College,Grinnell,IA,Not applicable,43.84,43.21,60.37,50.331,"Grinnell College, Grinnell, IA","Grinnell College, 1115, 8th Avenue, Grinnell, Grant Township, Poweshiek County, Iowa, 50112, United States",41.75111985,-92.71984863278584
Maharishi International University,Fairfield,IA,Not applicable,25.17,48.36,48.76,39.246,"Maharishi International University, Fairfield, IA","Maharishi International University, 1000, General Davis Crescent, Fairfield, Jefferson County, Iowa, 52557, United States",41.023532,-91.96396696626836
Upper Iowa University,Fayette,IA,Not applicable,29.39,46.3,47.85,40.158,"Upper Iowa University, Fayette, IA","Upper Iowa University, West Madison Street, Fayette, Fayette County, Iowa, 52142, United States",42.83958545,-91.7933042901662
Sterling College,Sterling,KS,Not applicable,29.05,38.48,48.96,38.904,"Sterling College, Sterling, KS","Sterling College, 125, West Cooper Avenue, Sterling, Rice County, Kansas, 67579, United States",38.2199775,-98.20912245441116
Alice Lloyd College,Pippa Passes,KY,Not applicable,30.47,38.17,57.61,42.873,"Alice Lloyd College, Pippa Passes, KY","Alice Lloyd College, Integrity Lane, Pippa Passes, Knott County, Kentucky, 41844, United States",37.3362011,-82.87339228684898
Tulane University of Louisiana,New Orleans,LA,Not applicable,93.65,86.59,49.68,74.638,"Tulane University of Louisiana, New Orleans, LA","Tulane University School of Medicine, 131, South Robertson Street, Storyville, New Orleans, Orleans Parish, Louisiana, 70112, United States",29.95794375,-90.07785846248962
College of the Atlantic,Bar Harbor,ME,Not applicable,26.53,38.97,51.75,39.111,"College of the Atlantic, Bar Harbor, ME","College of the Atlantic, 105, Eden Street, Bar Harbor, Hancock County, Maine, 04609, United States",44.39407415,-68.21999264324018
Bowdoin College,Brunswick,ME,Not applicable,41.72,44.16,56.43,48.096,"Bowdoin College, Brunswick, ME","Bowdoin College, 255, Maine Street, Brunswick, Cumberland County, Maine, 04011, United States",43.90869735,-69.96142281131719
Colby College,Waterville,ME,Not applicable,50.04,45.58,52.19,50.01,"Colby College, Waterville, ME","Colby College, 4000, Mayflower Hill Drive, Waterville, Kennebec County, Maine, 04901, United States",44.5684775,-69.66002565150262
University of New England,Biddeford,ME,Not applicable,46.18,56.67,50.64,50.061,"University of New England, Biddeford, ME","University of New England, Pool Street, Biddeford, York County, Maine, 04005, United States",43.4591747,-70.38622144492447
Thomas College,Waterville,ME,Not applicable,30.08,40.94,50.16,40.288,"Thomas College, Waterville, ME","Thomas College, West River Road, Waterville, Kennebec County, Maine, 04901, United States",44.522392100000005,-69.66334775027758
Capitol Technology University,Laurel,MD,Not applicable,34.68,39.94,50.0,41.864,"Capitol Technology University, Laurel, MD","Capitol Technology University, Springfield Road, Montpelier Hills, South Laurel, Prince George's County, Maryland, 20708, United States",39.04698215,-76.85145270190938
Goucher College,Baltimore,MD,Not applicable,38.71,43.21,50.84,44.465,"Goucher College, Baltimore, MD","Goucher College, Hampton Lane, Dulaney Valley Estates, Towson, Baltimore County, Maryland, 21286, United States",39.408995,-76.59287091567526
Johns Hopkins University,Baltimore,MD,Not applicable,99.34,99.87,50.68,79.967,"Johns Hopkins University, Baltimore, MD","Johns Hopkins University, 3400, North Charles Street, Charles Village, Baltimore, Maryland, 21218, United States",39.33020225,-76.62185357858337
Maryland Institute College of Art,Baltimore,MD,Not applicable,35.98,47.33,49.88,43.812,"Maryland Institute College of Art, Baltimore, MD","Maryland Institute College of Art, 1300, West Mount Royal Avenue, Bolton Hill, Baltimore, Maryland, 21217, United States",39.3050505,-76.61976099495374
St. John's College,Annapolis,MD,Not applicable,35.01,39.67,53.35,43.283,"St. John's College, Annapolis, MD","St. John's College, 60, College Avenue, Annapolis, Anne Arundel County, Maryland, 21401, United States",38.98228315,-76.49223748074706
Stevenson University,Owings Mills,MD,Not applicable,88.4,50.28,49.32,65.14,"Stevenson University, Owings Mills, MD","Stevenson University Owings Mills Campus, Boulevard Circle, Boulevard Corporate Center, Owings Mills, Baltimore County, Maryland, 21117, United States",39.4272656,-76.77650761968783
Washington College,Chestertown,MD,Not applicable,38.9,40.36,51.87,44.384,"Washington College, Chestertown, MD","Washington College, 300, Washington Avenue, Lees Corner, Chestertown, Kent County, Maryland, 21620, United States",39.218376,-76.06925670472985
McDaniel College,Westminster,MD,Not applicable,61.87,48.4,49.96,54.411,"McDaniel College, Westminster, MD","McDaniel College, 2, New Windsor Road, Marbeth Hill, Westminster, Carroll County, Maryland, 21157, United States",39.58516815,-77.00372758695082
American International College,Springfield,MA,Not applicable,34.42,42.58,49.12,41.935,"American International College, Springfield, MA","American International College, Westford Avenue, Winchester Square Historic District, McKnight and Bay, Springfield, Hampden County, Massachusetts, 01109, United States",42.113395350000005,-72.55728564424604
Bentley University,Waltham,MA,Not applicable,79.67,57.1,50.92,63.652,"Bentley University, Waltham, MA","Bentley University, 175, Forest Street, Eastview Park, Waltham, Middlesex County, Massachusetts, 02452, United States",42.3834189,-71.2225864285891
Berklee College of Music,Boston,MA,Not applicable,93.37,69.22,49.0,70.784,"Berklee College of Music, Boston, MA","Berklee College of Music, Boylston Street, Fenway-Kenmore, Boston, Suffolk County, Massachusetts, 02115, United States",42.3483475,-71.08487040303883
Boston Architectural College,Boston,MA,Not applicable,24.45,40.01,48.84,37.322,"Boston Architectural College, Boston, MA","Boston Architectural College, Hereford Street, Block H, Back Bay, Boston, Suffolk County, Massachusetts, 02199, United States",42.3484696,-71.08575407316081
Boston University,Boston,MA,Not applicable,99.87,99.87,51.24,80.403,"Boston University, Boston, MA","Boston University, Copley Street, North Brookline, Boston, Norfolk County, Massachusetts, 02215, United States",42.3504215,-71.10322831831216
Brandeis University,Waltham,MA,Not applicable,69.81,59.79,50.8,60.198,"Brandeis University, Waltham, MA","Brandeis University, 415, South Street, Cedarwood, Waltham, Middlesex County, Massachusetts, 02453, United States",42.36650945,-71.2580196483813
Clark University,Worcester,MA,Not applicable,54.02,54.89,49.64,52.441,"Clark University, Worcester, MA","Clark University, Red Square, Main South, Worcester, Worcester County, Massachusetts, 01610, United States",42.25146815,-71.82295086144981
Curry College,Milton,MA,Not applicable,45.9,44.51,48.96,46.847,"Curry College, Milton, MA","Curry College, Woodmere Drive, Woodmere, Milton, Norfolk County, Massachusetts, 01286, United States",42.2378786,-71.114711547038
Dean College,Franklin,MA,Not applicable,35.64,41.18,49.08,42.127,"Dean College, Franklin, MA","Dean College, East Central Street, Franklin, Norfolk County, Massachusetts, 02038, United States",42.08465315,-71.39983777231043
Endicott College,Beverly,MA,Not applicable,70.37,53.47,49.92,58.807,"Endicott College, Beverly, MA","Endicott College, Village Road, Beverly Cove, Beverly, Essex County, Massachusetts, 01965, United States",42.55406905,-70.8441366229226
Fisher College,Boston,MA,Not applicable,32.31,40.67,50.4,41.222,"Fisher College, Boston, MA","Fisher College, 118, Beacon Street, Bay Village, Back Bay, Boston, Suffolk County, Massachusetts, 02116, United States",42.355367900000005,-71.07373780610305
Hampshire College,Amherst,MA,Not applicable,32.85,38.17,46.89,39.533,"Hampshire College, Amherst, MA","Hampshire College, Potwine Place, Amherst, Hampshire County, Massachusetts, 01004, United States",42.32502175,-72.52940222329684
Harvard University,Cambridge,MA,Not applicable,93.07,99.87,99.87,97.151,"Harvard University, Cambridge, MA","Harvard University, Arsenal Square, Old Cambridge, Cambridge, Middlesex County, Massachusetts, 21410, United States",42.36574325,-71.12221394207614
Lasell University,Newton,MA,Not applicable,32.82,45.7,48.13,41.522,"Lasell University, Newton, MA","Lasell University, Vista Avenue, Lasell Village, Auburndale, Newton, Middlesex County, Massachusetts, 02466, United States",42.34106865,-71.24859630298465
Lesley University,Cambridge,MA,Not applicable,25.37,45.34,50.32,39.347,"Lesley University, Cambridge, MA","Lesley University, Massachusetts Avenue, Avon Hill, Cambridge, Middlesex County, Massachusetts, 02140, United States",42.3864348,-71.1190947
Massachusetts Institute of Technology,Cambridge,MA,Not applicable,77.07,82.48,57.65,70.377,"Massachusetts Institute of Technology, Cambridge, MA","Massachusetts Institute of Technology, Main Street, Cambridge, Middlesex County, Massachusetts, 02142, United States",42.3582529,-71.0966272383055
Mount Holyoke College,South Hadley,MA,Not applicable,51.56,45.38,53.78,51.214,"Mount Holyoke College, South Hadley, MA","Mount Holyoke College, West Street, South Hadley, Hampshire County, Massachusetts, 01075, United States",42.25532845,-72.56966884397315
Nichols College,Dudley,MA,Not applicable,40.4,43.29,49.32,44.548,"Nichols College, Dudley, MA","Nichols College, Center Road, Dudley, Worcester County, Massachusetts, 01571, United States",42.0418482,-71.92971577727883
Northeastern University,Boston,MA,Not applicable,99.81,99.87,49.4,79.643,"Northeastern University, Boston, MA","Northeastern University, 360, Huntington Avenue, Back Bay, Boston, Suffolk County, Massachusetts, 02115, United States",42.33510525,-71.08925787470238
Simmons University,Boston,MA,Not applicable,38.82,68.62,49.0,48.849,"Simmons University, Boston, MA","Simmons University, 300, Fenway, Audubon Circle, Fenway-Kenmore, Boston, Suffolk County, Massachusetts, 02115, United States",42.33893545,-71.10043183883623
Springfield College,Springfield,MA,Not applicable,41.25,48.13,48.92,45.695,"Springfield College, Springfield, MA","Springfield College, Fayette Street, Springfield, Hampden County, Massachusetts, 01109, United States",42.10284205,-72.55671489399984
Suffolk University,Boston,MA,Not applicable,77.37,58.78,48.6,62.139,"Suffolk University, Boston, MA","Suffolk University, 73, Tremont Street, Downtown Crossing, Downtown Boston, Boston, Suffolk County, Massachusetts, 02108, United States",42.3567011,-71.06105776439689
Tufts University,Medford,MA,Not applicable,95.16,85.88,50.48,75.42,"Tufts University, Medford, MA","Tufts University, Tesla Avenue, Medford Hillside, Medford, Middlesex County, Massachusetts, 02144, United States",42.40649125,-71.11800725402092
Wellesley College,Wellesley,MA,Not applicable,49.92,45.66,55.53,51.315,"Wellesley College, Wellesley, MA","Wellesley College, Lovewell Road, Wellesley, Norfolk County, Massachusetts, 02482, United States",42.29177605,-71.3032751636105
Wentworth Institute of Technology,Boston,MA,Not applicable,66.68,51.56,49.16,56.646,"Wentworth Institute of Technology, Boston, MA","Wentworth Institute of Technology, Ruggles Street, Roxbury Crossing, Fenway-Kenmore, Boston, Suffolk County, Massachusetts, 02115, United States",42.336572450000006,-71.0953729508291
Western New England University,Springfield,MA,Not applicable,55.69,51.24,48.88,52.075,"Western New England University, Springfield, MA","Western New England University, North Road, Sixteen Acres, Springfield, Hampden County, Massachusetts, 01128, United States",42.1125825,-72.51478135708936
Williams College,Williamstown,MA,Not applicable,50.88,45.42,57.53,52.451,"Williams College, Williamstown, MA","Williams College, Hopkins Hall Drive, Williamstown, Berkshire County, Massachusetts, 01267, United States",42.7130236,-73.2030082
Worcester Polytechnic Institute,Worcester,MA,Not applicable,87.39,63.53,49.24,67.351,"Worcester Polytechnic Institute, Worcester, MA","Worcester Polytechnic Institute, 100, Institute Road, Massachusetts Avenue Historic District, Hammond Heights, Worcester, Worcester County, Massachusetts, 01609, United States",42.274315,-71.80845674552586
Cleary University,Howell,MI,Not applicable,28.37,44.43,48.25,39.537,"Cleary University, Howell, MI","Cleary University, 3750, Cleary Drive, Howell, Livingston County, Michigan, 48843, United States",42.58746595,-83.88048112861308
College for Creative Studies,Detroit,MI,Not applicable,40.05,41.61,50.72,44.633,"College for Creative Studies, Detroit, MI","College for Creative Studies, 201, East Kirby Street, Art District, Midtown, Detroit, Wayne County, Michigan, 48202, United States",42.36128,-83.06304456769371
Davenport University,Grand Rapids,MI,Not applicable,47.73,52.03,48.29,48.813,"Davenport University, Grand Rapids, MI","Davenport University - W.A. Lettinga Main Campus, 6191, Kraft Avenue Southeast, Caledonia Charter Township, Grand Rapids, Kent County, Michigan, 49512, United States",42.84920905,-85.53130919554428
Kalamazoo College,Kalamazoo,MI,Not applicable,44.08,42.19,50.92,46.44,"Kalamazoo College, Kalamazoo, MI","Kalamazoo College, West Michigan Avenue, Kalamazoo, Kalamazoo County, Michigan, 49006, United States",42.29075735,-85.59936465969835
Lawrence Technological University,Southfield,MI,Not applicable,47.09,44.47,48.92,47.299,"Lawrence Technological University, Southfield, MI","Lawrence Technological University, Tamarack Trail, Southfield, Oakland County, Michigan, 48075, United States",42.4752647,-83.25063727571097
Northwood University,Midland,MI,Not applicable,40.87,47.17,50.44,45.96,"Northwood University, Midland, MI","Northwood University, 4000, Whiting Drive, Midland, Midland County, Michigan, 48640, United States",43.6311535,-84.27681755477265
Carleton College,Northfield,MN,Not applicable,60.22,44.35,54.97,54.948,"Carleton College, Northfield, MN","Carleton College, 1, College Street North, Northfield, Rice County, Minnesota, 55057, United States",44.4612233,-93.1557163
Minneapolis College of Art and Design,Minneapolis,MN,Not applicable,34.31,39.74,34.68,35.543,"Minneapolis College of Art and Design, Minneapolis, MN","Minneapolis College of Art and Design, 2nd Avenue South, Whittier, Phillips, Minneapolis, Hennepin County, Minnesota, 55408, United States",44.9566921,-93.27433002725542
Northwestern Health Sciences University,Bloomington,MN,Not applicable,24.35,40.79,49.48,37.694,"Northwestern Health Sciences University, Bloomington, MN","Northwestern Health Sciences University, West 84th Street, Bloomington, Hennepin County, Minnesota, 55437, United States",44.8504407,-93.31183907344057
Dunwoody College of Technology,Minneapolis,MN,Not applicable,54.34,43.64,53.19,51.742,"Dunwoody College of Technology, Minneapolis, MN","Dunwoody College of Technology, 818, Dunwoody Boulevard, Lowry Hill, Minneapolis, Hennepin County, Minnesota, 55403, United States",44.9731679,-93.29066773372568
Cleveland University-Kansas City,Overland Park,KS,Not applicable,23.98,39.13,46.65,36.082,"Cleveland University-Kansas City, Overland Park, KS","Cleveland University Kansas City, 10850, Lowell Avenue, Overland Park, Johnson County, Kansas, 66210, United States",38.9322187,-94.67974333842892
Cottey College,Nevada,MO,Not applicable,26.47,38.06,64.99,44.205,"Cottey College, Nevada, MO","Cottey College, 1000, West Austin Boulevard, Nevada, Vernon County, Missouri, 64772, United States",37.8365603,-94.37114356505388
Kansas City Art Institute,Kansas City,MO,Not applicable,35.64,39.4,50.16,42.204,"Kansas City Art Institute, Kansas City, MO","Kansas City Art Institute, East 45th Street, Rockhill, Westport, Kansas City, Jackson County, Missouri, 64110, United States",39.04669785,-94.58317495871825
Park University,Parkville,MO,Not applicable,29.43,63.19,50.92,44.778,"Park University, Parkville, MO","Park University, 8700, Northwest River Park Drive, Parkville, Platte County, Missouri, 64152, United States",39.18900875,-94.6725289414734
Ranken Technical College,Saint Louis,MO,Not applicable,55.53,46.33,51.99,52.275,"Ranken Technical College, Saint Louis, MO","Ranken Technical College, Page Boulevard, Lewis Place, Saint Louis, Missouri, 63113, United States",38.6534824,-90.24921783355836
University of Health Sciences and Pharmacy in St. Louis,Saint Louis,MO,Not applicable,28.03,41.92,50.96,39.984,"University of Health Sciences and Pharmacy in St. Louis, Saint Louis, MO","University of Health Sciences and Pharmacy, 1, Pharmacy Place, Central West End, Saint Louis, Missouri, 63110, United States",38.63708455,-90.2609963703083
Stephens College,Columbia,MO,Not applicable,26.3,39.28,51.12,38.829,"Stephens College, Columbia, MO","Stephens College, 1200, East Broadway, Strollway, Columbia, Columbia Township, Boone County, Missouri, 65216, United States",38.9505943,-92.3229551
Washington University in St Louis,Saint Louis,MO,Not applicable,94.55,95.22,50.6,77.091,"Washington University in St Louis, Saint Louis, MO","Washington University in St. Louis, Brookings Dr, Skinker DeBaliviere, Saint Louis, Missouri, 63130, United States",38.64724015,-90.3084017158684
Webster University,Saint Louis,MO,Not applicable,38.86,40.17,48.92,43.149,"Webster University, Saint Louis, MO","Webster University Gateway Campus, 812, Olive Street, Downtown, Saint Louis, Missouri, 63101, United States",38.62831,-90.19291581871602
William Jewell College,Liberty,MO,Not applicable,31.74,39.7,49.28,40.352,"William Jewell College, Liberty, MO","William Jewell College, 500, Mississippi Street, Liberty, Clay County, Missouri, 64068, United States",39.251379400000005,-94.41122222903628
Blackfeet Community College,Browning,MT,Not applicable,24.35,37.45,50.8,37.555,"Blackfeet Community College, Browning, MT","Blackfeet Community College, Southeast Boundary Street, Browning, Glacier County, Montana, 59427, United States",48.5523,-113.00878674597448
Colby-Sawyer College,New London,NH,Not applicable,27.33,39.74,50.96,39.269,"Colby-Sawyer College, New London, NH","Colby-Sawyer College, 541, Main Street, New London, Merrimack County, New Hampshire, 03257, United States",43.4141177,-71.97532444047863
Dartmouth College,Hanover,NH,Not applicable,66.06,64.95,26.73,50.094,"Dartmouth College, Hanover, NH","Dartmouth Green, Hanover, Grafton County, New Hampshire, United States",43.7033798,-72.28860224553567
Franklin Pierce University,Rindge,NH,Not applicable,26.8,44.24,48.76,39.075,"Franklin Pierce University, Rindge, NH","Franklin Pierce University, 40, Mountian Road, West Rindge, Rindge, Cheshire County, New Hampshire, 03461, United States",42.7793366,-72.0558917
Southern New Hampshire University,Manchester,NH,Not applicable,99.87,99.87,49.2,79.587,"Southern New Hampshire University, Manchester, NH","Southern New Hampshire University, 2500, North River Road, Martin, Manchester, Merrimack County, New Hampshire, 03106, United States",43.0374605,-71.44783921922284
Fairleigh Dickinson University-Metropolitan Campus,Teaneck,NJ,Not applicable,62.63,50.36,48.4,54.482,"Fairleigh Dickinson University-Metropolitan Campus, Teaneck, NJ","Fairleigh Dickinson University, NJ 4, Manordome, Teaneck Township, Bergen County, New Jersey, 07661, United States",40.89807275,-74.0307211402726
Monmouth University,West Long Branch,NJ,Not applicable,75.99,57.5,51.04,62.308,"Monmouth University, West Long Branch, NJ","Monmouth University, 400, Cedar Avenue, West End, West Long Branch, Monmouth County, New Jersey, 07764, United States",40.27941055,-74.00680219986127
Stevens Institute of Technology,Hoboken,NJ,Not applicable,85.88,78.52,49.36,69.791,"Stevens Institute of Technology, Hoboken, NJ","Stevens Institute of Technology, 1, Wittpenn Walk, Uptown, Hoboken, Hudson County, New Jersey, 07030, United States",40.7448096,-74.0252392276461
Adelphi University,Garden City,NY,Not applicable,79.16,68.55,49.08,64.999,"Adelphi University, Garden City, NY","Adelphi University, 1, South Avenue, Village of Garden City, Town of Hempstead, Nassau County, New York, 11530, United States",40.7197638,-73.65197185396391
Albany College of Pharmacy and Health Sciences,Albany,NY,Not applicable,27.36,41.02,48.8,38.672,"Albany College of Pharmacy and Health Sciences, Albany, NY","Albany College of Pharmacy and Health Sciences, 106, New Scotland Avenue, Park South, City of Albany, Albany County, New York, 12208, United States",42.64943435,-73.77661197493438
Barnard College,New York,NY,Not applicable,56.79,48.13,49.64,52.198,"Barnard College, New York, NY","Barnard College, Broadway, Morningside Heights, Manhattan Community Board 9, Manhattan, New York County, City of New York, New York, 10115, United States",40.8094864,-73.96355097608796
Boricua College,New York,NY,Not applicable,25.08,39.28,51.08,38.325,"Boricua College, New York, NY","Boricua College, 9, Graham Avenue, Brooklyn, Kings County, City of New York, New York, 11206, United States",40.7013535,-73.942403
Clarkson University,Potsdam,NY,Not applicable,45.07,53.35,49.68,48.57,"Clarkson University, Potsdam, NY","Clarkson University, Bayside Cemetery, Village of Potsdam, Town of Potsdam, Saint Lawrence County, New York, 13699, United States",44.65958875,-75.00623974830918
Colgate University,Hamilton,NY,Not applicable,60.37,47.89,52.03,54.538,"Colgate University, Hamilton, NY","Colgate University, Hamilton Street, Village of Hamilton, Town of Hamilton, Madison County, New York, 13346, United States",42.815403700000005,-75.53958155911818
Metropolitan College of New York,New York,NY,Not applicable,24.57,39.9,44.12,35.459,"Metropolitan College of New York, New York, NY","Metropolitan College of New York - Bronx Campus, East 149th Street, Mott Haven, The Bronx, Bronx County, City of New York, New York, 10451, United States",40.8152756,-73.9153259
Columbia University in the City of New York,New York,NY,Not applicable,86.26,99.87,50.84,74.801,"Columbia University in the City of New York, New York, NY","Columbia University, Morningside Drive, Morningside Heights, Manhattan Community Board 9, Manhattan, New York County, City of New York, New York, 10027, United States",40.80775585,-73.96161411567529
Cornell University,Ithaca,NY,Not applicable,99.87,99.62,50.52,80.065,"Cornell University, Ithaca, NY","Cornell University, City of Ithaca, Town of Dryden, Tompkins County, New York, 14850, United States",42.4529076,-76.48008423030923
Elmira College,Elmira,NY,Not applicable,28.47,38.21,52.99,40.231,"Elmira College, Elmira, NY","Elmira College, City of Elmira, Chemung County, New York, United States",42.0944203,-76.81553824542168
Hartwick College,Oneonta,NY,Not applicable,37.37,39.82,48.32,42.243,"Hartwick College, Oneonta, NY","Hartwick College, 1, Hartwick Drive, City of Oneonta, Otsego County, New York, 13820, United States",42.45997815,-75.07146882680061
Hofstra University,Hempstead,NY,Not applicable,89.67,76.02,49.92,71.031,"Hofstra University, Hempstead, NY","Hofstra University, Holland House, Village of Hempstead, Town of Hempstead, Nassau County, New York, 11549, United States",40.71690825,-73.60002245039347
Ithaca College,Ithaca,NY,Not applicable,62.51,56.12,51.32,56.754,"Ithaca College, Ithaca, NY","Ithaca College, Spencer Road, Titus Flats, Ward 1, City of Ithaca, Tompkins County, New York, 14850, United States",42.41970355,-76.49833484728887
The Juilliard School,New York,NY,Not applicable,26.6,41.61,57.5,41.968,"The Juilliard School, New York, NY","The Juilliard School, 60, West 66th Street, Lincoln Square, Manhattan Community Board 7, Manhattan, New York County, City of New York, New York, 10023, United States",40.7738393,-73.9831016
Long Island University,Brookville,NY,Not applicable,65.84,88.84,51.08,64.527,"Long Island University, Brookville, NY","Long Island University C W Post Campus, University Drive, Village of Brookville, Town of Oyster Bay, Nassau County, New York, 11545, United States",40.820249,-73.59671333637571
Manhattan School of Music,New York,NY,Not applicable,30.01,42.7,51.52,41.156,"Manhattan School of Music, New York, NY","Manhattan School of Music, West 122nd Street, Morningside Heights, Manhattan Community Board 9, Manhattan, New York County, City of New York, New York, 10027, United States",40.8125642,-73.96129536937597
The New School,New York,NY,Not applicable,80.34,73.53,48.68,66.306,"The New School, New York, NY","The New School, 66, West 12th Street, Manhattan, New York County, City of New York, New York, 10011, United States",40.73547915,-73.9970708835668
New York University,New York,NY,Not applicable,99.87,99.87,48.6,79.347,"New York University, New York, NY","New York University, Crosby Street, East Village, NoHo, Manhattan, New York County, City of New York, New York, 10012, United States",40.7292053,-73.99501481290962
New York Institute of Technology,Old Westbury,NY,Not applicable,59.13,58.67,49.36,55.127,"New York Institute of Technology, Old Westbury, NY","New York Institute of Technology, Quail Run, Wheatley, Village of Old Westbury, Town of Oyster Bay, Nassau County, New York, 11568, United States",40.80795905,-73.60628896763087
New York School of Interior Design,New York,NY,Not applicable,25.02,40.32,51.79,38.793,"New York School of Interior Design, New York, NY","New York School of Interior Design, 170, East 70th Street, Lenox Hill, Manhattan Community Board 8, Manhattan, New York County, City of New York, New York, 10021, United States",40.7685442,-73.96247825598766
Pace University,New York,NY,Not applicable,94.68,83.2,48.6,73.94,"Pace University, New York, NY","Pace University, 1, Pace Plaza, Lower Manhattan, Manhattan, New York County, City of New York, New York, 10038, United States",40.7111164,-74.00480443918846
Rensselaer Polytechnic Institute,Troy,NY,Not applicable,88.12,68.37,49.64,68.77,"Rensselaer Polytechnic Institute, Troy, NY","Rensselaer Polytechnic Institute, 110, 8th Street, Downtown, City of Troy, Rensselaer County, New York, 12180, United States",42.7298969,-73.67966781998861
Rochester Institute of Technology,Rochester,NY,Not applicable,99.87,76.18,50.0,75.174,"Rochester Institute of Technology, Rochester, NY","Rochester Institute of Technology, 1, Lomb Memorial Drive, City of Rochester, Monroe County, New York, 14623, United States",43.0826701,-77.67293215211362
University of Rochester,Rochester,NY,Not applicable,87.84,83.42,48.92,71.377,"University of Rochester, Rochester, NY","University of Rochester River Campus, Jefferson Avenue, Genesee-Jefferson, City of Rochester, Monroe County, New York, 14611, United States",43.129864,-77.62878399245412
Russell Sage College,Troy,NY,Not applicable,30.68,45.54,50.08,41.415,"Russell Sage College, Troy, NY","Russell Sage College, 65, 1st Street, South Central, City of Troy, Rensselaer County, New York, 12180, United States",42.7280214,-73.6935695
Skidmore College,Saratoga Springs,NY,Not applicable,57.65,45.66,51.08,52.624,"Skidmore College, Saratoga Springs, NY","Skidmore College, City of Saratoga Springs, Saratoga County, New York, 12866, United States",43.09871785354964,-73.78422856497147
Utica University,Utica,NY,Not applicable,43.53,53.39,48.13,47.341,"Utica University, Utica, NY","Utica University, 1600, Burrstone Road, City of Utica, Oneida County, New York, 13502, United States",43.09724785,-75.27048436278756
Vassar College,Poughkeepsie,NY,Not applicable,54.42,46.14,51.91,51.761,"Vassar College, Poughkeepsie, NY","Vassar College, 124, Raymond Avenue, City of Poughkeepsie, Town of Poughkeepsie, Dutchess County, New York, 12604, United States",41.686786,-73.8956971
Webb Institute,Glen Cove,NY,Not applicable,24.86,38.67,53.03,38.896,"Webb Institute, Glen Cove, NY","Webb Institute, 298, Crescent Beach Road, City of Glen Cove, Nassau County, New York, 11542, United States",40.8844868,-73.64476966947441
Elon University,Elon,NC,Not applicable,99.4,61.6,50.2,72.153,"Elon University, Elon, NC","Elon University, West Trollinger Avenue, Elon, Alamance County, North Carolina, 27244, United States",36.1063398,-79.50273682932499
Salem College,Winston-Salem,NC,Not applicable,29.32,38.9,53.9,41.073,"Salem College, Winston-Salem, NC","Salem College, Rams Drive, Wake Forest Innovation Quarter, Winston-Salem, Forsyth County, North Carolina, 27110, United States",36.0861216,-80.23981471121351
Art Academy of Cincinnati,Cincinnati,OH,Not applicable,26.96,37.9,48.36,37.712,"Art Academy of Cincinnati, Cincinnati, OH","Art Academy of Cincinnati, Jackson Street, Over-the-Rhine Historic District, Over-the-Rhine, Cincinnati, Hamilton County, Ohio, 45202, United States",39.1088449,-84.51386678960034
Case Western Reserve University,Cleveland,OH,Not applicable,91.0,81.46,50.4,72.842,"Case Western Reserve University, Cleveland, OH","Case Western Reserve University, 10900, Euclid Avenue, Uptown, Cleveland, Cuyahoga County, Ohio, 44106, United States",41.50138695,-81.60070216600491
Cleveland Institute of Art,Cleveland,OH,Not applicable,27.79,39.7,49.96,39.044,"Cleveland Institute of Art, Cleveland, OH","Cleveland Institute of Art, 11610, Euclid Avenue, Uptown, Cleveland, Cuyahoga County, Ohio, 44106, United States",41.5105999,-81.60241351457773
Cleveland Institute of Music,Cleveland,OH,Not applicable,24.76,39.24,51.04,38.173,"Cleveland Institute of Music, Cleveland, OH","Cleveland Institute of Music, 11021, East Boulevard, Magnolia-Wade Park Historic District, Cleveland, Cuyahoga County, Ohio, 44106, United States",41.51246555,-81.6088220252853
Columbus College of Art & Design,Columbus,OH,Not applicable,29.15,40.36,45.46,37.919,"Columbus College of Art & Design, Columbus, OH","Columbus College of Art and Design, Cleveland Avenue, Discovery District, Columbus, Franklin County, Ohio, 43216, United States",39.9650847,-82.99043195655817
Denison University,Granville,OH,Not applicable,52.71,45.03,65.1,56.135,"Denison University, Granville, OH","Denison University, West College Street, Granville Historic District, Granville, Granville Township, Licking County, Ohio, 43023, United States",40.07300505,-82.52248588003852
Franklin University,Columbus,OH,Not applicable,24.57,65.14,49.52,42.663,"Franklin University, Columbus, OH","Franklin University, 201, South Grant Avenue, Market Mohawk District, Columbus, Franklin County, Ohio, 43215, United States",39.95764844999999,-82.99093046593417
Lake Erie College,Painesville,OH,Not applicable,31.03,39.82,48.25,39.679,"Lake Erie College, Painesville, OH","Lake Erie College, Gillett Street, West Walnut Estates, Painesville, Lake County, Ohio, 44077, United States",41.7169934,-81.25184131797042
Marietta College,Marietta,OH,Not applicable,35.61,41.29,49.64,42.361,"Marietta College, Marietta, OH","Marietta College, Foster Lane, Marietta Historic District, Harmar, Marietta, Washington County, Ohio, 45750, United States",39.41609505,-81.4484225136152
University of Northwestern Ohio,Lima,OH,Not applicable,58.32,45.07,52.19,53.219,"University of Northwestern Ohio, Lima, OH","University of Northwestern Ohio, 1441, North Cable Road, Lima, Allen County, Ohio, 45805, United States",40.7617103,-84.16055032215593
University of Rio Grande,Rio Grande,OH,Not applicable,28.47,42.23,21.36,28.373,"University of Rio Grande, Rio Grande, OH","University of Rio Grande and Rio Grande Community College, Anniversary Drive, Rio Grande, Gallia County, Ohio, 45674, United States",38.8788275,-82.376029230075
Tiffin University,Tiffin,OH,Not applicable,44.24,44.79,49.0,46.255,"Tiffin University, Tiffin, OH","Tiffin University, Scott Street, Fort Ball-Railroad Historic District, Tiffin, Seneca County, Ohio, 44883, United States",41.11911195,-83.18558345227916
Lewis & Clark College,Portland,OR,Not applicable,58.43,48.92,49.72,53.043,"Lewis & Clark College, Portland, OR","Lewis and Clark College, 615, South Palatine Hill Road, Collins View, Portland, Multnomah County, Oregon, 97219, United States",45.44850495,-122.6700383929096
Reed College,Portland,OR,Not applicable,45.07,41.96,52.63,47.475,"Reed College, Portland, OR","Reed College, 3203, Southeast Woodstock Boulevard, Eastmoreland, Portland, Multnomah County, Oregon, 97202, United States",45.48149925,-122.63101360753458
Carnegie Mellon University,Pittsburgh,PA,Not applicable,90.97,94.58,51.28,75.803,"Carnegie Mellon University, Pittsburgh, PA","Carnegie Mellon University, hamerschlag_outside, Squirrel Hill North, Pittsburgh, Allegheny County, Pennsylvania, 15213, United States",40.4441897,-79.94271918393466
Cedar Crest College,Allentown,PA,Not applicable,26.73,43.49,49.84,39.33,"Cedar Crest College, Allentown, PA","Cedar Crest College, College Drive, Park Ridge, Allentown, Lehigh County, Pennsylvania, 18104, United States",40.5870414,-75.5196287
Delaware Valley University,Doylestown,PA,Not applicable,42.86,44.04,48.8,45.474,"Delaware Valley University, Doylestown, PA","Delaware Valley University, Iron Hill Road, New Britain, Doylestown Township, Bucks County, Pennsylvania, 18901, United States",40.29314845,-75.15994121447233
Drexel University,Philadelphia,PA,Not applicable,98.66,95.43,48.72,78.024,"Drexel University, Philadelphia, PA","Drexel University, 3141, Chestnut Street, Powelton Village, Philadelphia, Philadelphia County, Pennsylvania, 19104, United States",39.9569305,-75.18992654517834
Lackawanna College,Scranton,PA,Not applicable,37.98,46.45,49.8,44.404,"Lackawanna College, Scranton, PA","Lackawanna College, 501, Vine Street, Downtown, Scranton, Lackawanna County, Pennsylvania, 18509, United States",41.41176365,-75.65867565883656
Pennsylvania Institute of Technology,Media,PA,Not applicable,25.88,40.79,47.17,37.381,"Pennsylvania Institute of Technology, Media, PA","Pennsylvania Institute of Technology, 800, Manchester Avenue, Moylan-Rose Valley Station, Media, Delaware County, Pennsylvania, 19063, United States",39.9084449,-75.3888041
Peirce College,Philadelphia,PA,Not applicable,23.55,40.44,48.52,36.92,"Peirce College, Philadelphia, PA","Peirce College, Waverly Street, Gayborhood, Center City, Philadelphia, Philadelphia County, Pennsylvania, 19102, United States",39.9454895,-75.16648247045221
Point Park University,Pittsburgh,PA,Not applicable,41.76,51.16,52.19,47.813,"Point Park University, Pittsburgh, PA","Point Park University, Wood Street, Firstside Historic District, Downtown, Pittsburgh, Allegheny County, Pennsylvania, 15222, United States",40.4386483,-80.0017698160382
Robert Morris University,Moon Township,PA,Not applicable,47.57,50.04,48.48,48.428,"Robert Morris University, Moon Township, PA","Robert Morris University, 6001, University Boulevard, Amherst Acres, Carnot, Moon Township, Allegheny County, Pennsylvania, 15108, United States",40.52155855,-80.21157831862749
Ursinus College,Collegeville,PA,Not applicable,40.36,41.64,49.96,44.459,"Ursinus College, Collegeville, PA","Ursinus College, 601, East Main Street, Collegeville, Montgomery County, Pennsylvania, 19426, United States",40.1917705,-75.4568484
York College of Pennsylvania,York,PA,Not applicable,55.05,48.72,51.28,52.276,"York College of Pennsylvania, York, PA","York College of Pennsylvania, 441, Country Club Road, Grantly Hills, Grantley, York, York County, Pennsylvania, 17403, United States",39.9474471,-76.72679844421862
Brown University,Providence,RI,Not applicable,94.8,77.88,52.91,74.651,"Brown University, Providence, RI","Brown University, Royal Street, Providence, Providence County, Rhode Island, 02912, United States",41.8186395,-71.4088008716793
Bryant University,Smithfield,RI,Not applicable,69.25,52.11,49.88,58.072,"Bryant University, Smithfield, RI","Bryant University, 1150, Douglas Pike, Smithfield, Providence County, Rhode Island, 02917, United States",41.92209145,-71.53715173504338
New England Institute of Technology,East Greenwich,RI,Not applicable,46.89,46.3,52.79,49.134,"New England Institute of Technology, East Greenwich, RI","New England Institute of Technology, 1, New England Tech Boulevard, East Greenwich, Kent County, Rhode Island, 02818, United States",41.6602712,-71.50135499179412
Rhode Island School of Design,Providence,RI,Not applicable,49.76,47.45,49.68,49.266,"Rhode Island School of Design, Providence, RI","Rhode Island School of Design, Providence County, Rhode Island, 02912, United States",41.82710375,-71.40639007145332
Roger Williams University,Bristol,RI,Not applicable,72.74,53.03,48.8,59.219,"Roger Williams University, Bristol, RI","Roger Williams University, Mount Hope Bridge, Bristol, Bristol County, Rhode Island, 02809, United States",41.65046815,-71.26023298522472
Coker University,Hartsville,SC,Not applicable,30.99,40.94,50.44,40.764,"Coker University, Hartsville, SC","Coker University, 300, East College Avenue, College Heights, Hartsville, Darlington County, South Carolina, 29550, United States",34.3777406,-80.0674304
Converse University,Spartanburg,SC,Not applicable,37.49,41.49,51.04,43.713,"Converse University, Spartanburg, SC","Converse University, North Pine Street, Spartanburg, Spartanburg County, South Carolina, 29305, United States",34.95798605,-81.91913306668786
Cumberland University,Lebanon,TN,Not applicable,59.06,48.96,51.52,54.024,"Cumberland University, Lebanon, TN","Cumberland University, West Spring Street, West End Heights, Lebanon, Wilson County, Middle Tennessee, Tennessee, United States",36.20463525,-86.29971370104121
Lincoln Memorial University,Harrogate,TN,Not applicable,46.77,55.8,51.0,50.267,"Lincoln Memorial University, Harrogate, TN","Lincoln Memorial University, 6965, Cumberland Gap Parkway, Harrogate, Claiborne County, East Tennessee, Tennessee, 37752, United States",36.5718381,-83.66162404836976
Vanderbilt University,Nashville,TN,Not applicable,94.71,95.26,52.79,78.039,"Vanderbilt University, Nashville, TN","Vanderbilt University, 2201, West End Avenue, Nashville, Davidson County, Middle Tennessee, Tennessee, 37235, United States",36.14380105,-86.80281889095295
Rice University,Houston,TX,Not applicable,98.58,85.5,53.23,77.813,"Rice University, Houston, TX","Rice University, 6100, Main Street, Houston, Harris County, Texas, 77005, United States",29.71679145,-95.40478113393792
Westminster University,Salt Lake City,UT,Not applicable,31.45,41.61,51.52,41.514,"Westminster University, Salt Lake City, UT","Westminster University, 1840 S, 1300 East, Sugar House, Salt Lake City, Salt Lake County, Utah, 84105, United States",40.7312521,-111.855563602987
Champlain College,Burlington,VT,Not applicable,40.05,57.14,48.76,46.951,"Champlain College, Burlington, VT","Champlain College, 163, South Willard Street, Burlington, Chittenden County, Vermont, 05401, United States",44.4739064,-73.20327154657234
Middlebury College,Middlebury,VT,Not applicable,46.73,47.81,51.71,48.939,"Middlebury College, Middlebury, VT","Middlebury College, 14, Old Chapel Road, Middlebury, Addison County, Vermont, 05753, United States",44.00366955,-73.17295278964315
Norwich University,Northfield,VT,Not applicable,32.56,51.48,56.75,46.023,"Norwich University, Northfield, VT","Norwich University, 158, Harmon Drive, Northfield Center, Northfield, Washington County, Vermont, 05663, United States",44.13917905,-72.66126954642372
Hollins University,Roanoke,VA,Not applicable,37.07,40.4,59.68,46.786,"Hollins University, Roanoke, VA","Hollins University, 7916, Williamson Road, Hollins Court, Roanoke County, Virginia, 24020, United States",37.3573684,-79.94365952263512
Washington and Lee University,Lexington,VA,Not applicable,55.88,45.5,54.62,53.302,"Washington and Lee University, Lexington, VA","Washington And Lee University, Letcher Avenue, Lexington, Virginia, 24450, United States",37.7869705,-79.4413852
Cornish College of the Arts,Seattle,WA,Not applicable,42.7,38.21,50.36,44.869,"Cornish College of the Arts, Seattle, WA","Cornish College of the Arts, Terry Avenue, South Lake Union, Belltown, Seattle, King County, Washington, 98191, United States",47.61680045,-122.33586595
Heritage University,Toppenish,WA,Not applicable,32.24,40.59,54.74,42.915,"Heritage University, Toppenish, WA","Heritage University, 3240, Fort Road, Toppenish, Yakima County, Washington, 98948, United States",46.3741532,-120.39427548042916
Whitman College,Walla Walla,WA,Not applicable,53.55,42.58,53.74,51.434,"Whitman College, Walla Walla, WA","Whitman College, Prentiss Drive, Walla Walla, Walla Walla County, Washington, 99362, United States",46.0705665,-118.33031775014608
University of Charleston,Charleston,WV,Not applicable,27.96,55.09,51.32,42.732,"University of Charleston, Charleston, WV","University of Charleston, 22nd Street Southeast, Charleston, Kanawha County, West Virginia, 25304, United States",38.33293915,-81.61688525414507
Bellin College,Green Bay,WI,Not applicable,27.59,40.48,49.6,38.976,"Bellin College, Green Bay, WI","Bellin College-Resch Campus, 3201, Eaton Road, Green Bay, Brown County, Wisconsin, 54311, United States",44.46900025,-87.92160775298771
Beloit College,Beloit,WI,Not applicable,36.39,40.25,50.16,42.673,"Beloit College, Beloit, WI","Beloit College, Emerson Street, Beloit, Rock County, Wisconsin, 53511, United States",42.5009819,-89.0157777411969
Lawrence University,Appleton,WI,Not applicable,44.28,41.92,51.79,46.815,"Lawrence University, Appleton, WI","Lawrence University, 711, East Boldt Way, Appleton, Outagamie County, Wisconsin, 54911, United States",44.2607247,-88.39889100394868
Milwaukee Institute of Art & Design,Milwaukee,WI,Not applicable,34.64,40.59,50.24,42.073,"Milwaukee Institute of Art & Design, Milwaukee, WI","Milwaukee Institute of Art & Design, 273, East Erie Street, Historic Third Ward, Downtown, Milwaukee, Milwaukee County, Wisconsin, 53202, United States",43.03129575,-87.90830599188746
Milwaukee School of Engineering,Milwaukee,WI,Not applicable,75.93,46.57,50.84,60.02,"Milwaukee School of Engineering, Milwaukee, WI","Milwaukee School of Engineering, East Juneau Avenue, Juneautown, Downtown, Milwaukee, Milwaukee County, Wisconsin, 53201, United States",43.04576595,-87.9079361465609
Ripon College,Ripon,WI,Not applicable,34.05,38.9,42.19,38.277,"Ripon College, Ripon, WI","Ripon College, 300, Dartford Road, Ripon, Town of Ripon, Fond du Lac County, Wisconsin, 54971, United States",43.84102355,-88.85393861210508
Parker University,Dallas,TX,Not applicable,26.89,46.81,53.07,41.35,"Parker University, Dallas, TX","Parker University, Electronic Lane, Dallas, Dallas County, Texas, 75220, United States",32.8796947,-96.89320493303732
Hodges University,Fort Myers,FL,Not applicable,23.3,36.88,47.13,35.552,"Hodges University, Fort Myers, FL","Hodges University, 4501, Colonial Boulevard, Fort Myers, Lee County, Florida, 33966, United States",26.61136205,-81.8217407969598
College of Menominee Nation,Keshena,WI,Not applicable,23.51,37.75,49.12,36.607,"College of Menominee Nation, Keshena, WI","College of Menominee Nation, N172, State Highway 47, Town of Menominee, Menominee County, Wisconsin, 54135, United States",44.85554755,-88.6245843192466
Franklin W Olin College of Engineering,Needham,MA,Not applicable,27.59,39.36,51.6,39.553,"Franklin W Olin College of Engineering, Needham, MA","Olin College of Engineering, 1000, Olin Way, Olin Woods, Needham, Norfolk County, Massachusetts, 02492, United States",42.2900134,-71.26080120734075
Herzing University-Brookfield,Brookfield,WI,Not applicable,25.62,40.56,48.6,37.804,"Herzing University-Brookfield, Brookfield, WI","Herzing University, 15895, West Bluemound Road, Brookfield, Waukesha County, Wisconsin, 53005, United States",43.0356884,-88.111052
St. Augustine College,Chicago,IL,Other,25.46,39.51,49.64,37.946,"St. Augustine College, Chicago, IL","Saint Augustine College, West Argyle Street, Andersonville, Uptown, Chicago, Lake View Township, Cook County, Illinois, 60640, United States",41.97235065,-87.66336450066497
Graceland University-Lamoni,Lamoni,IA,Other,32.85,41.45,50.48,41.626,"Graceland University-Lamoni, Lamoni, IA","Graceland University, 1, University Place, Lamoni, Decatur County, Iowa, 50140, United States",40.61690775,-93.9255655729911
Bethel College-North Newton,North Newton,KS,Other,29.63,38.55,99.87,59.529,"Bethel College-North Newton, North Newton, KS","Bethel College, College Avenue, North Newton, Harvey County, Kansas, 67117, United States",38.0761894,-97.34339387481224
Bryn Athyn College of the New Church,Bryn Athyn,PA,Other,26.08,38.32,58.51,41.507,"Bryn Athyn College of the New Church, Bryn Athyn, PA","Bryn Athyn College of the New Church, 2945, College Drive, Bryn Athyn, Montgomery County, Pennsylvania, 19009, United States",40.13487835,-75.06013469538682
Landmark College,Putney,VT,Other,26.24,39.28,49.68,38.228,"Landmark College, Putney, VT","Landmark College, Locust Lane, Putney, Windham County, Vermont, 05346, United States",42.97580925,-72.51098429479487
Soka University of America,Aliso Viejo,CA,Other,31.88,39.47,99.83,60.597,"Soka University of America, Aliso Viejo, CA","Soka University of America, 1, University Drive, Aliso Viejo, Orange County, California, 92656, United States",33.554675200000005,-117.73474045850824
University of the West,Rosemead,CA,Other,23.92,37.83,49.16,36.803,"University of the West, Rosemead, CA","University of the West, 1409, Walnut Grove Avenue, Rosemead, Los Angeles County, California, 91770, United States",34.04497585,-118.08300019506136
Southeastern University,Lakeland,FL,Pentecostal,73.04,65.1,48.36,61.574,"Southeastern University, Lakeland, FL","Southeastern University, 1000, Longfellow Boulevard, Lakeland, Polk County, Florida, 33801, United States",28.03048365,-81.91800905687728
North Central University,Minneapolis,MN,Pentecostal,36.84,40.83,49.68,42.777,"North Central University, Minneapolis, MN","North Central University, East 14th Street, Phillips, Minneapolis, Hennepin County, Minnesota, 55404, United States",44.9688959,-93.2618548027095
Evangel University,Springfield,MO,Pentecostal,34.9,44.39,49.76,42.745,"Evangel University, Springfield, MO","Evangel University, East Division Street, Weller, Springfield, Greene County, Missouri, 65898, United States",37.22175245,-93.26497163536374
Northpoint Bible College,Haverhill,MA,Pentecostal,22.84,37.83,46.26,35.21,"Northpoint Bible College, Haverhill, MA","Northpoint Bible College, 320, South Main Street, Bradford Common Historic District, Bradford, Haverhill, Essex County, Massachusetts, 01835, United States",42.7634537,-71.0790020909418
Northwest University,Kirkland,WA,Pentecostal,30.15,42.98,48.29,39.975,"Northwest University, Kirkland, WA","Northwest University, 5520, 108th Avenue Northeast, Kirkland, King County, Washington, 98033, United States",47.65775615,-122.19170992986534
Stillman College,Tuscaloosa,AL,Presbyterian,33.51,38.36,52.19,41.957,"Stillman College, Tuscaloosa, AL","Stillman College, 36th Avenue, Sommerville, West End, Tuscaloosa, Tuscaloosa County, Alabama, 35401, United States",33.19784735,-87.58572785618387
Lyon College,Batesville,AR,Presbyterian,30.68,38.97,48.88,39.622,"Lyon College, Batesville, AR","Lyon College, 2300, Highland Road, Rogers Addition, Batesville, Independence County, Arkansas, 72501, United States",35.7764261,-91.62423939520048
University of the Ozarks,Clarksville,AR,Presbyterian,30.85,39.86,51.12,40.764,"University of the Ozarks, Clarksville, AR","University of the Ozarks, 415, North College Avenue, Clarksville, Johnson County, Arkansas, 72830, United States",35.47863885,-93.46558900601369
Occidental College,Los Angeles,CA,Presbyterian,53.15,44.12,53.19,51.362,"Occidental College, Los Angeles, CA","Occidental College, 1600, Campus Road, Highland Park, Los Angeles, Los Angeles County, California, 90041, United States",34.12719495,-118.20992029989196
Eckerd College,Saint Petersburg,FL,Presbyterian,62.44,43.09,50.2,53.674,"Eckerd College, Saint Petersburg, FL","Eckerd College, 4200, 54th Avenue South, Saint Petersburg, Pinellas County, Florida, 33711, United States",27.714265750000003,-82.68554318351735
Agnes Scott College,Decatur,GA,Presbyterian,45.58,41.49,50.96,46.916,"Agnes Scott College, Decatur, GA","Agnes Scott College, Milton Candler Lane, Decatur, DeKalb County, Georgia, 30030, United States",33.7688851,-84.2944452
Blackburn College,Carlinville,IL,Presbyterian,26.7,38.21,51.32,38.855,"Blackburn College, Carlinville, IL","Blackburn College, College Avenue, Carlinville, Macoupin County, Illinois, 62626, United States",39.289597650000005,-89.871577121424
Illinois College,Jacksonville,IL,Presbyterian,39.24,41.61,50.88,44.373,"Illinois College, Jacksonville, IL","Illinois College, Mound Road, Jacksonville, Morgan County, Illinois, 62650, United States",39.7291655,-90.24647315398732
Knox College,Galesburg,IL,Presbyterian,33.58,40.75,49.96,41.569,"Knox College, Galesburg, IL","Knox College, South Academy Street, Galesburg, Knox County, Illinois, 61401, United States",40.9419283,-90.3722582708558
Lake Forest College,Lake Forest,IL,Presbyterian,49.32,42.82,49.48,48.085,"Lake Forest College, Lake Forest, IL","Lake Forest College, 555, North Sheridan Road, Lake Forest, Lake County, Illinois, 60045, United States",42.24761745,-87.8294820650179
Millikin University,Decatur,IL,Presbyterian,34.2,43.21,51.08,42.757,"Millikin University, Decatur, IL","Millikin University, 1184, West Main Street, Near West End, Decatur, Macon County, Illinois, 62522, United States",39.842988,-88.974262809366
Monmouth College,Monmouth,IL,Presbyterian,32.89,39.01,52.87,42.111,"Monmouth College, Monmouth, IL","Monmouth College, East Boston Avenue, Monmouth, Warren County, Illinois, 61462, United States",40.9144918,-90.63839026946084
Hanover College,Hanover,IN,Presbyterian,40.13,41.1,51.91,45.039,"Hanover College, Hanover, IN","Hanover College, College Avenue, Hanover, Jefferson County, Indiana, 47243, United States",38.71651765,-85.46164277066788
Buena Vista University,Storm Lake,IA,Presbyterian,34.31,44.63,51.44,43.229,"Buena Vista University, Storm Lake, IA","Buena Vista University, 610, West 4th Street, Storm Lake, Buena Vista County, Iowa, 50588, United States",42.6405657,-95.20969795805097
Coe College,Cedar Rapids,IA,Presbyterian,38.94,41.14,50.2,43.887,"Coe College, Cedar Rapids, IA","Coe College, 1220, 1st Avenue East, MedQuarter, Cedar Rapids, Linn County, Iowa, 52402, United States",41.99059715,-91.65696644701376
University of Dubuque,Dubuque,IA,Presbyterian,34.31,44.16,52.95,43.74,"University of Dubuque, Dubuque, IA","University of Dubuque, 2000, University Avenue, Dubuque, Dubuque County, Iowa, 52001, United States",42.49510235,-90.69655385158194
University of Pikeville,Pikeville,KY,Presbyterian,39.97,44.24,49.24,44.534,"University of Pikeville, Pikeville, KY","University of Pikeville, River Drive, Pikeville, Pike County, Kentucky, 41501, United States",37.47482525,-82.52100157239967
Alma College,Alma,MI,Presbyterian,40.44,41.41,50.0,44.461,"Alma College, Alma, MI","Alma College, 614, West Superior Street, Alma, Arcada Township, Gratiot County, Michigan, 48801, United States",43.38147395,-84.6713490300015
Macalester College,Saint Paul,MN,Presbyterian,58.67,44.67,53.47,53.791,"Macalester College, Saint Paul, MN","Macalester College, 1600, Grand Avenue, Macalester - Groveland, Saint Paul, Ramsey County, Minnesota, 55105, United States",44.9376942,-93.16929174410552
Belhaven University,Jackson,MS,Presbyterian,40.21,41.57,49.8,44.321,"Belhaven University, Jackson, MS","Belhaven University, 1500, Peachtree Street, Greater Belhaven, Jackson, Hinds County, Mississippi, 39202, United States",32.320139100000006,-90.1690571965284
Missouri Valley College,Marshall,MO,Presbyterian,42.23,40.13,48.88,44.472,"Missouri Valley College, Marshall, MO","Missouri Valley College, 500, East College Street, Marshall, Saline County, Missouri, 65340, United States",39.10644115,-93.19077080738803
Westminster College,Fulton,MO,Presbyterian,30.96,38.78,56.91,42.91,"Westminster College, Fulton, MO","Westminster College, Hackberry Street, Fulton, Callaway County, Missouri, 65251, United States",38.8489337,-91.9568394031446
Hastings College,Hastings,NE,Presbyterian,40.13,40.05,49.64,43.921,"Hastings College, Hastings, NE","Hastings College, 710, North Elm Avenue, Hastings, Adams County, Nebraska, 68901, United States",40.5943839,-98.36549671078184
Bloomfield College,Bloomfield,NJ,Presbyterian,23.48,40.75,49.48,37.338,"Bloomfield College, Bloomfield, NJ","Bloomfield College, Oakland Avenue, Bloomfield, Essex County, New Jersey, 07003, United States",40.79519845,-74.19382455603869
Davidson College,Davidson,NC,Presbyterian,62.13,44.79,57.53,56.824,"Davidson College, Davidson, NC","Davidson College, Thompson Street, Downtown, Davidson, Mecklenburg County, North Carolina, 28036, United States",35.5032193,-80.83393027613258
Johnson C Smith University,Charlotte,NC,Presbyterian,41.57,40.21,51.71,45.357,"Johnson C Smith University, Charlotte, NC","Johnson C. Smith University, 100, Beatties Ford Road, Biddleville, Charlotte, Mecklenburg County, North Carolina, 28216, United States",35.24379475,-80.85543225981756
Lees-McRae College,Banner Elk,NC,Presbyterian,38.06,40.32,49.32,43.019,"Lees-McRae College, Banner Elk, NC","Lees-McRae College, 191, Main Street West, North Campus, Banner Elk, Avery County, North Carolina, 28604, United States",36.15271495,-81.88158941244929
William Peace University,Raleigh,NC,Presbyterian,38.51,39.94,50.36,43.539,"William Peace University, Raleigh, NC","William Peace University, 15, East Peace Street, Historic Oakwood, Seaboard Station, Raleigh, Wake County, North Carolina, 27604, United States",35.7895729,-78.63722585982836
St. Andrews University,Laurinburg,NC,Presbyterian,40.13,38.9,46.77,42.542,"St. Andrews University, Laurinburg, NC","Saint Andrews University, 1700, Dogwood Mile, College Park South, Laurinburg, Scotland County, North Carolina, 28352, United States",34.7407164,-79.4814373
University of Jamestown,Jamestown,ND,Presbyterian,32.85,41.45,49.56,41.257,"University of Jamestown, Jamestown, ND","University of Jamestown, 7th Street Northeast, Jamestown, Stutsman County, North Dakota, 58405, United States",46.9138872,-98.69703370758988
Muskingum University,New Concord,OH,Presbyterian,40.21,42.94,50.08,44.706,"Muskingum University, New Concord, OH","Muskingum University, McCalls Lane, New Concord, Muskingum County, Ohio, 43762, United States",39.9995479,-81.73888231752169
University of Tulsa,Tulsa,OK,Presbyterian,44.24,52.31,54.74,50.056,"University of Tulsa, Tulsa, OK","University of Tulsa, East 8th Street, Kendall-Whittier, Tulsa, Tulsa County, Oklahoma, 74104, United States",36.1523306,-95.94596023877985
Arcadia University,Glenside,PA,Presbyterian,39.4,48.84,48.84,45.065,"Arcadia University, Glenside, PA","Arcadia University, 450, South Easton Road, Oak Summit, Glenside, Cheltenham Township, Montgomery County, Pennsylvania, 19038, United States",40.0917501,-75.16511509669805
Geneva College,Beaver Falls,PA,Presbyterian,32.38,40.75,45.74,39.4,"Geneva College, Beaver Falls, PA","Geneva College, 3200, College Avenue, College Hill, Beaver Falls, Beaver County, Pennsylvania, 15010, United States",40.77108845,-80.32171346880179
Lafayette College,Easton,PA,Presbyterian,55.57,46.49,52.51,52.531,"Lafayette College, Easton, PA","Lafayette College, 730, High Street, College Hill, Easton, Northampton County, Pennsylvania, 18042, United States",40.6986835,-75.20924604652205
Waynesburg University,Waynesburg,PA,Presbyterian,34.83,42.15,49.0,41.965,"Waynesburg University, Waynesburg, PA","Waynesburg University, North Washington Street, Waynesburg, Greene County, Pennsylvania, 15370, United States",39.8992531,-80.18633971576111
Westminster College,New Wilmington,PA,Presbyterian,34.61,40.59,51.24,42.462,"Westminster College, New Wilmington, PA","Westminster College, 319, South Market Street, New Wilmington, Lawrence County, Pennsylvania, 16172, United States",41.1182434,-80.32868957389215
Erskine College,Due West,SC,Presbyterian,45.82,38.86,50.32,46.231,"Erskine College, Due West, SC","Erskine College, West Cleveland Street, Due West, Abbeville County, South Carolina, 29639, United States",34.33219835,-82.39299839413458
Presbyterian College,Clinton,SC,Presbyterian,37.15,40.67,51.68,43.67,"Presbyterian College, Clinton, SC","Presbyterian College, West Maple Street, Clinton, Laurens County, South Carolina, 29325, United States",34.46275055,-81.86717708775335
Bethel University,McKenzie,TN,Presbyterian,38.71,45.03,48.92,44.06,"Bethel University, McKenzie, TN","Bethel University, 325, Cherry Avenue, McKenzie, Carroll County, West Tennessee, Tennessee, 38201, United States",36.14145385,-88.51552576233773
King University,Bristol,TN,Presbyterian,29.74,41.49,49.32,39.926,"King University, Bristol, TN","King University, 1350, King College Road, Springdale, Bristol, Sullivan County, East Tennessee, Tennessee, 37620, United States",36.5877694,-82.15980141522917
Maryville College,Maryville,TN,Presbyterian,45.54,39.97,50.76,46.517,"Maryville College, Maryville, TN","Maryville College, 502, East Lamar Alexander Parkway, Hillsdale, Maryville, Blount County, East Tennessee, Tennessee, 37804, United States",35.751472,-83.9642249
Rhodes College,Memphis,TN,Presbyterian,48.17,44.35,50.56,48.363,"Rhodes College, Memphis, TN","Rhodes College, The Cut, Memphis, Shelby County, West Tennessee, Tennessee, 38112, United States",35.15564375,-89.98893549446169
Tusculum University,Greeneville,TN,Presbyterian,28.6,42.23,49.28,39.601,"Tusculum University, Greeneville, TN","Tusculum University, 60, Shiloh Road, Tusculum, Greeneville, Greene County, East Tennessee, Tennessee, 37743, United States",36.1720416,-82.75920079647051
Austin College,Sherman,TX,Presbyterian,43.88,41.84,51.52,46.531,"Austin College, Sherman, TX","Austin College, 900, North Grand Avenue, Sherman, Grayson County, Texas, 75090, United States",33.6474084,-96.59801788312646
Schreiner University,Kerrville,TX,Presbyterian,49.48,40.52,67.04,54.719,"Schreiner University, Kerrville, TX","Schreiner University, 2100, Memorial Boulevard, Kerrville, Kerr County, Texas, 78028, United States",30.03127035,-99.13024647445344
Trinity University,San Antonio,TX,Presbyterian,81.57,47.25,56.67,64.745,"Trinity University, San Antonio, TX","Trinity University, East Hollywood Avenue, Monte Vista, San Antonio, Bexar County, Texas, 78212, United States",29.4616913,-98.48350834832186
Hampden-Sydney College,Hampden-Sydney,VA,Presbyterian,35.9,40.25,52.23,43.306,"Hampden-Sydney College, Hampden-Sydney, VA","Hampden-Sydney College, College Road, The Birthplace, Hampden Sydney, Prince Edward County, Virginia, 23943, United States",37.24237495,-78.46056918726649
Mary Baldwin University,Staunton,VA,Presbyterian,31.74,46.22,48.88,41.494,"Mary Baldwin University, Staunton, VA","Mary Baldwin University, East Frederick Street, Newtown, Staunton, Virginia, 24401, United States",38.15402875,-79.06819740463007
Whitworth University,Spokane,WA,Presbyterian,68.97,47.61,50.6,57.349,"Whitworth University, Spokane, WA","Whitworth University, North Whitehouse Street, Fairwood, Spokane County, Washington, 99251, United States",47.75418125,-117.41788646350028
Davis & Elkins College,Elkins,WV,Presbyterian,30.26,39.47,70.54,48.224,"Davis & Elkins College, Elkins, WV","Davis and Elkins College, Sycamore Street, Elkins, Randolph County, West Virginia, 26241, United States",38.93325345,-79.84355971087138
Carroll University,Waukesha,WI,Presbyterian,61.71,50.04,52.95,55.872,"Carroll University, Waukesha, WI","Carroll University, 100, North East Avenue, Waukesha, Waukesha County, Wisconsin, 53186, United States",43.00395265,-88.22926408934816
Chapman University,Orange,CA,Protestant,98.93,76.91,49.52,74.752,"Chapman University, Orange, CA","Chapman University, 1, University Drive, Orange, Orange County, California, 92866, United States",33.79338165,-117.85169594598702
Hope International University,Fullerton,CA,Protestant,27.99,41.72,48.44,38.919,"Hope International University, Fullerton, CA","Hope International University, Titan Drive, Fullerton, Orange County, California, 92831, United States",33.8763883,-117.88556902972496
Point Loma Nazarene University,San Diego,CA,Protestant,65.98,56.36,49.08,57.293,"Point Loma Nazarene University, San Diego, CA","Point Loma Nazarene University, Lomaland Drive, Wooded Area, Point Loma, San Diego, San Diego County, California, 92107, United States",32.7169659,-117.2510853
William Jessup University,Rocklin,CA,Protestant,32.46,43.8,48.56,41.171,"William Jessup University, Rocklin, CA","William Jessup University, University Avenue, Rocklin, Placer County, California, 95765, United States",38.8200917,-121.29249035478844
Northwest Nazarene University,Nampa,ID,Protestant,39.09,43.96,50.56,44.654,"Northwest Nazarene University, Nampa, ID","Northwest Nazarene University, Holly Street, Nampa, Canyon County, Idaho, 83686, United States",43.5610104,-116.56582397087747
Eureka College,Eureka,IL,Protestant,30.5,38.94,50.24,40.088,"Eureka College, Eureka, IL","Eureka College, 300, East College Avenue, Eureka, Woodford County, Illinois, 61530, United States",40.71304545,-89.26588087495756
North Park University,Chicago,IL,Protestant,51.24,45.7,50.52,49.845,"North Park University, Chicago, IL","North Park University, 3225, West Foster Avenue, North Park, Chicago, Jefferson Township, Cook County, Illinois, 60625, United States",41.97487485,-87.70538274756231
Trinity International University-Illinois,Deerfield,IL,Protestant,21.56,40.71,47.57,35.798,"Trinity International University-Illinois, Deerfield, IL","Trinity International University, 2065, Half Day Road, Deerfield, Lake County, Illinois, 60015, United States",42.19529545,-87.87910360426022
Bethel University,Mishawaka,IN,Protestant,33.69,41.02,49.08,41.315,"Bethel University, Mishawaka, IN","Bethel University, 1001, Bethel Circle, Mishawaka, Saint Joseph County, Indiana, 46545, United States",41.6763764,-86.19332967026835
Central College,Pella,IA,Protestant,38.21,40.17,50.28,43.433,"Central College, Pella, IA","Central College, 812, University Street, Pella, Lake Prairie Township, Marion County, Iowa, 50219, United States",41.4036435,-92.93159877729258
Northwestern College,Orange City,IA,Protestant,36.35,44.16,51.68,44.047,"Northwestern College, Orange City, IA","Northwestern College, 101, 7th Street Southwest, Orange City, Sioux County, Iowa, 51041, United States",42.9994485,-96.0543218266804
MidAmerica Nazarene University,Olathe,KS,Protestant,33.0,42.19,56.04,44.059,"MidAmerica Nazarene University, Olathe, KS","MidAmerica Nazarene University, East College Way, Olathe, Johnson County, Kansas, 66062, United States",38.87397135,-94.782189935796
Midway University,Midway,KY,Protestant,37.37,41.64,49.28,42.991,"Midway University, Midway, KY","Midway University, 512, East Stephens Street, Midway, Woodford County, Kentucky, 40347, United States",38.14316615,-84.6730591943697
Transylvania University,Lexington,KY,Protestant,37.07,39.97,50.96,43.21,"Transylvania University, Lexington, KY","Transylvania University, West Third Street, Northside, Lexington, Fayette County, Kentucky, 40707, United States",38.053107,-84.49398715778406
Eastern Nazarene College,Quincy,MA,Protestant,24.13,39.17,49.36,37.235,"Eastern Nazarene College, Quincy, MA","Eastern Nazarene College, 23, East Elm Avenue, Wollaston Park, North Quincy, Quincy, Norfolk County, Massachusetts, 02170, United States",42.2719128,-71.01063647394558
Wheaton College (Massachusetts),Norton,MA,Protestant,49.24,42.94,49.88,48.237,"Wheaton College (Massachusetts), Norton, MA","Wheaton College, 26, East Main Street, East Norton, Norton, Bristol County, Massachusetts, 02766, United States",41.9670817,-71.1830931786674
Calvin University,Grand Rapids,MI,Protestant,60.95,49.0,51.71,54.864,"Calvin University, Grand Rapids, MI","Calvin University, 3201, Burton Street Southeast, Third Ward, Grand Rapids, Kent County, Michigan, 49546, United States",42.9320314,-85.58036402193719
Grace Christian University,Wyoming,MI,Protestant,26.8,40.83,48.76,38.394,"Grace Christian University, Wyoming, MI","Grace Christian University, 1011, Aldon Street Southwest, Wyoming, Kent County, Michigan, 49509, United States",42.9191842,-85.69025938006718
Great Lakes Christian College,Lansing,MI,Protestant,26.86,38.02,48.21,37.636,"Great Lakes Christian College, Lansing, MI","Great Lakes Christian College, 6211, West Willow Highway, Waverly, Lansing, Delta Charter Township, Eaton County, Michigan, 48917, United States",42.75431465,-84.63851156802842
Hope College,Holland,MI,Protestant,81.19,46.53,55.76,64.085,"Hope College, Holland, MI","Hope College, 141, East 12th Street, Holland, Ottawa County, Michigan, 49423, United States",42.786724500000005,-86.09964267156195
Kuyper College,Grand Rapids,MI,Protestant,24.67,37.9,44.47,35.239,"Kuyper College, Grand Rapids, MI","Kuyper College, 3333, East Beltline Avenue Northeast, Grand Rapids, Grand Rapids Charter Township, Kent County, Michigan, 49525, United States",43.0226231,-85.59218988093869
Calvary University,Kansas City,MO,Protestant,24.2,38.59,51.64,38.059,"Calvary University, Kansas City, MO","Calvary University, Randolph Street, Kansas City, Cass County, Missouri, 64147, United States",38.837399000000005,-94.54678318732306
Central Christian College of the Bible,Moberly,MO,Protestant,23.21,37.56,49.0,36.401,"Central Christian College of the Bible, Moberly, MO","Central Christian College of the Bible, 911, East Urbandale Drive, Moberly, Randolph County, Missouri, 65270, United States",39.3960492,-92.42717583557408
Columbia College,Columbia,MO,Protestant,42.11,39.7,5.68,27.046,"Columbia College, Columbia, MO","Columbia College, North 7th Street, North Central Columbia, Columbia, Boone County, Missouri, 65201, United States",38.95833745,-92.3259443469596
Culver-Stockton College,Canton,MO,Protestant,33.47,40.52,51.12,41.944,"Culver-Stockton College, Canton, MO","Culver Stockton College, 1, College Hill, Canton, Lewis County, Missouri, 63435, United States",40.1288229,-91.5316408
Drury University,Springfield,MO,Protestant,37.83,39.7,49.2,42.755,"Drury University, Springfield, MO","Drury University, 900, North Benton Avenue, Midtown, Springfield, Greene County, Missouri, 65802, United States",37.2182356,-93.2846472053064
William Woods University,Fulton,MO,Protestant,32.1,42.47,49.84,41.273,"William Woods University, Fulton, MO","William Woods University, One, University Avenue, Fulton, Callaway County, Missouri, 65251, United States",38.8629209,-91.94880909677832
University of the Southwest,Hobbs,NM,Protestant,28.16,41.45,59.64,43.417,"University of the Southwest, Hobbs, NM","College of the Southwest, 6610, North Lovington Highway, Air Base City, Hobbs, Lea County, New Mexico, 88240, United States",32.77421735,-103.18926487314552
Barton College,Wilson,NC,Protestant,45.46,40.71,48.88,45.88,"Barton College, Wilson, NC","Barton College, 800, Vance Street Northeast, Wilson, Wilson County, North Carolina, 27893, United States",35.735359700000004,-77.91246914152123
Mid-Atlantic Christian University,Elizabeth City,NC,Protestant,25.75,38.09,49.24,37.619,"Mid-Atlantic Christian University, Elizabeth City, NC","Mid-Atlantic Christian University, 715, North Poindexter Street, Elizabeth City, Pasquotank County, North Carolina, 27909, United States",36.3044141,-76.21636491459975
Wake Forest University,Winston-Salem,NC,Protestant,97.48,75.58,50.36,74.242,"Wake Forest University, Winston-Salem, NC","Wake Forest University, 1834, Wake Forest Road, Brookwood, Winston-Salem, Forsyth County, North Carolina, 27109, United States",36.13389295,-80.27555779127688
Ohio Christian University,Circleville,OH,Protestant,24.79,38.06,60.3,41.656,"Ohio Christian University, Circleville, OH","Ohio Christian University, Roundtown Trail, Circleville, Pickaway County, Ohio, 43113, United States",39.6118927,-82.90625672679114
Oberlin College,Oberlin,OH,Protestant,60.41,45.62,54.22,54.977,"Oberlin College, Oberlin, OH","Oberlin College, Maple Street, College Village Apartments, Oberlin, New Russia Township, Lorain County, Ohio, 44074, United States",41.29571765,-82.22156959263393
Southern Nazarene University,Bethany,OK,Protestant,38.17,45.78,52.31,45.351,"Southern Nazarene University, Bethany, OK","Southern Nazarene University, North Redmond Avenue, Bethany, Oklahoma County, Oklahoma, 73008, United States",35.5138091,-97.62930068685996
Oral Roberts University,Tulsa,OK,Protestant,62.25,49.24,50.68,55.019,"Oral Roberts University, Tulsa, OK","Oral Roberts University, University Avenue, Tulsa, Tulsa County, Oklahoma, 74136, United States",36.0508252,-95.95213552843208
New Hope Christian College-Eugene,Eugene,OR,Protestant,23.79,37.64,49.2,36.729,"New Hope Christian College-Eugene, Eugene, OR","New Hope Christian College, Bailey Hill Road, Eugene, Lane County, Oregon, 97402, United States",44.0336731,-123.15386778539198
Bushnell University,Eugene,OR,Protestant,26.93,40.9,94.34,56.705,"Bushnell University, Eugene, OR","Bushnell University, Franklin Boulevard, River Edge Public Plaza, Eugene, Lane County, Oregon, 97401, United States",44.0490835,-123.08130104578522
Moravian University,Bethlehem,PA,Protestant,46.81,50.28,49.8,48.7,"Moravian University, Bethlehem, PA","Moravian University, Main Street, Burnside, Central Bethlehem, Bethlehem, Northampton County, Pennsylvania, 18017, United States",40.63090535,-75.38352409365376
Bob Jones University,Greenville,SC,Protestant,57.77,45.7,48.8,51.768,"Bob Jones University, Greenville, SC","Bob Jones University, 1700, Wade Hampton Boulevard, White Oak, Greenville, Greenville County, South Carolina, 29614, United States",34.8718605,-82.36517984802921
Johnson University,Knoxville,TN,Protestant,31.92,41.76,54.38,42.877,"Johnson University, Knoxville, TN","Johnson University, 7900, Johnson Drive, Kimberlin Heights, Knoxville, Knox County, East Tennessee, Tennessee, 37998, United States",35.93541995,-83.74939490120485
Trevecca Nazarene University,Nashville,TN,Protestant,42.82,57.22,49.44,48.347,"Trevecca Nazarene University, Nashville, TN","Trevecca Nazarene University, 333, Geyser Street, Nashville, Davidson County, Middle Tennessee, Tennessee, 37210, United States",36.1415469,-86.75328273884115
Texas Christian University,Fort Worth,TX,Protestant,99.87,77.91,50.88,75.872,"Texas Christian University, Fort Worth, TX","Texas Christian University, West Berry Street, Fort Worth, Tarrant County, Texas, 76110, United States",32.7080148,-97.36119385339882
Sterling College,Craftsbury Common,VT,Protestant,23.61,37.41,49.2,36.611,"Sterling College, Craftsbury Common, VT","Sterling College, Common Loop, Craftsbury Common, Craftsbury, Orleans County, Vermont, 05827, United States",44.65177415,-72.38233221619343
Liberty University,Lynchburg,VA,Protestant,99.87,99.87,55.72,82.197,"Liberty University, Lynchburg, VA","Liberty University, 1971, University Boulevard, Lynchburg, Virginia, 24515, United States",37.35394665,-79.1531533219339
University of Lynchburg,Lynchburg,VA,Protestant,51.68,53.47,95.99,69.775,"University of Lynchburg, Lynchburg, VA","University of Lynchburg, Lakeside Drive, Lakeside, Lynchburg, Virginia, 24501, United States",37.398742850000005,-79.18404787841646
Bethany College,Bethany,WV,Protestant,30.68,38.48,48.8,39.492,"Bethany College, Bethany, WV","Bethany College, College Street, Bethany, Wellsburg District, Brooke County, West Virginia, 26032, United States",40.20580445,-80.56165856727861
Mid-South Christian College,Memphis,TN,Protestant,24.07,39.01,51.64,38.091,"Mid-South Christian College, Memphis, TN","Mid-South Christian College, Knightway Street, Parkway Village, Memphis, Shelby County, West Tennessee, Tennessee, 38118, United States",35.064191,-89.911893
Savannah College of Art and Design,Savannah,GA,Roman Catholic,99.87,85.18,51.87,77.721,"Savannah College of Art and Design, Savannah, GA","Savannah College of Art and Design, 3121, Barnard Street, Savannah Historic District, Savannah, Chatham County, Georgia, 31401, United States",32.07776915,-81.10099365718662
D'Youville  University,Buffalo,NY,Roman Catholic,33.69,47.77,49.4,42.792,"D'Youville  University, Buffalo, NY","D'Youville University, Osborne Alley, Buffalo, Erie County, New York, 14201, United States",42.902835800000005,-78.8910200854379
Marist College,Poughkeepsie,NY,Roman Catholic,77.76,60.3,49.88,63.111,"Marist College, Poughkeepsie, NY","Marist College, Fairview, Town of Poughkeepsie, Dutchess County, New York, United States",41.722007000000005,-73.93438356318902
Marymount Manhattan College,New York,NY,Roman Catholic,46.81,42.23,49.12,46.82,"Marymount Manhattan College, New York, NY","Marymount Manhattan College, East 71st Street, Lenox Hill, Manhattan Community Board 8, Manhattan, New York County, City of New York, New York, 10021, United States",40.76893065,-73.959696351204
Mercy University,Dobbs Ferry,NY,Roman Catholic,74.12,66.02,50.32,62.974,"Mercy University, Dobbs Ferry, NY","Mercy University, Hudson Drive, Village of Dobbs Ferry, Town of Greenburgh, Westchester County, New York, 10522, United States",41.02156265,-73.87446425294797
St. Francis College,Brooklyn,NY,Roman Catholic,46.89,44.91,48.21,47.023,"St. Francis College, Brooklyn, NY","Saint Francis College, Remsen Street, Downtown Brooklyn, Brooklyn, Kings County, City of New York, New York, 11201, United States",40.6930666,-73.99220306902977
St. Joseph's University-New York,Brooklyn,NY,Roman Catholic,50.84,52.87,49.12,50.557,"St. Joseph's University-New York, Brooklyn, NY","St. Joseph's University, Washington Avenue, Clinton Hill, Brooklyn, Kings County, City of New York, New York, 11205, United States",40.69042755,-73.96777524013841
Washington & Jefferson College,Washington,PA,Roman Catholic,36.35,41.1,50.36,42.907,"Washington & Jefferson College, Washington, PA","Washington & Jefferson College, North Avenue, Washington, Washington County, Pennsylvania, 15301, United States",40.1719209,-80.24134964025063
Spring Hill College,Mobile,AL,Roman CatholicÂ Â Â Â Â Â Â Â Â Â Â Â Â Â  ,33.91,41.76,47.85,41.059,"Spring Hill College, Mobile, AL","Spring Hill College, Loyola Lane, Spring Hill, Mobile, Mobile County, Alabama, 36608, United States",30.6920656,-88.13570396556952
Mount Saint Mary's University,Los Angeles,CA,Roman CatholicÂ Â Â Â Â Â Â Â Â Â Â Â Â Â  ,58.0,46.14,50.92,52.796,"Mount Saint Mary's University, Los Angeles, CA","Mount Saint Mary's University, Mount Saint Mary's Fire Road, Los Angeles, Los Angeles County, California, 90049, United States",34.085220050000004,-118.48246863055016
Santa Clara University,Santa Clara,CA,Roman CatholicÂ Â Â Â Â Â Â Â Â Â Â Â Â Â  ,98.2,70.88,51.2,73.927,"Santa Clara University, Santa Clara, CA","Santa Clara University, 500, El Camino Real, Santa Clara, Santa Clara County, California, 95053, United States",37.3486243,-121.93654400537928
Regis University,Denver,CO,Roman CatholicÂ Â Â Â Â Â Â Â Â Â Â Â Â Â  ,52.31,50.2,48.96,50.547,"Regis University, Denver, CO","Regis University, 3333, Regis Boulevard, Regis, Denver, Colorado, 80221, United States",39.789711100000005,-105.0313694671746
Albertus Magnus College,New Haven,CT,Roman CatholicÂ Â Â Â Â Â Â Â Â Â Â Â Â Â  ,36.66,41.06,48.84,42.415,"Albertus Magnus College, New Haven, CT","Albertus Magnus College, 700, Prospect Street, Prospect Hill Historic District, New Haven, Connecticut, 06511, United States",41.332772,-72.92254564135219
Fairfield University,Fairfield,CT,Roman CatholicÂ Â Â Â Â Â Â Â Â Â Â Â Â Â  ,99.39,61.26,49.96,71.985,"Fairfield University, Fairfield, CT","Fairfield University, 1073, North Benson Road, Fairfield, Greater Bridgeport Planning Region, Connecticut, 06824, United States",41.15967565,-73.25740310197213
Holy Apostles College and Seminary,Cromwell,CT,Roman CatholicÂ Â Â Â Â Â Â Â Â Â Â Â Â Â  ,24.83,40.98,54.22,39.822,"Holy Apostles College and Seminary, Cromwell, CT","Holy Apostles College and Seminary, 33, Prospect Hill Road, North Cromwell, Cromwell, Lower Connecticut River Valley Planning Region, Connecticut, 06416, United States",41.6061767,-72.64540399602825
Sacred Heart University,Fairfield,CT,Roman CatholicÂ Â Â Â Â Â Â Â Â Â Â Â Â Â  ,99.87,81.43,49.76,76.127,"Sacred Heart University, Fairfield, CT","Sacred Heart University, 5151, Park Avenue, Fairfield, Greater Bridgeport Planning Region, Connecticut, 06825, United States",41.22259745,-73.24446729633347
University of Saint Joseph,West Hartford,CT,Roman CatholicÂ Â Â Â Â Â Â Â Â Â Â Â Â Â  ,36.58,47.65,49.28,43.876,"University of Saint Joseph, West Hartford, CT","University of Saint Joseph, 1678, Asylum Avenue, West Hartford, Capitol Planning Region, Connecticut, 06117, United States",41.7825213,-72.73120656750822
Barry University,Miami,FL,Roman CatholicÂ Â Â Â Â Â Â Â Â Â Â Â Â Â  ,58.59,57.14,48.92,54.429,"Barry University, Miami, FL","Barry University, 11300, Northeast 2nd Avenue, Miami Shores, Miami-Dade County, Florida, 33161, United States",25.8790289,-80.20151680720551
Saint Leo University,Saint Leo,FL,Roman CatholicÂ Â Â Â Â Â Â Â Â Â Â Â Â Â  ,81.59,55.49,48.96,63.313,"Saint Leo University, Saint Leo, FL","Saint Leo University, 33701, Mc Mullen Drive, Saint Leo, Pasco County, Florida, 33574, United States",28.3385394,-82.25807054363955
St. Thomas University,Miami Gardens,FL,Roman CatholicÂ Â Â Â Â Â Â Â Â Â Â Â Â Â  ,71.46,52.39,49.32,58.787,"St. Thomas University, Miami Gardens, FL","Saint Thomas University, Northwest 166th Street, Miami Gardens, Miami-Dade County, Florida, 33054, United States",25.92128605,-80.2564809131741
Chaminade University of Honolulu,Honolulu,HI,Roman CatholicÂ Â Â Â Â Â Â Â Â Â Â Â Â Â  ,42.07,44.95,49.36,45.564,"Chaminade University of Honolulu, Honolulu, HI","Chaminade University, Keanu Street, KaimukÄ«, East Honolulu, Honolulu, Honolulu County, Hawaii, 96186, United States",21.29026655,-157.80734776364193
DePaul University,Chicago,IL,Roman CatholicÂ Â Â Â Â Â Â Â Â Â Â Â Â Â  ,99.87,93.54,50.48,78.834,"DePaul University, Chicago, IL","DePaul University, West Fullerton Avenue, Sheffield Neighbors, Lincoln Park, Chicago, Cook County, Illinois, 60614, United States",41.9245803,-87.65072230067958
Benedictine University,Lisle,IL,Roman CatholicÂ Â Â Â Â Â Â Â Â Â Â Â Â Â  ,42.62,50.4,48.92,46.696,"Benedictine University, Lisle, IL","Benedictine University, 5700, College Road, Lisle, DuPage County, Illinois, 60532, United States",41.777997600000006,-88.09699355549967
Lewis University,Romeoville,IL,Roman CatholicÂ Â Â Â Â Â Â Â Â Â Â Â Â Â  ,56.79,64.65,49.4,55.402,"Lewis University, Romeoville, IL","Lewis University, Lot X, Romeoville, Will County, Illinois, 60446, United States",41.60277235,-88.08221382800252
Loyola University Chicago,Chicago,IL,Roman CatholicÂ Â Â Â Â Â Â Â Â Â Â Â Â Â  ,99.87,93.46,58.82,82.157,"Loyola University Chicago, Chicago, IL","Loyola University Chicago, 1032, West Sheridan Road, Edgewater Glen, Rogers Park, Chicago, Rogers Park Township, Cook County, Illinois, 60660, United States",41.999149200000005,-87.65737041681818
Quincy University,Quincy,IL,Roman CatholicÂ Â Â Â Â Â Â Â Â Â Â Â Â Â  ,44.55,40.48,48.17,45.186,"Quincy University, Quincy, IL","Quincy University, Highland Drive, Quincy, Adams County, Illinois, 62301, United States",39.95544185,-91.38969180343577
Dominican University,River Forest,IL,Roman CatholicÂ Â Â Â Â Â Â Â Â Â Â Â Â Â  ,78.26,47.01,49.88,60.656,"Dominican University, River Forest, IL","Dominican University, 7900, Division Street, River Forest, Cook County, Illinois, 60305, United States",41.90289665,-87.82262656814642
University of St Francis,Joliet,IL,Roman CatholicÂ Â Â Â Â Â Â Â Â Â Â Â Â Â  ,34.42,51.12,49.16,43.657,"University of St Francis, Joliet, IL","University of St. Francis, Plainfield Road, Joliet, Will County, Illinois, 60434, United States",41.53393125,-88.09735128052655
Saint Xavier University,Chicago,IL,Roman CatholicÂ Â Â Â Â Â Â Â Â Â Â Â Â Â  ,64.36,49.2,42.47,52.568,"Saint Xavier University, Chicago, IL","Saint Xavier University, 3700, West 103rd Street, Mount Greenwood, Chicago, Lake Township, Cook County, Illinois, 60655, United States",41.70792405,-87.71463117997662
Calumet College of Saint Joseph,Whiting,IN,Roman CatholicÂ Â Â Â Â Â Â Â Â Â Â Â Â Â  ,34.2,38.29,48.68,40.814,"Calumet College of Saint Joseph, Whiting, IN","Calumet College of Saint Joseph, 2400, New York Avenue, Whiting, North Township, Lake County, Indiana, 46394, United States",41.6711327,-87.49426730404375
Holy Cross College,Notre Dame,IN,Roman CatholicÂ Â Â Â Â Â Â Â Â Â Â Â Â Â  ,40.05,39.13,49.44,43.625,"Holy Cross College, Notre Dame, IN","Holy Cross College, Holy Cross Parkway, South Bend, Saint Joseph County, Indiana, 46624, United States",41.6980783,-86.25322329862374
Marian University,Indianapolis,IN,Roman CatholicÂ Â Â Â Â Â Â Â Â Â Â Â Â Â  ,77.64,52.75,49.2,61.282,"Marian University, Indianapolis, IN","Marian University, 3200, Cold Spring Road, Brooklyn Heights, Indianapolis, Marion County, Indiana, 46222, United States",39.8118912,-86.20426576405468
University of Notre Dame,Notre Dame,IN,Roman CatholicÂ Â Â Â Â Â Â Â Â Â Â Â Â Â  ,99.87,85.01,57.06,79.764,"University of Notre Dame, Notre Dame, IN","University of Notre Dame du Lac, Ironwood Road, Maple Lane, Notre Dame, Saint Joseph County, Indiana, 46556, United States",41.70456775,-86.23822026017265
University of Saint Francis-Fort Wayne,Fort Wayne,IN,Roman CatholicÂ Â Â Â Â Â Â Â Â Â Â Â Â Â  ,51.87,46.14,49.84,49.913,"University of Saint Francis-Fort Wayne, Fort Wayne, IN","University of Saint Francis, 2701, Spring Street, Fort Wayne, Allen County, Indiana, 46808, United States",41.08693075,-85.17898051025168
Saint Mary-of-the-Woods College,Saint Mary of the Woods,IN,Roman CatholicÂ Â Â Â Â Â Â Â Â Â Â Â Â Â  ,41.92,41.53,48.09,44.312,"Saint Mary-of-the-Woods College, Saint Mary of the Woods, IN","Saint Mary-of-the-Woods College, Saint Marys Road, Saint Mary-of-the-Woods, Vigo County, Indiana, 47876, United States",39.509411,-87.45979483919632
Saint Mary's College,Notre Dame,IN,Roman CatholicÂ Â Â Â Â Â Â Â Â Â Â Â Â Â  ,55.09,42.9,52.47,51.606,"Saint Mary's College, Notre Dame, IN","Saint Mary's College, Holy Cross Circle, Notre Dame, Saint Joseph County, Indiana, 46624, United States",41.70747445,-86.25628011081898
Briar Cliff University,Sioux City,IA,Roman CatholicÂ Â Â Â Â Â Â Â Â Â Â Â Â Â  ,30.78,40.32,49.12,40.028,"Briar Cliff University, Sioux City, IA","Briar Cliff University, Broken Kettle Road, Sioux City, Woodbury County, Iowa, 51104, United States",42.52670705,-96.42835954012573
Clarke University,Dubuque,IA,Roman CatholicÂ Â Â Â Â Â Â Â Â Â Â Â Â Â  ,33.18,39.94,50.0,41.264,"Clarke University, Dubuque, IA","Clarke University, Clarke Drive, College Grandview District, Dubuque, Dubuque County, Iowa, 52001, United States",42.50961785,-90.69069442289413
Loras College,Dubuque,IA,Roman CatholicÂ Â Â Â Â Â Â Â Â Â Â Â Â Â  ,31.92,41.88,47.49,40.143,"Loras College, Dubuque, IA","Loras College, Catherine Street, Valley View, Dubuque, Dubuque County, Iowa, 52001, United States",42.50504945,-90.67885577552974
Mount Mercy University,Cedar Rapids,IA,Roman CatholicÂ Â Â Â Â Â Â Â Â Â Â Â Â Â  ,31.81,43.49,52.19,42.302,"Mount Mercy University, Cedar Rapids, IA","Mount Mercy University, Longwood Drive Northeast, Clarendon Hills, Cedar Rapids, Linn County, Iowa, 52402, United States",42.002593000000005,-91.65196889140891
Benedictine College,Atchison,KS,Roman CatholicÂ Â Â Â Â Â Â Â Â Â Â Â Â Â  ,51.75,43.92,50.0,49.485,"Benedictine College, Atchison, KS","Benedictine College, 1020, North 2nd Street, Atchison, Atchison County, Kansas, 66002, United States",39.57489275,-95.11379211168315
Donnelly College,Kansas City,KS,Roman CatholicÂ Â Â Â Â Â Â Â Â Â Â Â Â Â  ,25.11,39.05,50.16,37.923,"Donnelly College, Kansas City, KS","Donnelly College, Barnett Avenue, West Lawn, Westheight, Kansas City, Wyandotte County, Kansas, 66102, United States",39.1126406,-94.6509576554054
Newman University,Wichita,KS,Roman CatholicÂ Â Â Â Â Â Â Â Â Â Â Â Â Â  ,29.36,41.29,50.08,40.038,"Newman University, Wichita, KS","Newman University, South Gordon, Wichita, Sedgwick County, Kansas, 67213, United States",37.67176205,-97.3791849298535
University of Saint Mary,Leavenworth,KS,Roman CatholicÂ Â Â Â Â Â Â Â Â Â Â Â Â Â  ,34.09,41.18,51.36,42.42,"University of Saint Mary, Leavenworth, KS","University of Saint Mary, 4100, South 4th Street, Wadsworth, Leavenworth, Leavenworth County, Kansas, 66048, United States",39.2778813,-94.90448801998753
Bellarmine University,Louisville,KY,Roman CatholicÂ Â Â Â Â Â Â Â Â Â Â Â Â Â  ,52.27,49.36,50.28,50.892,"Bellarmine University, Louisville, KY","Bellarmine University, 2001, Newburg Road, Highlands, Louisville, Jefferson County, Kentucky, 40205, United States",38.2187504,-85.70584113751073
Brescia University,Owensboro,KY,Roman CatholicÂ Â Â Â Â Â Â Â Â Â Â Â Â Â  ,27.56,40.87,49.28,38.914,"Brescia University, Owensboro, KY","Brescia University, Saint Ann Street, Owensboro, Daviess County, Kentucky, 42303, United States",37.7683615,-87.11177799671128
Spalding University,Louisville,KY,Roman CatholicÂ Â Â Â Â Â Â Â Â Â Â Â Â Â  ,28.26,44.16,50.0,40.139,"Spalding University, Louisville, KY","Spalding University, Library Lane, Louisville, Jefferson County, Kentucky, 40203, United States",38.24240815,-85.75856192110415
Thomas More University,Crestview Hills,KY,Roman CatholicÂ Â Â Â Â Â Â Â Â Â Â Â Â Â  ,43.05,42.94,49.28,45.522,"Thomas More University, Crestview Hills, KY","Thomas More University, Turkeyfoot Road, Crestview Hills, Kenton County, Kentucky, 41017, United States",39.02091849999999,-84.56769555987898
Loyola University New Orleans,New Orleans,LA,Roman CatholicÂ Â Â Â Â Â Â Â Â Â Â Â Â Â  ,57.06,49.96,49.0,52.415,"Loyola University New Orleans, New Orleans, LA","Loyola University New Orleans, Saint Charles Avenue, Black Pearl, Greenville, New Orleans, Orleans Parish, Louisiana, 70118, United States",29.9356364,-90.12045155517568
University of Holy Cross,New Orleans,LA,Roman CatholicÂ Â Â Â Â Â Â Â Â Â Â Â Â Â  ,24.04,39.78,50.68,37.849,"University of Holy Cross, New Orleans, LA","University of Holy Cross, Woodland Drive, Aurora Gardens, New Orleans, Orleans Parish, Louisiana, 70131, United States",29.91198085,-89.99629395173727
Franciscan Missionaries of Our Lady University,Baton Rouge,LA,Roman CatholicÂ Â Â Â Â Â Â Â Â Â Â Â Â Â  ,25.59,40.71,49.0,37.982,"Franciscan Missionaries of Our Lady University, Baton Rouge, LA","Franciscan Missionaries of Our Lady University, Brittany Drive, Silverside, Baton Rouge, East Baton Rouge Parish, Louisiana, 70836, United States",30.40067515,-91.10924666026298
Xavier University of Louisiana,New Orleans,LA,Roman CatholicÂ Â Â Â Â Â Â Â Â Â Â Â Â Â  ,44.71,47.13,50.36,47.455,"Xavier University of Louisiana, New Orleans, LA","Xavier University of Louisiana, 1, Drexel Drive, Hollygrove, New Orleans, Orleans Parish, Louisiana, 70135, United States",29.9638897,-90.10922358519306
Loyola University Maryland,Baltimore,MD,Roman CatholicÂ Â Â Â Â Â Â Â Â Â Â Â Â Â  ,98.03,56.04,49.88,70.366,"Loyola University Maryland, Baltimore, MD","Loyola University Maryland, 4501, North Charles Street, Guilford, Greater Roland Park, Baltimore, Maryland, 21210, United States",39.34835375,-76.61593184876489
Mount St. Mary's University,Emmitsburg,MD,Roman CatholicÂ Â Â Â Â Â Â Â Â Â Â Â Â Â  ,62.02,45.46,49.2,53.579,"Mount St. Mary's University, Emmitsburg, MD","Mount Saint Mary's University, 16300, Old Emmitsburg Road, Emmitsburg, Frederick County, Maryland, 21727, United States",39.68056055,-77.3465509414935
Notre Dame of Maryland University,Baltimore,MD,Roman CatholicÂ Â Â Â Â Â Â Â Â Â Â Â Â Â  ,30.01,43.88,51.0,41.184,"Notre Dame of Maryland University, Baltimore, MD","Notre Dame of Maryland University, 4701, North Charles Street, Loyola/Notre Dame, Greater Roland Park, Baltimore, Maryland, 21210, United States",39.3514279,-76.61940070192435
Anna Maria College,Paxton,MA,Roman CatholicÂ Â Â Â Â Â Â Â Â Â Â Â Â Â  ,40.56,43.8,47.45,43.965,"Anna Maria College, Paxton, MA","Anna Maria College, Grove Street, Paxton, Worcester County, Massachusetts, 01612, United States",42.33036785,-71.91972779440366
Assumption University,Worcester,MA,Roman CatholicÂ Â Â Â Â Â Â Â Â Â Â Â Â Â  ,39.09,46.06,49.84,44.786,"Assumption University, Worcester, MA","Assumption University, Oak Hill Road, Salisbury Heights, Worcester, Worcester County, Massachusetts, 01602, United States",42.2953528,-71.82964377400714
Boston College,Chestnut Hill,MA,Roman CatholicÂ Â Â Â Â Â Â Â Â Â Â Â Â Â  ,99.06,86.37,51.12,77.334,"Boston College, Chestnut Hill, MA","Boston College, Commonwealth Avenue, Chestnut Hill, Newton, Middlesex County, Massachusetts, 02135, United States",42.3401702,-71.167045
Emmanuel College,Boston,MA,Roman CatholicÂ Â Â Â Â Â Â Â Â Â Â Â Â Â  ,48.05,43.88,49.0,47.597,"Emmanuel College, Boston, MA","Emmanuel College, Brookline Avenue, Audubon Circle, Fenway-Kenmore, Boston, Suffolk County, Massachusetts, 02215, United States",42.340684800000005,-71.1029058793161
College of the Holy Cross,Worcester,MA,Roman CatholicÂ Â Â Â Â Â Â Â Â Â Â Â Â Â  ,64.84,48.29,53.51,56.998,"College of the Holy Cross, Worcester, MA","College of the Holy Cross, 1, College Street, College Hill, Worcester, Worcester County, Massachusetts, 01610, United States",42.23668645,-71.80702483708313
Merrimack College,North Andover,MA,Roman CatholicÂ Â Â Â Â Â Â Â Â Â Â Â Â Â  ,78.35,64.99,48.64,63.788,"Merrimack College, North Andover, MA","Merrimack College, Royal Crest Drive, North Andover, Essex County, Massachusetts, 01845, United States",42.66688065,-71.12292177692487
College of Our Lady of the Elms,Chicopee,MA,Roman CatholicÂ Â Â Â Â Â Â Â Â Â Â Â Â Â  ,31.81,43.49,49.68,41.297,"College of Our Lady of the Elms, Chicopee, MA","Elms College, 291, Springfield Street, The Commons, Sandy Hill, Chicopee, Hampden County, Massachusetts, 01013, United States",42.14190105,-72.60042300750956
Regis College,Weston,MA,Roman CatholicÂ Â Â Â Â Â Â Â Â Â Â Â Â Â  ,31.81,58.82,48.56,43.912,"Regis College, Weston, MA","Regis College, 235, Wellesley Street, Weston, Middlesex County, Massachusetts, 02493, United States",42.3506516,-71.30852442998884
Stonehill College,Easton,MA,Roman CatholicÂ Â Â Â Â Â Â Â Â Â Â Â Â Â  ,56.0,45.66,50.24,51.628,"Stonehill College, Easton, MA","Stonehill College, 320, Washington Street, Daley Corner, North Easton, Easton, Bristol County, Massachusetts, 02357, United States",42.05997765,-71.07932570575417
Aquinas College,Grand Rapids,MI,Roman CatholicÂ Â Â Â Â Â Â Â Â Â Â Â Â Â  ,38.59,41.18,48.8,43.195,"Aquinas College, Grand Rapids, MI","Aquinas College, 1700, Fulton Street East, Grand Rapids, Kent County, Michigan, 49506, United States",42.9597531,-85.62498744066667
University of Detroit Mercy,Detroit,MI,Roman CatholicÂ Â Â Â Â Â Â Â Â Â Â Â Â Â  ,52.99,56.55,49.84,52.44,"University of Detroit Mercy, Detroit, MI","University of Detroit Mercy, 4001, West McNichols Road, Detroit, Wayne County, Michigan, 48221, United States",42.41403185,-83.13786010722785
Madonna University,Livonia,MI,Roman CatholicÂ Â Â Â Â Â Â Â Â Â Â Â Â Â  ,38.74,44.63,49.16,44.088,"Madonna University, Livonia, MI","Madonna University, Newburgh Road, Livonia, Wayne County, Michigan, 48152, United States",42.3911354,-83.41034131285153
Siena Heights University,Adrian,MI,Roman CatholicÂ Â Â Â Â Â Â Â Â Â Â Â Â Â  ,38.9,43.68,48.44,43.674,"Siena Heights University, Adrian, MI","Siena Heights University, 1247, East Siena Heights Drive, Adrian, Adrian Township, Lenawee County, Michigan, 49221, United States",41.9062844,-84.01796520279541
College of Saint Benedict,Saint Joseph,MN,Roman CatholicÂ Â Â Â Â Â Â Â Â Â Â Â Â Â  ,43.76,42.47,51.32,46.529,"College of Saint Benedict, Saint Joseph, MN","College of Saint Benedict, Able Street East, Saint Joseph, Stearns County, Minnesota, 56374, United States",45.5594818,-94.3182962882594
Saint Mary's University of Minnesota,Winona,MN,Roman CatholicÂ Â Â Â Â Â Â Â Â Â Â Â Â Â  ,37.3,57.65,50.56,46.674,"Saint Mary's University of Minnesota, Winona, MN","Saint Mary's University of Minnesota, US 14, Winona, Winona County, Minnesota, 55987, United States",44.04534085,-91.69518768969844
University of St Thomas,Saint Paul,MN,Roman CatholicÂ Â Â Â Â Â Â Â Â Â Â Â Â Â  ,97.79,71.87,50.04,73.497,"University of St Thomas, Saint Paul, MN","University of St. Thomas, Lincoln Avenue, Macalester - Groveland, Saint Paul, Ramsey County, Minnesota, 55105, United States",44.94210585,-93.1894521972007
St Catherine University,Saint Paul,MN,Roman CatholicÂ Â Â Â Â Â Â Â Â Â Â Â Â Â  ,45.78,54.02,49.4,48.875,"St Catherine University, Saint Paul, MN","St. Catherine University, Hartford Avenue, Highland, Saint Paul, Ramsey County, Minnesota, 55116, United States",44.924437,-93.18228844466312
Avila University,Kansas City,MO,Roman CatholicÂ Â Â Â Â Â Â Â Â Â Â Â Â Â  ,57.53,41.49,49.04,50.927,"Avila University, Kansas City, MO","Avila University, 11901, Wornall Road, Martin City, Kansas City, Jackson County, Missouri, 64145, United States",38.91232935,-94.59156294743664
Fontbonne University,Saint Louis,MO,Roman CatholicÂ Â Â Â Â Â Â Â Â Â Â Â Â Â  ,30.22,38.44,48.48,39.172,"Fontbonne University, Saint Louis, MO","Fontbonne University, Forest Ridge Place, Forest Ridge, Clayton, Saint Louis County, Missouri, 63105, United States",38.6416544,-90.31570077006862
Rockhurst University,Kansas City,MO,Roman CatholicÂ Â Â Â Â Â Â Â Â Â Â Â Â Â  ,34.24,52.55,48.01,43.41,"Rockhurst University, Kansas City, MO","Rockhurst University, 1100, Rockhurst Road, Blue Hills, Kansas City, Jackson County, Missouri, 64110, United States",39.03081885,-94.57067504464628
Saint Louis University,Saint Louis,MO,Roman CatholicÂ Â Â Â Â Â Â Â Â Â Â Â Â Â  ,94.06,76.55,50.52,73.132,"Saint Louis University, Saint Louis, MO","Saint Louis University, 1, North Grand Boulevard, Midtown, Saint Louis, Missouri, 63103, United States",38.635359,-90.23184326838911
Carroll College,Helena,MT,Roman CatholicÂ Â Â Â Â Â Â Â Â Â Â Â Â Â  ,34.42,41.22,62.36,46.963,"Carroll College, Helena, MT","Carroll College, Hunthausen Way, Mansion District, Helena, Lewis and Clark County, Montana, 59625, United States",46.6018191,-112.03850105825792
University of Providence,Great Falls,MT,Roman CatholicÂ Â Â Â Â Â Â Â Â Â Â Â Â Â  ,27.33,44.87,49.12,39.557,"University of Providence, Great Falls, MT","University of Providence, 14th Avenue South, Sunnyside, Great Falls, Cascade County, Montana, 59405, United States",47.49109975,-111.27046328910876
Creighton University,Omaha,NE,Roman CatholicÂ Â Â Â Â Â Â Â Â Â Â Â Â Â  ,79.84,71.09,52.11,66.991,"Creighton University, Omaha, NE","Creighton University, North 20th Street, Omaha, Douglas County, Nebraska, 68110, United States",41.26585655,-95.94505553516464
College of Saint Mary,Omaha,NE,Roman CatholicÂ Â Â Â Â Â Â Â Â Â Â Â Â Â  ,27.19,42.19,54.18,40.991,"College of Saint Mary, Omaha, NE","College of Saint Mary, 7000, Mercy Road, Aksarben Village, Omaha, Douglas County, Nebraska, 68124, United States",41.2409476,-96.02117078134732
Rivier University,Nashua,NH,Roman CatholicÂ Â Â Â Â Â Â Â Â Â Â Â Â Â  ,33.54,45.5,49.56,42.342,"Rivier University, Nashua, NH","Rivier University, Daniel Webster Highway, Ward 7, Nashua, Hillsborough County, New Hampshire, 03060, United States",42.7391231,-71.45465518109557
Saint Anselm College,Manchester,NH,Roman CatholicÂ Â Â Â Â Â Â Â Â Â Â Â Â Â  ,42.03,44.51,50.52,45.924,"Saint Anselm College, Manchester, NH","Saint Anselm College, Arline Street, Manchester, Hillsborough County, New Hampshire, 03102, United States",42.98451975,-71.50800622385864
Thomas More College of Liberal Arts,Merrimack,NH,Roman CatholicÂ Â Â Â Â Â Â Â Â Â Â Â Â Â  ,24.7,38.94,50.48,37.865,"Thomas More College of Liberal Arts, Merrimack, NH","Thomas More College of Liberal Arts, Daniel Webster Highway, Merrimack, Hillsborough County, New Hampshire, 03064, United States",42.8067883,-71.48317304223559
Caldwell University,Caldwell,NJ,Roman CatholicÂ Â Â Â Â Â Â Â Â Â Â Â Â Â  ,43.68,43.57,48.56,45.611,"Caldwell University, Caldwell, NJ","Caldwell University, 120, Bloomfield Avenue, Caldwell, Essex County, New Jersey, 07006, United States",40.83390785,-74.27132972676327
Felician University,Lodi,NJ,Roman CatholicÂ Â Â Â Â Â Â Â Â Â Â Â Â Â  ,43.49,45.14,48.84,45.961,"Felician University, Lodi, NJ","Felician University, 262, South Main Street, Lodi, Bergen County, New Jersey, 07644, United States",40.8664885,-74.0926419
Georgian Court University,Lakewood,NJ,Roman CatholicÂ Â Â Â Â Â Â Â Â Â Â Â Â Â  ,34.46,45.9,48.92,42.534,"Georgian Court University, Lakewood, NJ","Georgian Court University, Lakewood Avenue, A Country Place, Lakewood Township, Ocean County, New Jersey, 08701, United States",40.0981853,-74.22820003536859
Saint Peter's University,Jersey City,NJ,Roman CatholicÂ Â Â Â Â Â Â Â Â Â Â Â Â Â  ,54.97,49.48,48.72,51.371,"Saint Peter's University, Jersey City, NJ","St. Peter's University, John F. Kennedy Boulevard, McGinley Square, Bergen Square, Jersey City, Hudson County, New Jersey, 07306, United States",40.727624500000005,-74.07216785370294
Seton Hall University,South Orange,NJ,Roman CatholicÂ Â Â Â Â Â Â Â Â Â Â Â Â Â  ,96.81,71.46,49.08,72.639,"Seton Hall University, South Orange, NJ","Saint Andrew's Hall - Seton Hall University College Seminary, 571, Centre Street, South Orange, Essex County, New Jersey, 07079, United States",40.75201795,-74.23952913701487
Canisius University,Buffalo,NY,Roman CatholicÂ Â Â Â Â Â Â Â Â Â Â Â Â Â  ,40.67,42.82,50.64,45.091,"Canisius University, Buffalo, NY","Canisius University, Spillman Place, Buffalo, Erie County, New York, 14208, United States",42.92180235,-78.86104023134388
Fordham University,Bronx,NY,Roman CatholicÂ Â Â Â Â Â Â Â Â Â Â Â Â Â  ,99.21,93.94,49.36,78.202,"Fordham University, Bronx, NY","Fordham University, 441, East Fordham Road, Belmont, The Bronx, City of New York, New York, 10458, United States",40.861734350000006,-73.88603169298054
Hilbert College,Hamburg,NY,Roman CatholicÂ Â Â Â Â Â Â Â Â Â Â Â Â Â  ,36.02,39.4,48.32,41.619,"Hilbert College, Hamburg, NY","Hilbert College, Morlock Avenue, Town of Hamburg, Erie County, New York, 14075, United States",42.7567258,-78.8225324
Iona University,New Rochelle,NY,Roman CatholicÂ Â Â Â Â Â Â Â Â Â Â Â Â Â  ,55.25,48.76,49.8,51.772,"Iona University, New Rochelle, NY","Iona University, 715;45, Schley Avenue, Rochelle Heights, Beechmont, City of New Rochelle, Westchester County, New York, 10801, United States",40.92723049999999,-73.78569089605243
Le Moyne College,Syracuse,NY,Roman CatholicÂ Â Â Â Â Â Â Â Â Â Â Â Â Â  ,49.88,50.32,50.08,50.048,"Le Moyne College, Syracuse, NY","Le Moyne College, 1419, Salt Springs Road, City of Syracuse, Onondaga County, New York, 13214, United States",43.04834115,-76.08517610832246
Maria College of Albany,Albany,NY,Roman CatholicÂ Â Â Â Â Â Â Â Â Â Â Â Â Â  ,24.92,41.02,48.32,37.504,"Maria College of Albany, Albany, NY","Maria College, 700, New Scotland Avenue, City of Albany, Albany County, New York, 12208, United States",42.65769465,-73.80656156364773
Mount Saint Mary College,Newburgh,NY,Roman CatholicÂ Â Â Â Â Â Â Â Â Â Â Â Â Â  ,24.57,42.43,50.56,38.542,"Mount Saint Mary College, Newburgh, NY","Mount Saint Mary College, Willett Avenue, City of Newburgh, Orange County, New York, 12550, United States",41.5118052,-74.01293211677414
University of Mount Saint Vincent,Bronx,NY,Roman CatholicÂ Â Â Â Â Â Â Â Â Â Â Â Â Â  ,44.71,58.12,49.0,49.107,"University of Mount Saint Vincent, Bronx, NY","College of Mount Saint Vincent, 6301, Riverdale Avenue, The Bronx, Bronx County, City of New York, New York, 10471, United States",40.91285705,-73.9069680173387
Niagara University,Niagara University,NY,Roman CatholicÂ Â Â Â Â Â Â Â Â Â Â Â Â Â  ,49.24,52.35,49.44,49.941,"Niagara University, Niagara University, NY","Niagara University Campus Safety Office, 9, University Drive, Town of Lewiston, Niagara County, New York, 14109, United States",43.135814,-79.0349219
Siena College,Loudonville,NY,Roman CatholicÂ Â Â Â Â Â Â Â Â Â Â Â Â Â  ,65.25,48.64,50.44,56.003,"Siena College, Loudonville, NY","Siena College, Newtonville, Loudonville, Town of Colonie, Albany County, New York, United States",42.7192659,-73.7511920123242
St. John Fisher University,Rochester,NY,Roman CatholicÂ Â Â Â Â Â Â Â Â Â Â Â Â Â  ,50.64,49.32,50.76,50.424,"St. John Fisher University, Rochester, NY","St. John Fisher University, 3690, East Avenue, City of Rochester, Monroe County, New York, 14618, United States",43.11506305,-77.51043167191582
St. John's University-New York,Queens,NY,Roman CatholicÂ Â Â Â Â Â Â Â Â Â Â Â Â Â  ,98.57,86.52,49.6,76.56,"St. John's University-New York, Queens, NY","St. John's University, Union Turnpike, Utopia, Queens, Queens County, City of New York, New York, 11366, United States",40.7255421,-73.7919066
Trocaire College,Buffalo,NY,Roman CatholicÂ Â Â Â Â Â Â Â Â Â Â Â Â Â  ,23.85,42.94,63.38,43.488,"Trocaire College, Buffalo, NY","Trocaire College, 360, Choate Avenue East, Buffalo, Erie County, New York, 14220, United States",42.8467327,-78.8127639
Belmont Abbey College,Belmont,NC,Roman CatholicÂ Â Â Â Â Â Â Â Â Â Â Â Â Â  ,52.91,40.98,48.4,48.721,"Belmont Abbey College, Belmont, NC","Belmont Abbey College, 100, Belmont Mount Holly Road, Belmont, Gaston County, North Carolina, 28012, United States",35.261345500000004,-81.03635899466433
University of Mary,Bismarck,ND,Roman CatholicÂ Â Â Â Â Â Â Â Â Â Â Â Â Â  ,43.25,53.7,50.12,48.088,"University of Mary, Bismarck, ND","University of Mary, 7500, University Drive, Bismarck, Burleigh County, North Dakota, 58504, United States",46.72486905,-100.7516229007192
University of Dayton,Dayton,OH,Roman CatholicÂ Â Â Â Â Â Â Â Â Â Â Â Â Â  ,89.45,80.51,50.04,71.888,"University of Dayton, Dayton, OH","University of Dayton, Beckman Street, Walnut Hills, Dayton, Montgomery County, Ohio, 45410, United States",39.73845985,-84.17919478013708
John Carroll University,University Heights,OH,Roman CatholicÂ Â Â Â Â Â Â Â Â Â Â Â Â Â  ,37.22,49.76,50.32,44.969,"John Carroll University, University Heights, OH","John Carroll University, Miramar Boulevard, Bexley Park, University Heights, Cuyahoga County, Ohio, 44118, United States",41.49038105,-81.52875868134805
Lourdes University,Sylvania,OH,Roman CatholicÂ Â Â Â Â Â Â Â Â Â Â Â Â Â  ,27.19,40.67,48.32,38.342,"Lourdes University, Sylvania, OH","Lourdes University, Sleepy Hollow cut through, Sleepy Hollow, Sylvania, Lucas County, Ohio, 43560, United States",41.71083765,-83.70816048949855
Mount Carmel College of Nursing,Columbus,OH,Roman CatholicÂ Â Â Â Â Â Â Â Â Â Â Â Â Â  ,24.32,43.21,49.32,38.102,"Mount Carmel College of Nursing, Columbus, OH","Mount Carmel College of Nursing, 127, South Davis Avenue, Franklinton, Columbus, Franklin County, Ohio, 43222, United States",39.9574536,-83.02096813501386
Ohio Dominican University,Columbus,OH,Roman CatholicÂ Â Â Â Â Â Â Â Â Â Â Â Â Â  ,31.17,40.71,48.29,39.929,"Ohio Dominican University, Columbus, OH","Ohio Dominican University, 1216, Sunbury Road, Columbus, Mifflin Township, Franklin County, Ohio, 43129, United States",39.9945316,-82.94235868789129
Franciscan University of Steubenville,Steubenville,OH,Roman CatholicÂ Â Â Â Â Â Â Â Â Â Â Â Â Â  ,57.42,48.21,49.48,52.401,"Franciscan University of Steubenville, Steubenville, OH","Franciscan University of Steubenville, 1235, University Boulevard, Franciscan Square, Brady Estates Historic District, Steubenville, Jefferson County, Ohio, 43952, United States",40.376755,-80.62193141522137
Walsh University,North Canton,OH,Roman CatholicÂ Â Â Â Â Â Â Â Â Â Â Â Â Â  ,35.94,46.06,55.21,45.676,"Walsh University, North Canton, OH","Walsh University, 2020, East Maple Street, North Canton, Stark County, Ohio, 44720, United States",40.8736512,-81.36876839501872
Xavier University,Cincinnati,OH,Roman CatholicÂ Â Â Â Â Â Â Â Â Â Â Â Â Â  ,71.46,63.76,49.76,61.235,"Xavier University, Cincinnati, OH","Xavier University, Victory Parkway, Evanston, Cincinnati, Hamilton County, Ohio, 45229, United States",39.1513078,-84.47083471474068
University of Portland,Portland,OR,Roman CatholicÂ Â Â Â Â Â Â Â Â Â Â Â Â Â  ,52.67,52.27,51.6,52.162,"University of Portland, Portland, OR","University of Portland, 5000, North Willamette Boulevard, University Park, Portland, Multnomah County, Oregon, 97203, United States",45.5736806,-122.72828778187088
Alvernia University,Reading,PA,Roman CatholicÂ Â Â Â Â Â Â Â Â Â Â Â Â Â  ,42.47,46.53,49.04,45.911,"Alvernia University, Reading, PA","Alvernia University, 400, Saint Bernadine Street, Reading, Berks County, Pennsylvania, 19607, United States",40.309961900000005,-75.93530460019305
Carlow University,Pittsburgh,PA,Roman CatholicÂ Â Â Â Â Â Â Â Â Â Â Â Â Â  ,30.47,44.28,48.92,40.615,"Carlow University, Pittsburgh, PA","Carlow University, 3333, Fifth Avenue, West Oakland, Pittsburgh, Allegheny County, Pennsylvania, 15213, United States",40.438763,-79.96366141482949
Chestnut Hill College,Philadelphia,PA,Roman CatholicÂ Â Â Â Â Â Â Â Â Â Â Â Â Â  ,28.77,41.45,49.76,39.706,"Chestnut Hill College, Philadelphia, PA","Chestnut Hill College, 9701, Germantown Avenue, Philadelphia, Philadelphia County, Pennsylvania, 19118, United States",40.086506400000005,-75.22687890420772
Gannon University,Erie,PA,Roman CatholicÂ Â Â Â Â Â Â Â Â Â Â Â Â Â  ,46.37,58.55,49.16,49.92,"Gannon University, Erie, PA","Gannon University, 109, West 7th Street, Downtown Erie, Erie, Erie County, Pennsylvania, 16541, United States",42.1281052,-80.0867293
Gwynedd Mercy University,Gwynedd Valley,PA,Roman CatholicÂ Â Â Â Â Â Â Â Â Â Â Â Â Â  ,28.03,45.38,50.36,40.435,"Gwynedd Mercy University, Gwynedd Valley, PA","Gwynedd Mercy University, 1325, Sumneytown Pike, Spring House, Lower Gwynedd Township, Montgomery County, Pennsylvania, 19437, United States",40.19868565,-75.23549052421265
King's College,Wilkes-Barre,PA,Roman CatholicÂ Â Â Â Â Â Â Â Â Â Â Â Â Â  ,33.32,45.46,50.76,42.727,"King's College, Wilkes-Barre, PA","King's College, Madison Street, North End, Wilkes-Barre, Luzerne County, Pennsylvania, 18705, United States",41.24954285,-75.87822679981367
La Salle University,Philadelphia,PA,Roman CatholicÂ Â Â Â Â Â Â Â Â Â Â Â Â Â  ,34.38,51.79,48.52,43.519,"La Salle University, Philadelphia, PA","La Salle University, Locust Avenue, East Germantown, Philadelphia, Philadelphia County, Pennsylvania, 19138, United States",40.03762975,-75.15400251695417
Marywood University,Scranton,PA,Roman CatholicÂ Â Â Â Â Â Â Â Â Â Â Â Â Â  ,39.78,46.77,49.24,44.963,"Marywood University, Scranton, PA","Marywood University, Woodlawn Street, Dunmore, Lackawanna County, Pennsylvania, 18509, United States",41.4345694,-75.63250168205998
Misericordia University,Dallas,PA,Roman CatholicÂ Â Â Â Â Â Â Â Â Â Â Â Â Â  ,37.71,45.94,50.04,44.29,"Misericordia University, Dallas, PA","Misericordia University, Machell Avenue, Druid Hills, Dallas, Luzerne County, Pennsylvania, 18612, United States",41.34579835,-75.97183590553288
Mount Aloysius College,Cresson,PA,Roman CatholicÂ Â Â Â Â Â Â Â Â Â Â Â Â Â  ,39.43,40.48,51.87,44.62,"Mount Aloysius College, Cresson, PA","Mount Aloysius College, Admiral Peary Highway, Hoguetown, Cresson Township, Cambria County, Pennsylvania, 16630, United States",40.45871235,-78.60403790736467
Neumann University,Aston,PA,Roman CatholicÂ Â Â Â Â Â Â Â Â Â Â Â Â Â  ,38.13,42.54,48.13,43.014,"Neumann University, Aston, PA","Neumann University, 1, Neumann Drive, Aston Township, Delaware County, Pennsylvania, 19014, United States",39.87556305,-75.44047445081735
Saint Francis University,Loretto,PA,Roman CatholicÂ Â Â Â Â Â Â Â Â Â Â Â Â Â  ,38.02,45.34,48.96,43.862,"Saint Francis University, Loretto, PA","Saint Francis University, 117, Evergreen Drive, Loretto, Cambria County, Pennsylvania, 15940, United States",40.5034672,-78.6382564
Seton Hill University,Greensburg,PA,Roman CatholicÂ Â Â Â Â Â Â Â Â Â Â Â Â Â  ,34.57,45.26,49.44,42.658,"Seton Hill University, Greensburg, PA","Seton Hill University, West Pittsburgh Street, Ludwick, Greensburg, Westmoreland County, Pennsylvania, 15601, United States",40.310888,-79.55688656928012
Villanova University,Villanova,PA,Roman CatholicÂ Â Â Â Â Â Â Â Â Â Â Â Â Â  ,88.38,78.96,51.95,71.915,"Villanova University, Villanova, PA","Villanova University, East Lancaster Avenue, Villanova, Radnor, Radnor Township, Delaware County, Pennsylvania, 19010, United States",40.03575,-75.3401787
Providence College,Providence,RI,Roman CatholicÂ Â Â Â Â Â Â Â Â Â Â Â Â Â  ,84.87,55.13,49.56,64.793,"Providence College, Providence, RI","Providence College, 1, Cunningham Square, Providence, Providence County, Rhode Island, 02918, United States",41.8442938,-71.43548862523096
Salve Regina University,Newport,RI,Roman CatholicÂ Â Â Â Â Â Â Â Â Â Â Â Â Â  ,52.19,48.09,50.0,50.494,"Salve Regina University, Newport, RI","Salve Regina University, 100, Ochre Point Avenue, Newport, Newport County, Rhode Island, 02840, United States",41.471202000000005,-71.30049366464249
Christian Brothers University,Memphis,TN,Roman CatholicÂ Â Â Â Â Â Â Â Â Â Â Â Â Â  ,23.64,46.06,49.52,38.479,"Christian Brothers University, Memphis, TN","Christian Brothers University, 650, East Parkway South, Lenox, Memphis, Shelby County, West Tennessee, Tennessee, 38104, United States",35.128969600000005,-89.98022497909133
University of Dallas,Irving,TX,Roman CatholicÂ Â Â Â Â Â Â Â Â Â Â Â Â Â  ,58.71,45.86,50.24,52.752,"University of Dallas, Irving, TX","University of Dallas, 1845, East Northgate Drive, Irving, Dallas County, Texas, 75062, United States",32.8487635,-96.92256763370509
University of the Incarnate Word,San Antonio,TX,Roman CatholicÂ Â Â Â Â Â Â Â Â Â Â Â Â Â  ,97.37,64.62,49.4,71.624,"University of the Incarnate Word, San Antonio, TX","University of the Incarnate Word, Groveland Place, San Antonio, Bexar County, Texas, 78209, United States",29.4688466,-98.46910390973764
University of St Thomas,Houston,TX,Roman CatholicÂ Â Â Â Â Â Â Â Â Â Â Â Â Â  ,94.93,50.04,49.28,67.687,"University of St Thomas, Houston, TX","University of Saint Thomas, Branard Street, Roseland Estates, Montrose, Houston, Harris County, Texas, 77006, United States",29.7368408,-95.39417194809748
St. Mary's University,San Antonio,TX,Roman CatholicÂ Â Â Â Â Â Â Â Â Â Â Â Â Â  ,69.5,48.84,53.98,59.159,"St. Mary's University, San Antonio, TX","St. Mary's University, Bradford Avenue, San Antonio, Bexar County, Texas, 78228, United States",29.45223455,-98.56460747256097
Saint Michael's College,Colchester,VT,Roman CatholicÂ Â Â Â Â Â Â Â Â Â Â Â Â Â  ,29.56,42.07,49.12,39.889,"Saint Michael's College, Colchester, VT","Saint Michael's College, 1, College Parkway, Colchester, Chittenden County, Vermont, 05439, United States",44.4952594,-73.16559401843895
Marymount University,Arlington,VA,Roman CatholicÂ Â Â Â Â Â Â Â Â Â Â Â Â Â  ,59.29,49.8,48.32,53.003,"Marymount University, Arlington, VA","Marymount University, 2807, North Glebe Road, Garden City, Arlington County, Virginia, 22207, United States",38.9054445,-77.12768184296903
Gonzaga University,Spokane,WA,Roman CatholicÂ Â Â Â Â Â Â Â Â Â Â Â Â Â  ,95.8,64.65,49.68,71.114,"Gonzaga University, Spokane, WA","Gonzaga University, East Desmet Avenue, Spokane, Spokane County, Washington, 99258, United States",47.66710255,-117.4030545594068
Saint Martin's University,Lacey,WA,Roman CatholicÂ Â Â Â Â Â Â Â Â Â Â Â Â Â  ,45.86,44.87,49.88,47.271,"Saint Martin's University, Lacey, WA","Saint Martin's University, Desmond Drive Southeast, Lacey, Thurston County, Washington, 98503, United States",47.04343285,-122.81343957968636
Seattle University,Seattle,WA,Roman CatholicÂ Â Â Â Â Â Â Â Â Â Â Â Â Â  ,89.42,66.93,52.91,70.312,"Seattle University, Seattle, WA","Seattle University, East Jefferson Street, Yesler Terrace, Seattle, King County, Washington, 98104, United States",47.60950425,-122.31879829702284
Wheeling University,Wheeling,WV,Roman CatholicÂ Â Â Â Â Â Â Â Â Â Â Â Â Â  ,26.99,37.71,48.48,37.734,"Wheeling University, Wheeling, WV","Wheeling University, Locust Avenue, Lenox, Wheeling, Ohio County, West Virginia, 26003, United States",40.0714296,-80.69075691654183
Alverno College,Milwaukee,WI,Roman CatholicÂ Â Â Â Â Â Â Â Â Â Â Â Â Â  ,30.19,44.87,49.36,40.797,"Alverno College, Milwaukee, WI","Alverno College, 3400, South 43rd Street, Alverno, Milwaukee, Milwaukee County, Wisconsin, 53234, United States",42.98375305,-87.96548223659715
Edgewood College,Madison,WI,Roman CatholicÂ Â Â Â Â Â Â Â Â Â Â Â Â Â  ,36.17,42.74,53.19,44.296,"Edgewood College, Madison, WI","Edgewood College, 1000, Edgewood College Drive, Dudgeon-Monroe, Madison, Dane County, Wisconsin, 53711, United States",43.0588111,-89.42122409051677
Marian University,Fond Du Lac,WI,Roman CatholicÂ Â Â Â Â Â Â Â Â Â Â Â Â Â  ,31.28,41.53,48.48,40.213,"Marian University, Fond Du Lac, WI","Marian University, 45, South National Avenue, Fond du Lac, Fond du Lac County, Wisconsin, 54935, United States",43.7774111,-88.41412789035714
Mount Mary University,Milwaukee,WI,Roman CatholicÂ Â Â Â Â Â Â Â Â Â Â Â Â Â  ,36.54,41.45,50.32,43.037,"Mount Mary University, Milwaukee, WI","Mount Mary University, 2900, North Menomonee River Parkway, Mount Mary, Swan Park, Milwaukee, Milwaukee County, Wisconsin, 53222, United States",43.07252155,-88.03145157759188
Viterbo University,La Crosse,WI,Roman CatholicÂ Â Â Â Â Â Â Â Â Â Â Â Â Â  ,36.84,49.76,53.47,46.078,"Viterbo University, La Crosse, WI","Viterbo University, 900, Viterbo Drive, Washburn, La Crosse, La Crosse County, Wisconsin, 54601, United States",43.80321085,-91.24456329560022
Ave Maria University,Ave Maria,FL,Roman CatholicÂ Â Â Â Â Â Â Â Â Â Â Â Â Â  ,48.36,41.57,49.96,47.644,"Ave Maria University, Ave Maria, FL","Ave Maria University, Ave Maria Boulevard, Ave Maria, Collier County, Florida, United States",26.33623575,-81.43985445316366
Oakwood University,Huntsville,AL,Seventh Day Adventist,43.84,39.59,48.72,44.944,"Oakwood University, Huntsville, AL","Oakwood University, Jordan Lane Northwest, Gentily Forest, Huntsville, Madison County, Alabama, 35816, United States",34.758802,-86.65459911789776
Prescott College,Prescott,AZ,Seventh Day Adventist,23.7,42.39,53.19,39.239,"Prescott College, Prescott, AZ","Prescott College, Elrod Road, Miller Valley, Prescott, Yavapai County, Arizona, 86313, United States",34.5448939,-112.47749820812083
La Sierra University,Riverside,CA,Seventh Day Adventist,36.32,43.76,52.79,44.399,"La Sierra University, Riverside, CA","Security Kiosk, 4500, Riverwalk Parkway, La Sierra, Riverside, Riverside County, California, 92505, United States",33.9101505,-117.49574645593684
Pacific Union College,Angwin,CA,Seventh Day Adventist,26.5,38.74,48.05,37.572,"Pacific Union College, Angwin, CA","Pacific Union College, College Avenue, Veteran Heights, Angwin, Napa County, California, 94508, United States",38.5702492,-122.4404486
Washington Adventist University,Takoma Park,MD,Seventh Day Adventist,42.31,40.17,47.41,43.924,"Washington Adventist University, Takoma Park, MD","Washington Adventist University, 7600, Flower Avenue, Carroll Manor, Takoma Park, Montgomery County, Maryland, 20912, United States",38.98617775,-77.00002305629916
Andrews University,Berrien Springs,MI,Seventh Day Adventist,36.5,47.17,50.16,44.1,"Andrews University, Berrien Springs, MI","Andrews University, 8975, West Valley View Drive, Berrien Springs, Oronoko Charter Township, Berrien County, Michigan, 49104, United States",41.96966265,-86.36331553855976
Kettering University,Flint,MI,Seventh Day Adventist,25.72,45.46,50.28,39.495,"Kettering University, Flint, MI","Kettering University, 1700, University Avenue, Flint, Genesee County, Michigan, 48504, United States",43.014042200000006,-83.7140043528519
Southwestern Adventist University,Keene,TX,Seventh Day Adventist,36.77,39.4,54.97,44.581,"Southwestern Adventist University, Keene, TX","Southwestern Adventist University, 100, Pecan Street, Keene, Johnson County, Texas, 76059, United States",32.39755805,-97.32821992906278
Walla Walla University,College Place,WA,Seventh Day Adventist,39.59,43.57,51.71,45.237,"Walla Walla University, College Place, WA","Walla Walla University Church, Southwest 4th Street, College Place, Walla Walla County, Washington, 99324, United States",46.0464038,-118.39197724477212
Southern Virginia University,Buena Vista,VA,The Church of Jesus Christ of Latter-day Saints,42.43,40.98,48.88,44.722,"Southern Virginia University, Buena Vista, VA","Southern Virginia University, 1, University Hill Drive, Buena Vista, Virginia, 24416, United States",37.74181535,-79.34037954670688
Talladega College,Talladega,AL,United Church of Christ,34.05,39.51,50.72,41.814,"Talladega College, Talladega, AL","Talladega College, Industrial Boulevard, Talladega, Talladega County, Alabama, 35160, United States",33.4325135,-86.11488779398088
Piedmont University,Demorest,GA,United Church of Christ,49.44,47.57,49.0,48.89,"Piedmont University, Demorest, GA","Piedmont University Maintenance, 441 Historic Highway, Demorest, Habersham County, Georgia, 30544, United States",34.57027745,-83.54171067915166
Elmhurst University,Elmhurst,IL,United Church of Christ,60.45,51.71,50.28,54.633,"Elmhurst University, Elmhurst, IL","Elmhurst University, 190, Park Avenue, Elmhurst, DuPage County, Illinois, 60126, United States",41.89711725,-87.94692011451079
Hood College,Frederick,MD,United Church of Christ,51.56,44.55,50.6,49.775,"Hood College, Frederick, MD","Hood College, 401, Rosemont Avenue, Rosedale, Frederick, Frederick County, Maryland, 21701, United States",39.4229618,-77.41891707264057
Doane University,Crete,NE,United Church of Christ,33.54,50.68,51.28,44.066,"Doane University, Crete, NE","Doane University, 1014, Boswell Avenue, Crete, Saline County, Nebraska, 68333, United States",40.62131545,-96.94717593126433
Catawba College,Salisbury,NC,United Church of Christ,41.18,41.57,53.51,46.194,"Catawba College, Salisbury, NC","Catawba College, 2300, West Innes Street, Eagle Heights, Salisbury, Rowan County, North Carolina, 28144, United States",35.69155045,-80.48600853247686
Defiance College,Defiance,OH,United Church of Christ,28.2,38.55,53.15,40.255,"Defiance College, Defiance, OH","Defiance College, McMaster Place, Defiance, Noble Township, Defiance County, Ohio, 43512, United States",41.297818500000005,-84.35295442000856
Heidelberg University,Tiffin,OH,United Church of Christ,34.2,41.37,49.68,41.829,"Heidelberg University, Tiffin, OH","Heidelberg University, Rebecca Street, College Hill, Tiffin, Seneca County, Ohio, 44883, United States",41.11442525,-83.16686666639325
Pacific University,Forest Grove,OR,United Church of Christ,42.98,54.38,49.68,47.94,"Pacific University, Forest Grove, OR","Pacific University, 2043, College Way, Forest Grove, Washington County, Oregon, 97116, United States",45.522646300000005,-123.10931873307152
Northland College,Ashland,WI,United Church of Christ,26.57,38.97,49.28,38.138,"Northland College, Ashland, WI","Northland College, 1411, Ellis Avenue, Ashland, Ashland County, Wisconsin, 54806, United States",46.5792721,-90.87487038598913
Indiana Wesleyan University-Marion,Marion,IN,Wesleyan,56.36,14.57,52.67,46.533,"Indiana Wesleyan University-Marion, Marion, IN","Indiana Wesleyan University, 4201, South Washington Street, Marion, Grant County, Indiana, 46953, United States",40.5163759,-85.66416502625239
Houghton University,Houghton,NY,Wesleyan,30.89,40.44,63.46,45.836,"Houghton University, Houghton, NY","Houghton University, Centerville Road, Houghton, Town of Caneadea, Allegany County, New York, 14745, United States",42.426287,-78.155462892227
